{
"type": "FeatureCollection",
"name": "labels",
"crs": { "type": "name", "properties": { "name": "urn:ogc:def:crs:OGC:1.3:CRS84" } },
"xy_coordinate_resolution": 1e-05,
"features": [
{ "type": "Feature", "properties": { "name": "16th Avenue Service Road", "key": "16th Avenue Service Road", "kind": "street" }, "geometry": { "type": "LineString", "coordinates": [ [ -123.20961, 49.25666 ], [ -123.20954, 49.25823 ] ] } },
{ "type": "Feature", "properties": { "name": "Acadia Circle", "key": "Acadia Circle", "kind": "street" }, "geometry": { "type": "MultiLineString", "coordinates": [ [ [ -123.24227, 49.27379 ], [ -123.24157, 49.27394 ], [ -123.24078, 49.2739 ] ], [ [ -123.24101, 49.27334 ], [ -123.24078, 49.2739 ] ], [ [ -123.24078, 49.2739 ], [ -123.2407, 49.27414 ] ] ] } },
{ "type": "Feature", "properties": { "name": "Acadia Park Lane", "key": "Acadia Park Lane", "kind": "trail" }, "geometry": { "type": "LineString", "coordinates": [ [ -123.23808, 49.26244 ], [ -123.23792, 49.26241 ], [ -123.23767, 49.26218 ], [ -123.23733, 49.26215 ], [ -123.23669, 49.26137 ], [ -123.23664, 49.26124 ], [ -123.23668, 49.2611 ], [ -123.23661, 49.26096 ], [ -123.23645, 49.26079 ], [ -123.23624, 49.26081 ], [ -123.2353, 49.25973 ] ] } },
{ "type": "Feature", "properties": { "name": "Acadia Road", "key": "Acadia Road", "kind": "street" }, "geometry": { "type": "MultiLineString", "coordinates": [ [ [ -123.249, 49.27698 ], [ -123.24756, 49.27719 ] ], [ [ -123.24756, 49.27719 ], [ -123.24765, 49.27747 ] ], [ [ -123.23379, 49.26076 ], [ -123.23381, 49.26096 ], [ -123.24069, 49.26931 ], [ -123.24269, 49.27502 ], [ -123.24306, 49.27562 ], [ -123.24336, 49.27594 ], [ -123.24385, 49.27632 ], [ -123.24434, 49.27661 ], [ -123.24494, 49.27685 ], [ -123.24545, 49.27701 ], [ -123.24608, 49.27713 ], [ -123.24674, 49.2772 ], [ -123.24756, 49.27719 ] ] ] } },
{ "type": "Feature", "properties": { "name": "Adelaide Road", "key": "Adelaide Road", "kind": "street" }, "geometry": { "type": "LineString", "coordinates": [ [ -123.22296, 49.26659 ], [ -123.223, 49.26578 ] ] } },
{ "type": "Feature", "properties": { "name": "Admiralty Trail", "key": "Admiralty", "kind": "trail" }, "geometry": { "type": "MultiLineString", "coordinates": [ [ [ -123.24175, 49.27897 ], [ -123.24247, 49.27894 ], [ -123.2431, 49.27885 ], [ -123.24367, 49.27898 ] ], [ [ -123.24167, 49.27897 ], [ -123.24175, 49.27897 ] ], [ [ -123.24171, 49.27904 ], [ -123.24175, 49.27897 ] ], [ [ -123.24171, 49.27922 ], [ -123.24171, 49.27904 ] ], [ [ -123.24167, 49.27897 ], [ -123.24171, 49.27904 ] ], [ [ -123.2312, 49.27738 ], [ -123.23127, 49.27751 ], [ -123.23158, 49.27724 ], [ -123.23162, 49.27755 ], [ -123.23176, 49.27742 ], [ -123.23183, 49.2775 ], [ -123.23195, 49.27749 ], [ -123.23209, 49.27732 ], [ -123.23224, 49.27733 ], [ -123.23259, 49.27721 ], [ -123.23449, 49.27741 ], [ -123.23489, 49.27755 ], [ -123.23537, 49.27762 ], [ -123.23558, 49.27778 ], [ -123.2357, 49.27801 ], [ -123.23597, 49.27804 ], [ -123.23606, 49.27809 ], [ -123.23623, 49.27803 ], [ -123.23633, 49.27804 ], [ -123.23654, 49.2782 ], [ -123.23685, 49.2783 ], [ -123.23703, 49.27841 ], [ -123.23846, 49.27881 ], [ -123.2395, 49.2788 ], [ -123.2396, 49.27885 ], [ -123.23967, 49.27898 ], [ -123.24035, 49.27907 ], [ -123.2412, 49.2791 ], [ -123.24146, 49.27898 ], [ -123.24167, 49.27897 ] ], [ [ -123.2312, 49.27738 ], [ -123.23069, 49.27819 ] ], [ [ -123.22521, 49.27675 ], [ -123.22523, 49.27706 ], [ -123.22537, 49.27714 ], [ -123.2257, 49.27713 ], [ -123.22707, 49.27728 ], [ -123.22751, 49.27709 ], [ -123.22768, 49.27729 ], [ -123.22848, 49.27757 ], [ -123.22945, 49.27766 ], [ -123.22969, 49.27762 ], [ -123.23012, 49.27764 ], [ -123.23048, 49.27754 ], [ -123.23105, 49.27717 ], [ -123.23111, 49.27718 ], [ -123.23109, 49.27733 ], [ -123.2312, 49.27738 ] ] ] } },
{ "type": "Feature", "properties": { "name": "Agricultural Road - q̓ʷeχt", "key": "Agricultural Road", "kind": "trail" }, "geometry": { "type": "MultiLineString", "coordinates": [ [ [ -123.25765, 49.26493 ], [ -123.25768, 49.26492 ] ], [ [ -123.25626, 49.26543 ], [ -123.25641, 49.26533 ], [ -123.25756, 49.26496 ] ], [ [ -123.25516, 49.26582 ], [ -123.25617, 49.26546 ] ] ] } },
{ "type": "Feature", "properties": { "name": "Agronomy Road", "key": "Agronomy Road", "kind": "street" }, "geometry": { "type": "MultiLineString", "coordinates": [ [ [ -123.25527, 49.2597 ], [ -123.25265, 49.26065 ] ], [ [ -123.25161, 49.25972 ], [ -123.24979, 49.26036 ] ], [ [ -123.24044, 49.26365 ], [ -123.23966, 49.26395 ] ] ] } },
{ "type": "Feature", "properties": { "name": "Aims", "key": "Aims", "kind": "trail" }, "geometry": { "type": "LineString", "coordinates": [ [ -123.22819, 49.24968 ], [ -123.22829, 49.25003 ], [ -123.2285, 49.25037 ], [ -123.22859, 49.2507 ], [ -123.22884, 49.25117 ], [ -123.22886, 49.25161 ] ] } },
{ "type": "Feature", "properties": { "name": "Allison Road", "key": "Allison Road", "kind": "street" }, "geometry": { "type": "LineString", "coordinates": [ [ -123.24081, 49.26492 ], [ -123.24314, 49.26774 ], [ -123.2439, 49.26878 ], [ -123.24554, 49.27356 ] ] } },
{ "type": "Feature", "properties": { "name": "Belmont Avenue", "key": "Belmont Avenue", "kind": "street" }, "geometry": { "type": "LineString", "coordinates": [ [ -123.22395, 49.27473 ], [ -123.22393, 49.27487 ], [ -123.22367, 49.275 ], [ -123.22249, 49.27524 ], [ -123.22149, 49.27533 ], [ -123.22011, 49.27533 ], [ -123.21903, 49.27517 ] ] } },
{ "type": "Feature", "properties": { "name": "Berton Avenue", "key": "Berton Avenue", "kind": "street" }, "geometry": { "type": "LineString", "coordinates": [ [ -123.23132, 49.25642 ], [ -123.23245, 49.25616 ], [ -123.23589, 49.25493 ] ] } },
{ "type": "Feature", "properties": { "name": "Binning Avenue", "key": "Binning Avenue", "kind": "street" }, "geometry": { "type": "LineString", "coordinates": [ [ -123.23263, 49.25052 ], [ -123.2294, 49.2509 ] ] } },
{ "type": "Feature", "properties": { "name": "Binning Road", "key": "Binning Road", "kind": "street" }, "geometry": { "type": "LineString", "coordinates": [ [ -123.2294, 49.2509 ], [ -123.23044, 49.25441 ], [ -123.23135, 49.25649 ], [ -123.23158, 49.25677 ], [ -123.23167, 49.25721 ], [ -123.23163, 49.25733 ] ] } },
{ "type": "Feature", "properties": { "name": "Biological Science Road", "key": "Biological Science Road", "kind": "trail" }, "geometry": { "type": "MultiLineString", "coordinates": [ [ [ -123.25321, 49.26278 ], [ -123.2538, 49.26257 ] ], [ [ -123.2529, 49.26289 ], [ -123.25317, 49.26279 ] ] ] } },
{ "type": "Feature", "properties": { "name": "Birney Avenue", "key": "Birney Avenue", "kind": "street" }, "geometry": { "type": "LineString", "coordinates": [ [ -123.23044, 49.25441 ], [ -123.23214, 49.25445 ], [ -123.23268, 49.25441 ], [ -123.23298, 49.25435 ], [ -123.23525, 49.25355 ] ] } },
{ "type": "Feature", "properties": { "name": "Blanca Street", "key": "Blanca Street", "kind": "street" }, "geometry": { "type": "LineString", "coordinates": [ [ -123.21543, 49.25832 ], [ -123.215, 49.27039 ] ] } },
{ "type": "Feature", "properties": { "name": "Bruce Todd Lane", "key": "Bruce Todd Lane", "kind": "street" }, "geometry": { "type": "LineString", "coordinates": [ [ -123.24916, 49.25819 ], [ -123.24892, 49.25791 ] ] } },
{ "type": "Feature", "properties": { "name": "Camosun Bog | xʷməm̓qʷe:m Boardwalk", "key": "Camosun Bog", "kind": "trail" }, "geometry": { "type": "MultiLineString", "coordinates": [ [ [ -123.19793, 49.25468 ], [ -123.19814, 49.2547 ], [ -123.19877, 49.25453 ] ], [ [ -123.1974, 49.25471 ], [ -123.19764, 49.25474 ], [ -123.19793, 49.25468 ] ], [ [ -123.19793, 49.25468 ], [ -123.19806, 49.25454 ], [ -123.19805, 49.25447 ], [ -123.19794, 49.25441 ], [ -123.19802, 49.25439 ], [ -123.19797, 49.25432 ], [ -123.19805, 49.25424 ], [ -123.19777, 49.25406 ], [ -123.19699, 49.25416 ], [ -123.19691, 49.25425 ] ], [ [ -123.19667, 49.25481 ], [ -123.19725, 49.2548 ], [ -123.1974, 49.25471 ] ], [ [ -123.19691, 49.25425 ], [ -123.19726, 49.25437 ], [ -123.19742, 49.25467 ], [ -123.1974, 49.25471 ] ], [ [ -123.19656, 49.25409 ], [ -123.19691, 49.25425 ] ] ] } },
{ "type": "Feature", "properties": { "name": "Camosun Street", "key": "Camosun Street", "kind": "street" }, "geometry": { "type": "MultiLineString", "coordinates": [ [ [ -123.19707, 49.26004 ], [ -123.19715, 49.25804 ] ], [ [ -123.19669, 49.24859 ], [ -123.19682, 49.24631 ], [ -123.19677, 49.24575 ], [ -123.19684, 49.2356 ], [ -123.19708, 49.23505 ], [ -123.19705, 49.23492 ] ], [ [ -123.19658, 49.25818 ], [ -123.19658, 49.25523 ] ] ] } },
{ "type": "Feature", "properties": { "name": "Camosun Trails", "key": "Camosun Trails", "kind": "trail" }, "geometry": { "type": "MultiLineString", "coordinates": [ [ [ -123.19989, 49.25458 ], [ -123.20026, 49.25488 ], [ -123.20019, 49.25537 ], [ -123.20025, 49.25563 ], [ -123.20041, 49.25576 ], [ -123.20113, 49.25586 ], [ -123.20164, 49.25609 ], [ -123.20202, 49.25674 ], [ -123.20249, 49.25692 ], [ -123.20297, 49.25741 ], [ -123.2031, 49.25778 ], [ -123.20311, 49.25804 ] ], [ [ -123.20184, 49.25456 ], [ -123.20163, 49.25457 ], [ -123.20059, 49.25435 ], [ -123.19989, 49.25458 ] ], [ [ -123.19989, 49.25458 ], [ -123.1996, 49.25459 ], [ -123.19897, 49.25449 ], [ -123.19899, 49.25452 ], [ -123.19877, 49.25453 ] ], [ [ -123.19658, 49.25523 ], [ -123.19665, 49.25521 ], [ -123.19667, 49.25481 ] ], [ [ -123.19596, 49.25379 ], [ -123.1963, 49.25383 ], [ -123.19656, 49.25409 ] ] ] } },
{ "type": "Feature", "properties": { "name": "Campus Road", "key": "Campus Road", "kind": "street" }, "geometry": { "type": "LineString", "coordinates": [ [ -123.24461, 49.27087 ], [ -123.2459, 49.27067 ] ] } },
{ "type": "Feature", "properties": { "name": "Chaldecott Street", "key": "Chaldecott Street", "kind": "street" }, "geometry": { "type": "LineString", "coordinates": [ [ -123.19228, 49.24622 ], [ -123.19227, 49.2481 ] ] } },
{ "type": "Feature", "properties": { "name": "Chancellor Boulevard", "key": "Chancellor Boulevard", "kind": "street" }, "geometry": { "type": "MultiLineString", "coordinates": [ [ [ -123.24895, 49.27324 ], [ -123.25019, 49.27295 ], [ -123.25159, 49.27252 ], [ -123.2531, 49.27186 ], [ -123.254, 49.27133 ] ], [ [ -123.25391, 49.27118 ], [ -123.2529, 49.27177 ], [ -123.25161, 49.27233 ], [ -123.25014, 49.27281 ], [ -123.24928, 49.27301 ], [ -123.24888, 49.27307 ] ], [ [ -123.23618, 49.27284 ], [ -123.23866, 49.27324 ], [ -123.24218, 49.27356 ], [ -123.24554, 49.27356 ], [ -123.24722, 49.27346 ], [ -123.24875, 49.27327 ] ], [ [ -123.24868, 49.2731 ], [ -123.24797, 49.27323 ], [ -123.24625, 49.27338 ], [ -123.24437, 49.27345 ], [ -123.24317, 49.27344 ], [ -123.24213, 49.27341 ], [ -123.24006, 49.27327 ], [ -123.23827, 49.27306 ], [ -123.23658, 49.27279 ], [ -123.2339, 49.2722 ], [ -123.2313, 49.27142 ], [ -123.22896, 49.27052 ], [ -123.22564, 49.26898 ] ], [ [ -123.22381, 49.26805 ], [ -123.21967, 49.26606 ], [ -123.21917, 49.26592 ], [ -123.21854, 49.26577 ], [ -123.21746, 49.26564 ], [ -123.21517, 49.26561 ] ], [ [ -123.21516, 49.26575 ], [ -123.21755, 49.2658 ], [ -123.21851, 49.26592 ], [ -123.21917, 49.26608 ], [ -123.22002, 49.26639 ], [ -123.22368, 49.26813 ] ] ] } },
{ "type": "Feature", "properties": { "name": "Chancellor Mews", "key": "Chancellor Mews", "kind": "street" }, "geometry": { "type": "MultiLineString", "coordinates": [ [ [ -123.25367, 49.27085 ], [ -123.25264, 49.27143 ], [ -123.25253, 49.27142 ], [ -123.25205, 49.27086 ] ], [ [ -123.25197, 49.27165 ], [ -123.25202, 49.27171 ], [ -123.25197, 49.27175 ], [ -123.25131, 49.27201 ] ], [ [ -123.25108, 49.27208 ], [ -123.2499, 49.27248 ], [ -123.24863, 49.27276 ] ] ] } },
{ "type": "Feature", "properties": { "name": "Chancellor Trail", "key": "Chancellor", "kind": "trail" }, "geometry": { "type": "LineString", "coordinates": [ [ -123.22862, 49.2709 ], [ -123.22835, 49.27081 ], [ -123.22809, 49.27064 ], [ -123.22759, 49.27053 ], [ -123.22743, 49.27057 ], [ -123.22725, 49.27072 ], [ -123.22664, 49.27072 ], [ -123.22615, 49.27054 ], [ -123.22531, 49.27035 ], [ -123.22511, 49.27019 ], [ -123.22493, 49.27019 ] ] } },
{ "type": "Feature", "properties": { "name": "Cleveland Trail", "key": "Cleveland", "kind": "street" }, "geometry": { "type": "LineString", "coordinates": [ [ -123.22252, 49.25908 ], [ -123.22205, 49.2588 ], [ -123.222, 49.25858 ] ] } },
{ "type": "Feature", "properties": { "name": "Cleveland Trail", "key": "Cleveland", "kind": "trail" }, "geometry": { "type": "MultiLineString", "coordinates": [ [ [ -123.22971, 49.26327 ], [ -123.22941, 49.2632 ], [ -123.22252, 49.25908 ] ], [ [ -123.22165, 49.2583 ], [ -123.22139, 49.25788 ], [ -123.22096, 49.2575 ], [ -123.22091, 49.25726 ], [ -123.22076, 49.25718 ], [ -123.22022, 49.25716 ], [ -123.21989, 49.25704 ], [ -123.21962, 49.25686 ], [ -123.2189, 49.25616 ], [ -123.21886, 49.2559 ], [ -123.21856, 49.25585 ], [ -123.218, 49.2552 ], [ -123.2177, 49.25503 ] ] ] } },
{ "type": "Feature", "properties": { "name": "Clinton Trail", "key": "Clinton", "kind": "trail" }, "geometry": { "type": "LineString", "coordinates": [ [ -123.20342, 49.23708 ], [ -123.20343, 49.23718 ], [ -123.20382, 49.23766 ], [ -123.20377, 49.23794 ], [ -123.20389, 49.2383 ], [ -123.2046, 49.23902 ], [ -123.20449, 49.23939 ], [ -123.20484, 49.2398 ], [ -123.20467, 49.24053 ], [ -123.20439, 49.24072 ], [ -123.20391, 49.24081 ], [ -123.20295, 49.24114 ], [ -123.2021, 49.24153 ], [ -123.20195, 49.24166 ], [ -123.20056, 49.24213 ], [ -123.19974, 49.24245 ], [ -123.19941, 49.24262 ] ] } },
{ "type": "Feature", "properties": { "name": "College Highroad", "key": "College Highroad", "kind": "street" }, "geometry": { "type": "MultiLineString", "coordinates": [ [ [ -123.24511, 49.26845 ], [ -123.24392, 49.26883 ], [ -123.24236, 49.26919 ], [ -123.24129, 49.26936 ], [ -123.23993, 49.26949 ] ], [ [ -123.21965, 49.26624 ], [ -123.21971, 49.26589 ], [ -123.2198, 49.2658 ], [ -123.22002, 49.26573 ], [ -123.22494, 49.26581 ], [ -123.2259, 49.26593 ], [ -123.22667, 49.26617 ], [ -123.22712, 49.26637 ], [ -123.22712, 49.26647 ], [ -123.22703, 49.26655 ] ] ] } },
{ "type": "Feature", "properties": { "name": "Council Trail", "key": "Council", "kind": "trail" }, "geometry": { "type": "LineString", "coordinates": [ [ -123.22964, 49.25174 ], [ -123.22886, 49.25161 ], [ -123.22859, 49.25166 ], [ -123.22806, 49.25187 ], [ -123.22717, 49.25194 ], [ -123.22623, 49.25189 ], [ -123.22573, 49.25201 ], [ -123.22534, 49.25204 ], [ -123.22425, 49.25172 ], [ -123.223, 49.25166 ], [ -123.22271, 49.25171 ], [ -123.22225, 49.25206 ], [ -123.22185, 49.25212 ], [ -123.22106, 49.25238 ], [ -123.22002, 49.25219 ], [ -123.21892, 49.25217 ], [ -123.21803, 49.25208 ], [ -123.21664, 49.25158 ], [ -123.21623, 49.25148 ], [ -123.21524, 49.25155 ], [ -123.21471, 49.25154 ], [ -123.21441, 49.25159 ], [ -123.21405, 49.25175 ], [ -123.21314, 49.25199 ], [ -123.21295, 49.25201 ], [ -123.21255, 49.25186 ], [ -123.21219, 49.25183 ], [ -123.21182, 49.25172 ], [ -123.21119, 49.25147 ], [ -123.21031, 49.25122 ], [ -123.21007, 49.25107 ], [ -123.20987, 49.25104 ], [ -123.20926, 49.25082 ], [ -123.20777, 49.24997 ], [ -123.20695, 49.24987 ], [ -123.20655, 49.24957 ], [ -123.20635, 49.24952 ] ] } },
{ "type": "Feature", "properties": { "name": "Courtenay Street", "key": "Courtenay Street", "kind": "street" }, "geometry": { "type": "LineString", "coordinates": [ [ -123.20019, 49.25809 ], [ -123.20009, 49.2609 ] ] } },
{ "type": "Feature", "properties": { "name": "Crescent Road - xʷsel̓c̓əχən̓", "key": "Crescent Road", "kind": "street" }, "geometry": { "type": "MultiLineString", "coordinates": [ [ [ -123.25614, 49.26878 ], [ -123.25639, 49.26857 ], [ -123.25825, 49.26792 ] ], [ [ -123.25605, 49.26899 ], [ -123.25483, 49.2694 ], [ -123.25456, 49.26953 ], [ -123.25379, 49.26976 ] ] ] } },
{ "type": "Feature", "properties": { "name": "Crooked Branch Road", "key": "Crooked Branch Road", "kind": "street" }, "geometry": { "type": "LineString", "coordinates": [ [ -123.23573, 49.26326 ], [ -123.23497, 49.26351 ], [ -123.23454, 49.26355 ], [ -123.23412, 49.26349 ], [ -123.23325, 49.26314 ], [ -123.23269, 49.26311 ], [ -123.23221, 49.26326 ], [ -123.23198, 49.26343 ], [ -123.23182, 49.26365 ], [ -123.23159, 49.26375 ] ] } },
{ "type": "Feature", "properties": { "name": "Crown Street", "key": "Crown Street", "kind": "street" }, "geometry": { "type": "MultiLineString", "coordinates": [ [ [ -123.19405, 49.25959 ], [ -123.19411, 49.25799 ] ], [ [ -123.19356, 49.25815 ], [ -123.19376, 49.23373 ] ] ] } },
{ "type": "Feature", "properties": { "name": "Dalhousie Road", "key": "Dalhousie Road", "kind": "street" }, "geometry": { "type": "LineString", "coordinates": [ [ -123.23931, 49.26697 ], [ -123.2429, 49.26567 ] ] } },
{ "type": "Feature", "properties": { "name": "Deer Fern Trail", "key": "Deer Fern", "kind": "trail" }, "geometry": { "type": "LineString", "coordinates": [ [ -123.21385, 49.25287 ], [ -123.21389, 49.25316 ], [ -123.21417, 49.25381 ], [ -123.21442, 49.25415 ], [ -123.21564, 49.25476 ], [ -123.21606, 49.25519 ], [ -123.21653, 49.25527 ] ] } },
{ "type": "Feature", "properties": { "name": "Discovery Street", "key": "Discovery Street", "kind": "street" }, "geometry": { "type": "MultiLineString", "coordinates": [ [ [ -123.20317, 49.26006 ], [ -123.20323, 49.25813 ] ], [ [ -123.20311, 49.26157 ], [ -123.20317, 49.26015 ] ] ] } },
{ "type": "Feature", "properties": { "name": "Doncaster Way", "key": "Doncaster Way", "kind": "street" }, "geometry": { "type": "LineString", "coordinates": [ [ -123.20316, 49.24841 ], [ -123.20278, 49.24873 ], [ -123.20252, 49.24884 ], [ -123.2009, 49.24911 ], [ -123.19943, 49.24912 ] ] } },
{ "type": "Feature", "properties": { "name": "Douglas Fir", "key": "Douglas Fir", "kind": "trail" }, "geometry": { "type": "LineString", "coordinates": [ [ -123.23116, 49.25736 ], [ -123.23109, 49.25697 ], [ -123.23053, 49.25682 ], [ -123.23042, 49.25676 ], [ -123.23013, 49.25636 ], [ -123.22927, 49.25499 ], [ -123.22926, 49.25425 ], [ -123.22919, 49.25408 ], [ -123.22875, 49.25371 ], [ -123.22846, 49.25327 ], [ -123.22814, 49.25301 ], [ -123.22817, 49.25265 ], [ -123.22827, 49.25235 ], [ -123.22822, 49.25207 ], [ -123.22806, 49.25187 ] ] } },
{ "type": "Feature", "properties": { "name": "Drummond Drive", "key": "Drummond Drive", "kind": "street" }, "geometry": { "type": "MultiLineString", "coordinates": [ [ [ -123.2196, 49.2672 ], [ -123.21965, 49.26624 ] ], [ [ -123.2196, 49.26808 ], [ -123.21957, 49.26882 ], [ -123.22002, 49.27001 ], [ -123.22044, 49.27065 ], [ -123.22097, 49.27125 ], [ -123.22239, 49.27232 ], [ -123.22255, 49.27249 ], [ -123.22262, 49.27268 ], [ -123.22261, 49.27309 ], [ -123.2224, 49.27345 ], [ -123.22217, 49.27358 ], [ -123.22184, 49.27371 ], [ -123.22126, 49.27381 ], [ -123.2206, 49.27383 ], [ -123.21963, 49.27379 ], [ -123.21883, 49.27369 ] ] ] } },
{ "type": "Feature", "properties": { "name": "East Canyon Trail", "key": "East Canyon", "kind": "trail" }, "geometry": { "type": "LineString", "coordinates": [ [ -123.23002, 49.27765 ], [ -123.2303, 49.27724 ], [ -123.23056, 49.27647 ], [ -123.23082, 49.2761 ], [ -123.23101, 49.27558 ], [ -123.23083, 49.27545 ], [ -123.23045, 49.27532 ], [ -123.23038, 49.27519 ], [ -123.23046, 49.27504 ], [ -123.23075, 49.2748 ], [ -123.23072, 49.27454 ], [ -123.23059, 49.27439 ], [ -123.23061, 49.27421 ], [ -123.23018, 49.2738 ], [ -123.22987, 49.27377 ], [ -123.22937, 49.27322 ], [ -123.22943, 49.2731 ], [ -123.22964, 49.27304 ], [ -123.23006, 49.27314 ], [ -123.23023, 49.27314 ], [ -123.23037, 49.27308 ], [ -123.23039, 49.27296 ], [ -123.23006, 49.27277 ], [ -123.22981, 49.27244 ], [ -123.22967, 49.27198 ], [ -123.22954, 49.27177 ], [ -123.22959, 49.2716 ], [ -123.22939, 49.27139 ], [ -123.22936, 49.27103 ], [ -123.22899, 49.27102 ], [ -123.22862, 49.2709 ] ] } },
{ "type": "Feature", "properties": { "name": "East Mall", "key": "East Mall", "kind": "street" }, "geometry": { "type": "MultiLineString", "coordinates": [ [ [ -123.25419, 49.27023 ], [ -123.254, 49.27078 ] ], [ [ -123.254, 49.27078 ], [ -123.2541, 49.27099 ], [ -123.25429, 49.27101 ], [ -123.25414, 49.27082 ], [ -123.25429, 49.27039 ], [ -123.25419, 49.27023 ] ], [ [ -123.25276, 49.26851 ], [ -123.25419, 49.27023 ] ], [ [ -123.254, 49.27078 ], [ -123.25397, 49.27112 ] ], [ [ -123.25276, 49.26851 ], [ -123.25285, 49.26842 ], [ -123.25267, 49.2684 ] ], [ [ -123.25267, 49.2684 ], [ -123.25276, 49.26851 ] ], [ [ -123.25215, 49.26777 ], [ -123.25267, 49.2684 ] ] ] } },
{ "type": "Feature", "properties": { "name": "East Mall", "key": "East Mall", "kind": "trail" }, "geometry": { "type": "LineString", "coordinates": [ [ -123.253, 49.26846 ], [ -123.25235, 49.26771 ] ] } },
{ "type": "Feature", "properties": { "name": "Education Road", "key": "Education Road", "kind": "street" }, "geometry": { "type": "LineString", "coordinates": [ [ -123.25403, 49.26426 ], [ -123.25323, 49.26331 ] ] } },
{ "type": "Feature", "properties": { "name": "Fairview Crescent", "key": "Fairview Crescent", "kind": "trail" }, "geometry": { "type": "MultiLineString", "coordinates": [ [ [ -123.23994, 49.26347 ], [ -123.23979, 49.26352 ] ], [ [ -123.23979, 49.26352 ], [ -123.23959, 49.2636 ] ], [ [ -123.23979, 49.26352 ], [ -123.2395, 49.26347 ] ], [ [ -123.23959, 49.2636 ], [ -123.23957, 49.26365 ], [ -123.23918, 49.26374 ] ], [ [ -123.23959, 49.2636 ], [ -123.2395, 49.26347 ] ], [ [ -123.2395, 49.26347 ], [ -123.23934, 49.26325 ] ] ] } },
{ "type": "Feature", "properties": { "name": "Fairview Place", "key": "Fairview Place", "kind": "street" }, "geometry": { "type": "LineString", "coordinates": [ [ -123.23587, 49.26342 ], [ -123.23723, 49.26295 ] ] } },
{ "type": "Feature", "properties": { "name": "Fairview Place", "key": "Fairview Place", "kind": "trail" }, "geometry": { "type": "LineString", "coordinates": [ [ -123.23723, 49.26295 ], [ -123.23822, 49.2626 ] ] } },
{ "type": "Feature", "properties": { "name": "Fannin Avenue", "key": "Fannin Avenue", "kind": "street" }, "geometry": { "type": "LineString", "coordinates": [ [ -123.22395, 49.27473 ], [ -123.22332, 49.27465 ], [ -123.22179, 49.27455 ], [ -123.22119, 49.27444 ], [ -123.22075, 49.27415 ], [ -123.2206, 49.27383 ] ] } },
{ "type": "Feature", "properties": { "name": "Gray Avenue", "key": "Gray Avenue", "kind": "street" }, "geometry": { "type": "LineString", "coordinates": [ [ -123.23485, 49.25214 ], [ -123.2343, 49.25241 ], [ -123.23346, 49.25267 ], [ -123.23005, 49.25318 ] ] } },
{ "type": "Feature", "properties": { "name": "Hamber Road", "key": "Hamber Road", "kind": "street" }, "geometry": { "type": "MultiLineString", "coordinates": [ [ [ -123.23817, 49.2734 ], [ -123.23832, 49.2733 ], [ -123.23866, 49.27324 ] ], [ [ -123.23827, 49.27306 ], [ -123.23817, 49.2734 ] ], [ [ -123.23817, 49.2734 ], [ -123.2381, 49.27364 ], [ -123.23815, 49.27417 ] ], [ [ -123.23815, 49.27417 ], [ -123.23804, 49.27436 ] ], [ [ -123.23814, 49.27442 ], [ -123.23825, 49.27433 ], [ -123.23815, 49.27417 ] ], [ [ -123.23804, 49.27436 ], [ -123.23758, 49.2745 ], [ -123.23752, 49.27458 ], [ -123.23757, 49.27465 ], [ -123.23768, 49.27468 ], [ -123.23781, 49.27465 ], [ -123.23814, 49.27442 ] ], [ [ -123.23804, 49.27436 ], [ -123.23814, 49.27442 ] ] ] } },
{ "type": "Feature", "properties": { "name": "Hampton Place", "key": "Hampton Place", "kind": "street" }, "geometry": { "type": "MultiLineString", "coordinates": [ [ [ -123.23594, 49.25816 ], [ -123.23754, 49.2576 ] ], [ [ -123.23746, 49.25749 ], [ -123.23585, 49.25806 ] ], [ [ -123.23542, 49.25821 ], [ -123.2348, 49.25829 ], [ -123.23455, 49.25837 ], [ -123.23401, 49.25874 ] ], [ [ -123.23401, 49.25874 ], [ -123.23369, 49.25904 ], [ -123.23356, 49.25908 ], [ -123.23343, 49.25907 ], [ -123.23336, 49.25895 ], [ -123.23346, 49.25863 ], [ -123.23356, 49.25853 ] ], [ [ -123.23401, 49.25874 ], [ -123.23356, 49.25853 ] ], [ [ -123.23356, 49.25853 ], [ -123.23288, 49.25803 ], [ -123.23225, 49.2573 ] ] ] } },
{ "type": "Feature", "properties": { "name": "Hawthorn Lane", "key": "Hawthorn Lane", "kind": "street" }, "geometry": { "type": "LineString", "coordinates": [ [ -123.25009, 49.25787 ], [ -123.24828, 49.2585 ] ] } },
{ "type": "Feature", "properties": { "name": "Hemlock Trail", "key": "Hemlock", "kind": "trail" }, "geometry": { "type": "MultiLineString", "coordinates": [ [ [ -123.21183, 49.249 ], [ -123.21183, 49.24925 ], [ -123.21211, 49.24955 ], [ -123.21196, 49.24978 ], [ -123.21196, 49.25004 ], [ -123.21172, 49.25021 ], [ -123.21181, 49.2507 ], [ -123.21209, 49.25101 ], [ -123.21215, 49.25125 ], [ -123.21247, 49.25156 ], [ -123.21297, 49.25168 ], [ -123.21349, 49.25219 ], [ -123.2149, 49.25256 ], [ -123.21526, 49.2526 ], [ -123.21567, 49.25252 ], [ -123.21591, 49.25254 ], [ -123.21614, 49.25266 ], [ -123.21633, 49.25288 ], [ -123.21656, 49.25301 ], [ -123.21771, 49.25328 ], [ -123.21814, 49.25355 ], [ -123.21899, 49.25387 ], [ -123.21926, 49.25389 ], [ -123.22074, 49.25361 ], [ -123.22138, 49.25343 ], [ -123.22203, 49.25316 ] ], [ [ -123.2029, 49.24482 ], [ -123.20324, 49.24504 ], [ -123.20344, 49.24503 ], [ -123.20368, 49.2451 ], [ -123.20393, 49.24504 ], [ -123.20417, 49.24505 ], [ -123.20457, 49.24529 ], [ -123.20494, 49.24528 ], [ -123.2051, 49.24535 ], [ -123.20553, 49.24581 ], [ -123.20611, 49.24661 ], [ -123.20632, 49.24667 ], [ -123.20716, 49.24755 ], [ -123.20724, 49.24781 ], [ -123.20764, 49.24802 ], [ -123.2086, 49.24829 ], [ -123.20881, 49.24843 ], [ -123.20933, 49.2486 ], [ -123.20958, 49.24891 ] ] ] } },
{ "type": "Feature", "properties": { "name": "Heron Trail", "key": "Heron", "kind": "trail" }, "geometry": { "type": "LineString", "coordinates": [ [ -123.23372, 49.26075 ], [ -123.23313, 49.2604 ], [ -123.22959, 49.26045 ], [ -123.22713, 49.26043 ], [ -123.22521, 49.26025 ], [ -123.22281, 49.25983 ], [ -123.21888, 49.25872 ] ] } },
{ "type": "Feature", "properties": { "name": "Holland Street", "key": "Holland Street", "kind": "street" }, "geometry": { "type": "LineString", "coordinates": [ [ -123.19232, 49.23646 ], [ -123.19237, 49.23348 ] ] } },
{ "type": "Feature", "properties": { "name": "Huckleberry Trail", "key": "Huckleberry", "kind": "trail" }, "geometry": { "type": "LineString", "coordinates": [ [ -123.21443, 49.25246 ], [ -123.21427, 49.25262 ], [ -123.21349, 49.25306 ], [ -123.21287, 49.25348 ], [ -123.21265, 49.25372 ], [ -123.21187, 49.25426 ], [ -123.21143, 49.25482 ], [ -123.21116, 49.25487 ], [ -123.21043, 49.25473 ], [ -123.2098, 49.25487 ], [ -123.20928, 49.25488 ], [ -123.20892, 49.25525 ], [ -123.20865, 49.25535 ], [ -123.20853, 49.25545 ], [ -123.20845, 49.25561 ], [ -123.20846, 49.25601 ], [ -123.20836, 49.25611 ], [ -123.20772, 49.2565 ], [ -123.20758, 49.25657 ], [ -123.20711, 49.25664 ], [ -123.20616, 49.25665 ], [ -123.20567, 49.25704 ], [ -123.20525, 49.25726 ], [ -123.20449, 49.25742 ], [ -123.20393, 49.25761 ], [ -123.20368, 49.25792 ], [ -123.20347, 49.25804 ] ] } },
{ "type": "Feature", "properties": { "name": "Imperial Drive", "key": "Imperial Drive", "kind": "street" }, "geometry": { "type": "LineString", "coordinates": [ [ -123.20323, 49.25813 ], [ -123.20321, 49.25751 ], [ -123.20305, 49.25683 ], [ -123.20287, 49.25637 ], [ -123.20154, 49.254 ], [ -123.20137, 49.25337 ], [ -123.20133, 49.25279 ], [ -123.20153, 49.25201 ], [ -123.20172, 49.25162 ], [ -123.20215, 49.25103 ], [ -123.2029, 49.25036 ], [ -123.20327, 49.25012 ], [ -123.20365, 49.24991 ], [ -123.20483, 49.2494 ], [ -123.20487, 49.24928 ], [ -123.20461, 49.24912 ] ] } },
{ "type": "Feature", "properties": { "name": "Imperial Trail", "key": "Imperial", "kind": "trail" }, "geometry": { "type": "LineString", "coordinates": [ [ -123.20485, 49.24938 ], [ -123.20535, 49.24926 ], [ -123.20668, 49.24907 ], [ -123.20923, 49.2489 ], [ -123.21755, 49.24926 ], [ -123.21885, 49.24877 ], [ -123.21952, 49.24825 ], [ -123.22043, 49.24763 ], [ -123.22102, 49.24732 ], [ -123.22266, 49.24677 ], [ -123.22529, 49.2463 ], [ -123.22632, 49.24603 ], [ -123.22697, 49.2458 ], [ -123.2278, 49.24542 ] ] } },
{ "type": "Feature", "properties": { "name": "Iona Drive", "key": "Iona Drive", "kind": "street" }, "geometry": { "type": "MultiLineString", "coordinates": [ [ [ -123.25391, 49.27118 ], [ -123.25345, 49.27056 ], [ -123.25316, 49.27047 ], [ -123.25179, 49.27094 ], [ -123.25124, 49.27122 ] ], [ [ -123.25019, 49.27159 ], [ -123.25124, 49.27122 ] ], [ [ -123.25124, 49.27122 ], [ -123.25108, 49.27106 ], [ -123.25093, 49.27103 ], [ -123.25016, 49.2713 ], [ -123.25007, 49.27141 ], [ -123.25019, 49.27159 ] ], [ [ -123.25019, 49.27159 ], [ -123.24975, 49.27168 ], [ -123.24833, 49.27215 ] ] ] } },
{ "type": "Feature", "properties": { "name": "Iron Knee Trail", "key": "Iron Knee", "kind": "trail" }, "geometry": { "type": "LineString", "coordinates": [ [ -123.22345, 49.25289 ], [ -123.22336, 49.25275 ], [ -123.2233, 49.25178 ], [ -123.22347, 49.25152 ], [ -123.22404, 49.25111 ], [ -123.22413, 49.25094 ], [ -123.22372, 49.2495 ], [ -123.22353, 49.24912 ], [ -123.22345, 49.24874 ], [ -123.22266, 49.24677 ] ] } },
{ "type": "Feature", "properties": { "name": "Kevin Place", "key": "Kevin Place", "kind": "street" }, "geometry": { "type": "LineString", "coordinates": [ [ -123.2012, 49.24749 ], [ -123.20088, 49.2478 ], [ -123.20088, 49.24824 ], [ -123.20104, 49.24839 ], [ -123.20153, 49.24865 ], [ -123.20169, 49.24898 ] ] } },
{ "type": "Feature", "properties": { "name": "Kings Road", "key": "Kings Road", "kind": "street" }, "geometry": { "type": "LineString", "coordinates": [ [ -123.2412, 49.2654 ], [ -123.23939, 49.26604 ], [ -123.23927, 49.26616 ], [ -123.23902, 49.26679 ] ] } },
{ "type": "Feature", "properties": { "name": "Kingston Road", "key": "Kingston Road", "kind": "street" }, "geometry": { "type": "LineString", "coordinates": [ [ -123.24263, 49.27487 ], [ -123.24346, 49.2748 ], [ -123.2443, 49.27482 ], [ -123.24692, 49.27527 ], [ -123.24753, 49.27524 ], [ -123.24929, 49.27491 ] ] } },
{ "type": "Feature", "properties": { "name": "Knox Road", "key": "Knox Road", "kind": "street" }, "geometry": { "type": "LineString", "coordinates": [ [ -123.24155, 49.26807 ], [ -123.24217, 49.26883 ], [ -123.24234, 49.26913 ], [ -123.24346, 49.27236 ] ] } },
{ "type": "Feature", "properties": { "name": "Larkin Drive", "key": "Larkin Drive", "kind": "street" }, "geometry": { "type": "LineString", "coordinates": [ [ -123.24915, 49.25672 ], [ -123.24733, 49.25736 ], [ -123.24867, 49.25898 ] ] } },
{ "type": "Feature", "properties": { "name": "Learners' Walk", "key": "Learners' Walk", "kind": "trail" }, "geometry": { "type": "LineString", "coordinates": [ [ -123.2539, 49.26813 ], [ -123.25334, 49.26748 ] ] } },
{ "type": "Feature", "properties": { "name": "Lily of the Valley Trail", "key": "Lily of the Valley", "kind": "trail" }, "geometry": { "type": "LineString", "coordinates": [ [ -123.22908, 49.26133 ], [ -123.22871, 49.26145 ], [ -123.22849, 49.26146 ], [ -123.22835, 49.26162 ], [ -123.22822, 49.26166 ], [ -123.22788, 49.26158 ], [ -123.22743, 49.26158 ], [ -123.22732, 49.26153 ], [ -123.22726, 49.26117 ], [ -123.22711, 49.26089 ], [ -123.2269, 49.26083 ], [ -123.22655, 49.26093 ], [ -123.22625, 49.26096 ], [ -123.22548, 49.26125 ], [ -123.22501, 49.26125 ], [ -123.22464, 49.26113 ], [ -123.22403, 49.26128 ], [ -123.22365, 49.26127 ], [ -123.2234, 49.26117 ], [ -123.22326, 49.26118 ], [ -123.22278, 49.26146 ], [ -123.22258, 49.26149 ], [ -123.22207, 49.26119 ], [ -123.22163, 49.26119 ], [ -123.2214, 49.26104 ], [ -123.22114, 49.261 ], [ -123.22099, 49.26084 ], [ -123.22079, 49.26076 ], [ -123.22049, 49.26076 ], [ -123.2198, 49.26091 ], [ -123.2194, 49.26091 ], [ -123.21921, 49.26089 ], [ -123.21902, 49.2608 ], [ -123.21868, 49.26077 ], [ -123.21818, 49.26104 ], [ -123.21811, 49.26133 ], [ -123.21799, 49.26152 ], [ -123.21759, 49.26172 ], [ -123.2172, 49.26179 ], [ -123.21663, 49.26163 ], [ -123.21648, 49.26163 ], [ -123.2162, 49.2618 ], [ -123.21545, 49.26203 ] ] } },
{ "type": "Feature", "properties": { "name": "Long Trail", "key": "Long", "kind": "trail" }, "geometry": { "type": "LineString", "coordinates": [ [ -123.21755, 49.24926 ], [ -123.22045, 49.24943 ], [ -123.22065, 49.24937 ], [ -123.22322, 49.24922 ], [ -123.22617, 49.24874 ], [ -123.22745, 49.24857 ], [ -123.22843, 49.2485 ] ] } },
{ "type": "Feature", "properties": { "name": "Lower Mall", "key": "Lower Mall", "kind": "street" }, "geometry": { "type": "MultiLineString", "coordinates": [ [ [ -123.25887, 49.26625 ], [ -123.25914, 49.26658 ] ], [ [ -123.25299, 49.25926 ], [ -123.2538, 49.26024 ] ] ] } },
{ "type": "Feature", "properties": { "name": "Lower Mall - stəywət", "key": "Lower Mall", "kind": "street" }, "geometry": { "type": "LineString", "coordinates": [ [ -123.25438, 49.26101 ], [ -123.25789, 49.26532 ], [ -123.2583, 49.26556 ], [ -123.25887, 49.26625 ] ] } },
{ "type": "Feature", "properties": { "name": "Main Mall", "key": "Main Mall", "kind": "street" }, "geometry": { "type": "MultiLineString", "coordinates": [ [ [ -123.25627, 49.2688 ], [ -123.25628, 49.26864 ] ], [ [ -123.256, 49.26895 ], [ -123.25597, 49.26899 ] ] ] } },
{ "type": "Feature", "properties": { "name": "Main Mall", "key": "Main Mall", "kind": "trail" }, "geometry": { "type": "MultiLineString", "coordinates": [ [ [ -123.25655, 49.26904 ], [ -123.25644, 49.26901 ] ], [ [ -123.25634, 49.26911 ], [ -123.25629, 49.26906 ] ], [ [ -123.256, 49.26923 ], [ -123.25607, 49.26911 ] ] ] } },
{ "type": "Feature", "properties": { "name": "Main Mall - šxʷʔey̓eʔ", "key": "Main Mall", "kind": "trail" }, "geometry": { "type": "MultiLineString", "coordinates": [ [ [ -123.25588, 49.26873 ], [ -123.25611, 49.26865 ] ], [ [ -123.25588, 49.26873 ], [ -123.25594, 49.26879 ], [ -123.25588, 49.26889 ], [ -123.25592, 49.26894 ], [ -123.25581, 49.269 ], [ -123.25592, 49.2691 ], [ -123.25615, 49.26912 ], [ -123.25644, 49.26901 ], [ -123.25649, 49.26895 ], [ -123.25632, 49.26872 ], [ -123.25634, 49.26865 ], [ -123.25629, 49.26859 ], [ -123.25611, 49.26865 ] ], [ [ -123.25611, 49.26865 ], [ -123.25527, 49.26761 ] ], [ [ -123.25507, 49.26772 ], [ -123.25588, 49.26873 ] ], [ [ -123.25507, 49.26772 ], [ -123.25522, 49.2677 ], [ -123.25527, 49.26761 ] ], [ [ -123.25527, 49.26761 ], [ -123.25518, 49.26752 ], [ -123.25502, 49.26752 ] ], [ [ -123.25502, 49.26752 ], [ -123.25495, 49.26764 ], [ -123.25507, 49.26772 ] ], [ [ -123.25461, 49.26701 ], [ -123.25502, 49.26752 ] ] ] } },
{ "type": "Feature", "properties": { "name": "Mathematics Road", "key": "Mathematics Road", "kind": "trail" }, "geometry": { "type": "MultiLineString", "coordinates": [ [ [ -123.25608, 49.26667 ], [ -123.25632, 49.26659 ] ], [ [ -123.25527, 49.26698 ], [ -123.25608, 49.26667 ] ], [ [ -123.25608, 49.26667 ], [ -123.25533, 49.26576 ] ] ] } },
{ "type": "Feature", "properties": { "name": "McMaster Road", "key": "McMaster Road", "kind": "street" }, "geometry": { "type": "LineString", "coordinates": [ [ -123.24328, 49.26793 ], [ -123.24155, 49.26807 ], [ -123.23972, 49.26813 ] ] } },
{ "type": "Feature", "properties": { "name": "Melfa Court", "key": "Melfa Court", "kind": "street" }, "geometry": { "type": "LineString", "coordinates": [ [ -123.23628, 49.26164 ], [ -123.23559, 49.26187 ] ] } },
{ "type": "Feature", "properties": { "name": "Melfa Lane", "key": "Melfa Lane", "kind": "trail" }, "geometry": { "type": "MultiLineString", "coordinates": [ [ [ -123.23697, 49.26425 ], [ -123.23709, 49.26439 ], [ -123.2373, 49.26448 ], [ -123.23744, 49.26472 ], [ -123.23794, 49.26506 ], [ -123.23781, 49.26534 ] ], [ [ -123.23634, 49.26326 ], [ -123.23693, 49.26396 ], [ -123.2369, 49.26403 ], [ -123.23703, 49.26423 ] ] ] } },
{ "type": "Feature", "properties": { "name": "Melfa Road", "key": "Melfa Road", "kind": "street" }, "geometry": { "type": "LineString", "coordinates": [ [ -123.23664, 49.26316 ], [ -123.23537, 49.2616 ] ] } },
{ "type": "Feature", "properties": { "name": "Memorial Road - šxʷhək̓ʷmət", "key": "Memorial Road", "kind": "street" }, "geometry": { "type": "LineString", "coordinates": [ [ -123.25887, 49.26625 ], [ -123.25733, 49.26681 ] ] } },
{ "type": "Feature", "properties": { "name": "Memorial Road - šxʷhək̓ʷmət", "key": "Memorial Road", "kind": "trail" }, "geometry": { "type": "MultiLineString", "coordinates": [ [ [ -123.25627, 49.26726 ], [ -123.25527, 49.2676 ] ], [ [ -123.25621, 49.26718 ], [ -123.25522, 49.26753 ] ], [ [ -123.25506, 49.26772 ], [ -123.25305, 49.26844 ], [ -123.2528, 49.2685 ] ], [ [ -123.25273, 49.26838 ], [ -123.25495, 49.26757 ] ] ] } },
{ "type": "Feature", "properties": { "name": "Montgomery Place", "key": "Montgomery Place", "kind": "trail" }, "geometry": { "type": "LineString", "coordinates": [ [ -123.23794, 49.26506 ], [ -123.23951, 49.26451 ] ] } },
{ "type": "Feature", "properties": { "name": "Nature Trail", "key": "Nature", "kind": "trail" }, "geometry": { "type": "LineString", "coordinates": [ [ -123.21395, 49.25823 ], [ -123.21408, 49.25792 ], [ -123.21414, 49.2575 ], [ -123.21427, 49.25741 ], [ -123.21446, 49.25738 ], [ -123.21465, 49.25741 ], [ -123.21475, 49.25737 ], [ -123.21485, 49.25709 ], [ -123.21484, 49.25695 ], [ -123.21502, 49.25679 ], [ -123.21506, 49.25664 ], [ -123.21527, 49.25647 ], [ -123.21523, 49.25621 ], [ -123.21597, 49.2558 ], [ -123.21616, 49.25552 ], [ -123.21653, 49.25527 ], [ -123.2169, 49.25528 ], [ -123.21715, 49.25511 ], [ -123.21746, 49.25509 ], [ -123.21803, 49.25493 ], [ -123.21827, 49.25476 ], [ -123.21847, 49.25471 ], [ -123.21948, 49.2542 ], [ -123.21955, 49.25413 ], [ -123.21956, 49.25384 ] ] } },
{ "type": "Feature", "properties": { "name": "Newt Loop Trail", "key": "Newt Loop", "kind": "trail" }, "geometry": { "type": "LineString", "coordinates": [ [ -123.21688, 49.26027 ], [ -123.21667, 49.26045 ], [ -123.2164, 49.26051 ], [ -123.21624, 49.26061 ], [ -123.21606, 49.26084 ], [ -123.21613, 49.26097 ], [ -123.21604, 49.26122 ], [ -123.21606, 49.26148 ], [ -123.21641, 49.26166 ] ] } },
{ "type": "Feature", "properties": { "name": "Newton Crescent", "key": "Newton Crescent", "kind": "street" }, "geometry": { "type": "LineString", "coordinates": [ [ -123.25166, 49.27354 ], [ -123.25179, 49.2729 ], [ -123.25159, 49.27252 ] ] } },
{ "type": "Feature", "properties": { "name": "Newton Wynd", "key": "Newton Wynd", "kind": "street" }, "geometry": { "type": "LineString", "coordinates": [ [ -123.25423, 49.27266 ], [ -123.25361, 49.27274 ], [ -123.25298, 49.2729 ], [ -123.25211, 49.27327 ], [ -123.24929, 49.27491 ], [ -123.24862, 49.27586 ], [ -123.24814, 49.27612 ], [ -123.2474, 49.27623 ], [ -123.24686, 49.27623 ], [ -123.24634, 49.27617 ], [ -123.24429, 49.2758 ], [ -123.2438, 49.27576 ], [ -123.24322, 49.2758 ] ] } },
{ "type": "Feature", "properties": { "name": "Norman McKenzie Square", "key": "Norman McKenzie Square", "kind": "trail" }, "geometry": { "type": "LineString", "coordinates": [ [ -123.23556, 49.25421 ], [ -123.23527, 49.25431 ], [ -123.23513, 49.25413 ], [ -123.23546, 49.25401 ] ] } },
{ "type": "Feature", "properties": { "name": "Northwest Marine Drive", "key": "Northwest Marine Drive", "kind": "street" }, "geometry": { "type": "MultiLineString", "coordinates": [ [ [ -123.25429, 49.27101 ], [ -123.25412, 49.27104 ], [ -123.25391, 49.27118 ], [ -123.254, 49.27133 ] ], [ [ -123.254, 49.27133 ], [ -123.25423, 49.27113 ], [ -123.25429, 49.27101 ] ], [ [ -123.2525, 49.25657 ], [ -123.25334, 49.25687 ], [ -123.2536, 49.257 ], [ -123.25394, 49.25726 ], [ -123.25417, 49.2576 ], [ -123.25472, 49.25905 ], [ -123.255, 49.25948 ], [ -123.25527, 49.2597 ], [ -123.25565, 49.25991 ], [ -123.2569, 49.26034 ], [ -123.25727, 49.26053 ], [ -123.25751, 49.26079 ], [ -123.25778, 49.26133 ], [ -123.25842, 49.26176 ], [ -123.25863, 49.262 ], [ -123.25865, 49.26223 ], [ -123.25851, 49.26274 ], [ -123.25867, 49.26308 ], [ -123.25905, 49.26334 ], [ -123.26042, 49.26399 ], [ -123.2606, 49.26415 ], [ -123.2607, 49.26436 ], [ -123.26069, 49.26458 ], [ -123.2604, 49.26547 ], [ -123.26026, 49.2668 ], [ -123.26001, 49.26735 ], [ -123.25954, 49.26802 ], [ -123.25873, 49.26873 ], [ -123.25429, 49.27101 ] ], [ [ -123.254, 49.27133 ], [ -123.25424, 49.27289 ], [ -123.25409, 49.27332 ], [ -123.25382, 49.27361 ], [ -123.25335, 49.27389 ], [ -123.25258, 49.27416 ], [ -123.25232, 49.27432 ], [ -123.25191, 49.27502 ], [ -123.25175, 49.27516 ], [ -123.25148, 49.27527 ], [ -123.25078, 49.2754 ], [ -123.25054, 49.27552 ], [ -123.24982, 49.27643 ], [ -123.24918, 49.27689 ], [ -123.24696, 49.27775 ], [ -123.24412, 49.27905 ], [ -123.24372, 49.27919 ], [ -123.24302, 49.27927 ], [ -123.23979, 49.27922 ], [ -123.23886, 49.27916 ], [ -123.23747, 49.27894 ], [ -123.23427, 49.27816 ], [ -123.23339, 49.27812 ], [ -123.2311, 49.27823 ], [ -123.23005, 49.2782 ], [ -123.22865, 49.27803 ], [ -123.2263, 49.27756 ], [ -123.2246, 49.27744 ] ], [ [ -123.22419, 49.27741 ], [ -123.22304, 49.2773 ], [ -123.22009, 49.27659 ], [ -123.21916, 49.27641 ], [ -123.21863, 49.27637 ] ] ] } },
{ "type": "Feature", "properties": { "name": "Nurseries Road", "key": "Nurseries Road", "kind": "street" }, "geometry": { "type": "LineString", "coordinates": [ [ -123.23215, 49.24671 ], [ -123.2313, 49.24641 ], [ -123.23075, 49.24628 ], [ -123.23043, 49.24512 ], [ -123.22942, 49.24377 ] ] } },
{ "type": "Feature", "properties": { "name": "Oberlander Lane", "key": "Oberlander Lane", "kind": "street" }, "geometry": { "type": "LineString", "coordinates": [ [ -123.25438, 49.26101 ], [ -123.25477, 49.26085 ], [ -123.25498, 49.26082 ], [ -123.25558, 49.26093 ], [ -123.25578, 49.26091 ], [ -123.25628, 49.26069 ], [ -123.25669, 49.26026 ] ] } },
{ "type": "Feature", "properties": { "name": "Ortona Road", "key": "Ortona Road", "kind": "street" }, "geometry": { "type": "MultiLineString", "coordinates": [ [ [ -123.2339, 49.26187 ], [ -123.23443, 49.26169 ] ], [ [ -123.23437, 49.26163 ], [ -123.2339, 49.26187 ] ], [ [ -123.2339, 49.26187 ], [ -123.23273, 49.26228 ] ] ] } },
{ "type": "Feature", "properties": { "name": "Osoyoos Crescent", "key": "Osoyoos Crescent", "kind": "street" }, "geometry": { "type": "LineString", "coordinates": [ [ -123.239, 49.26159 ], [ -123.23895, 49.26147 ], [ -123.23813, 49.26075 ], [ -123.23738, 49.25976 ], [ -123.2372, 49.25959 ], [ -123.23687, 49.25949 ], [ -123.23652, 49.25947 ], [ -123.23583, 49.25957 ], [ -123.23493, 49.25983 ], [ -123.23454, 49.26003 ], [ -123.23414, 49.26034 ], [ -123.23388, 49.26058 ], [ -123.23379, 49.26076 ] ] } },
{ "type": "Feature", "properties": { "name": "Oyama Court", "key": "Oyama Court", "kind": "street" }, "geometry": { "type": "LineString", "coordinates": [ [ -123.23813, 49.26075 ], [ -123.23717, 49.26107 ] ] } },
{ "type": "Feature", "properties": { "name": "Pearkes Lane", "key": "Pearkes Lane", "kind": "street" }, "geometry": { "type": "LineString", "coordinates": [ [ -123.23837, 49.26255 ], [ -123.23822, 49.2626 ], [ -123.23891, 49.26347 ] ] } },
{ "type": "Feature", "properties": { "name": "Pearkes Lane", "key": "Pearkes Lane", "kind": "trail" }, "geometry": { "type": "LineString", "coordinates": [ [ -123.23954, 49.26455 ], [ -123.23899, 49.2639 ], [ -123.23906, 49.26379 ], [ -123.23918, 49.26374 ], [ -123.23906, 49.26353 ], [ -123.23891, 49.26347 ] ] } },
{ "type": "Feature", "properties": { "name": "Pioneer Trail", "key": "Pioneer", "kind": "trail" }, "geometry": { "type": "MultiLineString", "coordinates": [ [ [ -123.22872, 49.26765 ], [ -123.22866, 49.27034 ] ], [ [ -123.22865, 49.27043 ], [ -123.22864, 49.27049 ] ], [ [ -123.22863, 49.27058 ], [ -123.22862, 49.27213 ], [ -123.22856, 49.27221 ], [ -123.22828, 49.27224 ], [ -123.22823, 49.27238 ], [ -123.22855, 49.27288 ], [ -123.2286, 49.27348 ], [ -123.22899, 49.27392 ], [ -123.22951, 49.27424 ], [ -123.2297, 49.27454 ], [ -123.22987, 49.27611 ], [ -123.22972, 49.27625 ], [ -123.22934, 49.27631 ], [ -123.2283, 49.27622 ], [ -123.22756, 49.27628 ], [ -123.22701, 49.27619 ] ], [ [ -123.2278, 49.26756 ], [ -123.22772, 49.26741 ], [ -123.22773, 49.2672 ], [ -123.22762, 49.26702 ], [ -123.22723, 49.26681 ], [ -123.22707, 49.26678 ], [ -123.22696, 49.26657 ] ], [ [ -123.22701, 49.27619 ], [ -123.22694, 49.27594 ], [ -123.22667, 49.27578 ], [ -123.22632, 49.27566 ], [ -123.22608, 49.27573 ] ], [ [ -123.22587, 49.27711 ], [ -123.22605, 49.27678 ], [ -123.22636, 49.27653 ], [ -123.2264, 49.27636 ], [ -123.22659, 49.27623 ], [ -123.22676, 49.27618 ], [ -123.22701, 49.27619 ] ], [ [ -123.22583, 49.27714 ], [ -123.22587, 49.27711 ] ], [ [ -123.22586, 49.27715 ], [ -123.22587, 49.27711 ] ] ] } },
{ "type": "Feature", "properties": { "name": "Place Vanier", "key": "Place Vanier", "kind": "trail" }, "geometry": { "type": "LineString", "coordinates": [ [ -123.26046, 49.26527 ], [ -123.26001, 49.26518 ], [ -123.25893, 49.26387 ], [ -123.25881, 49.26383 ], [ -123.25867, 49.26365 ], [ -123.25817, 49.26383 ], [ -123.25794, 49.26353 ], [ -123.25677, 49.26392 ] ] } },
{ "type": "Feature", "properties": { "name": "Powerline Trail", "key": "Powerline", "kind": "trail" }, "geometry": { "type": "LineString", "coordinates": [ [ -123.22045, 49.24943 ], [ -123.22155, 49.24957 ], [ -123.22539, 49.24978 ], [ -123.22672, 49.24977 ], [ -123.22717, 49.24968 ], [ -123.22783, 49.24965 ], [ -123.22906, 49.24975 ] ] } },
{ "type": "Feature", "properties": { "name": "Presidents Row", "key": "Presidents Row", "kind": "street" }, "geometry": { "type": "LineString", "coordinates": [ [ -123.23766, 49.26557 ], [ -123.24007, 49.26475 ] ] } },
{ "type": "Feature", "properties": { "name": "Queensland Road", "key": "Queensland Road", "kind": "street" }, "geometry": { "type": "LineString", "coordinates": [ [ -123.22583, 49.26681 ], [ -123.22538, 49.26666 ], [ -123.22498, 49.26661 ], [ -123.22039, 49.26656 ] ] } },
{ "type": "Feature", "properties": { "name": "Revelstoke Court", "key": "Revelstoke Court", "kind": "street" }, "geometry": { "type": "LineString", "coordinates": [ [ -123.23433, 49.26019 ], [ -123.23453, 49.26043 ], [ -123.23473, 49.26056 ], [ -123.23507, 49.261 ] ] } },
{ "type": "Feature", "properties": { "name": "Ridgeway", "key": "Ridgeway", "kind": "trail" }, "geometry": { "type": "LineString", "coordinates": [ [ -123.19715, 49.25804 ], [ -123.19711, 49.25794 ], [ -123.19658, 49.25793 ] ] } },
{ "type": "Feature", "properties": { "name": "Robert Wyman Plaza", "key": "Robert Wyman Plaza", "kind": "trail" }, "geometry": { "type": "LineString", "coordinates": [ [ -123.25542, 49.26765 ], [ -123.25523, 49.26743 ], [ -123.25483, 49.26758 ], [ -123.25502, 49.2678 ], [ -123.25542, 49.26765 ] ] } },
{ "type": "Feature", "properties": { "name": "Ross Drive", "key": "Ross Drive", "kind": "street" }, "geometry": { "type": "LineString", "coordinates": [ [ -123.23301, 49.25131 ], [ -123.23454, 49.25107 ] ] } },
{ "type": "Feature", "properties": { "name": "Salal Trail", "key": "Salal", "kind": "trail" }, "geometry": { "type": "MultiLineString", "coordinates": [ [ [ -123.21989, 49.25704 ], [ -123.21928, 49.2574 ], [ -123.21879, 49.25754 ], [ -123.21895, 49.25792 ], [ -123.21902, 49.25825 ], [ -123.21898, 49.25836 ] ], [ [ -123.21902, 49.25877 ], [ -123.21874, 49.25917 ], [ -123.21872, 49.25947 ], [ -123.21849, 49.26018 ], [ -123.21868, 49.26077 ] ], [ [ -123.21901, 49.2586 ], [ -123.21901, 49.25872 ] ], [ [ -123.21899, 49.25839 ], [ -123.219, 49.2585 ] ] ] } },
{ "type": "Feature", "properties": { "name": "Salish Trail", "key": "Salish", "kind": "street" }, "geometry": { "type": "LineString", "coordinates": [ [ -123.22844, 49.25828 ], [ -123.22838, 49.25813 ] ] } },
{ "type": "Feature", "properties": { "name": "Salish Trail", "key": "Salish", "kind": "trail" }, "geometry": { "type": "MultiLineString", "coordinates": [ [ [ -123.23834, 49.27333 ], [ -123.23821, 49.27361 ], [ -123.23829, 49.27437 ], [ -123.23883, 49.27487 ], [ -123.23932, 49.27526 ], [ -123.23975, 49.27549 ], [ -123.24133, 49.27615 ], [ -123.24195, 49.2766 ], [ -123.24287, 49.27707 ], [ -123.2432, 49.27729 ], [ -123.24335, 49.27755 ], [ -123.24337, 49.27835 ], [ -123.24372, 49.27876 ], [ -123.24367, 49.27898 ] ], [ [ -123.23836, 49.27301 ], [ -123.23844, 49.27285 ], [ -123.23865, 49.2727 ], [ -123.23875, 49.27253 ], [ -123.23848, 49.27147 ], [ -123.23822, 49.27113 ], [ -123.23823, 49.27089 ], [ -123.23833, 49.27074 ], [ -123.2382, 49.27022 ], [ -123.23782, 49.26992 ], [ -123.23724, 49.26924 ], [ -123.23676, 49.26891 ], [ -123.23649, 49.26865 ], [ -123.23596, 49.26792 ], [ -123.23575, 49.26753 ], [ -123.23511, 49.26714 ], [ -123.23478, 49.26684 ], [ -123.23436, 49.26624 ], [ -123.234, 49.26595 ], [ -123.23381, 49.26564 ], [ -123.23358, 49.26555 ], [ -123.23318, 49.26552 ], [ -123.23219, 49.26472 ], [ -123.23173, 49.26454 ], [ -123.23138, 49.26425 ], [ -123.23049, 49.26389 ], [ -123.23031, 49.2637 ], [ -123.23007, 49.2637 ], [ -123.22994, 49.26345 ], [ -123.22971, 49.26327 ], [ -123.22963, 49.26306 ], [ -123.22919, 49.26273 ], [ -123.22913, 49.26244 ], [ -123.22925, 49.26216 ], [ -123.22923, 49.26153 ], [ -123.22888, 49.26108 ], [ -123.22926, 49.26093 ], [ -123.22942, 49.26092 ], [ -123.22958, 49.26082 ], [ -123.22959, 49.26045 ], [ -123.22948, 49.25991 ], [ -123.2296, 49.25953 ], [ -123.22942, 49.25931 ], [ -123.22906, 49.25864 ], [ -123.22866, 49.25832 ] ], [ [ -123.22838, 49.25813 ], [ -123.22837, 49.25799 ], [ -123.22805, 49.258 ] ], [ [ -123.22614, 49.25699 ], [ -123.22585, 49.25704 ], [ -123.22563, 49.25703 ], [ -123.22541, 49.25697 ], [ -123.22531, 49.25685 ], [ -123.22491, 49.25513 ], [ -123.22431, 49.25384 ], [ -123.22432, 49.25325 ], [ -123.22418, 49.25313 ], [ -123.22345, 49.25289 ], [ -123.22256, 49.25317 ], [ -123.22223, 49.25317 ], [ -123.22087, 49.25297 ], [ -123.22047, 49.25283 ], [ -123.21995, 49.25255 ], [ -123.21885, 49.25174 ], [ -123.2181, 49.25109 ], [ -123.21754, 49.25071 ], [ -123.21692, 49.24977 ], [ -123.21694, 49.24925 ] ], [ [ -123.21425, 49.24911 ], [ -123.21436, 49.2487 ], [ -123.21389, 49.24845 ], [ -123.21376, 49.2483 ], [ -123.21329, 49.24724 ], [ -123.21266, 49.24662 ], [ -123.21282, 49.24642 ], [ -123.21288, 49.24592 ], [ -123.21276, 49.24554 ], [ -123.21283, 49.24499 ], [ -123.21272, 49.24482 ], [ -123.21273, 49.24456 ], [ -123.21251, 49.24376 ], [ -123.21183, 49.24301 ], [ -123.21134, 49.24265 ], [ -123.21074, 49.24174 ], [ -123.21048, 49.24154 ], [ -123.21026, 49.24148 ], [ -123.21001, 49.2413 ], [ -123.20951, 49.24111 ], [ -123.20934, 49.24088 ], [ -123.20925, 49.24058 ], [ -123.20875, 49.2402 ], [ -123.20837, 49.23998 ], [ -123.20824, 49.23949 ], [ -123.20813, 49.2394 ], [ -123.20744, 49.2391 ], [ -123.20726, 49.23868 ], [ -123.20701, 49.23854 ], [ -123.20676, 49.23824 ], [ -123.20604, 49.23801 ], [ -123.20556, 49.23795 ], [ -123.20529, 49.23779 ], [ -123.20488, 49.2377 ], [ -123.20452, 49.23756 ], [ -123.20439, 49.23756 ], [ -123.20396, 49.23772 ], [ -123.20363, 49.23775 ], [ -123.20333, 49.23776 ], [ -123.20288, 49.23766 ], [ -123.20271, 49.23755 ], [ -123.2027, 49.23738 ], [ -123.20249, 49.23725 ], [ -123.20169, 49.23678 ], [ -123.20142, 49.23673 ], [ -123.20148, 49.23645 ] ], [ [ -123.19736, 49.23611 ], [ -123.19731, 49.23585 ], [ -123.19754, 49.23556 ], [ -123.19734, 49.23538 ], [ -123.19734, 49.23531 ] ] ] } },
{ "type": "Feature", "properties": { "name": "Salmo Court", "key": "Salmo Court", "kind": "street" }, "geometry": { "type": "LineString", "coordinates": [ [ -123.23738, 49.25976 ], [ -123.23611, 49.26019 ] ] } },
{ "type": "Feature", "properties": { "name": "Sasamat Street", "key": "Sasamat Street", "kind": "street" }, "geometry": { "type": "LineString", "coordinates": [ [ -123.20919, 49.26171 ], [ -123.20931, 49.25823 ] ] } },
{ "type": "Feature", "properties": { "name": "Sasamat Trail", "key": "Sasamat", "kind": "trail" }, "geometry": { "type": "MultiLineString", "coordinates": [ [ [ -123.2058, 49.24921 ], [ -123.20587, 49.24929 ], [ -123.20635, 49.24952 ], [ -123.20652, 49.25009 ], [ -123.20684, 49.25043 ], [ -123.20701, 49.25089 ], [ -123.20709, 49.25097 ], [ -123.20745, 49.25115 ], [ -123.20776, 49.25141 ], [ -123.20815, 49.25156 ], [ -123.20838, 49.25178 ], [ -123.20889, 49.25204 ], [ -123.2091, 49.25224 ], [ -123.20926, 49.25252 ], [ -123.20952, 49.25272 ], [ -123.20947, 49.253 ], [ -123.20951, 49.25315 ], [ -123.2099, 49.25354 ], [ -123.21009, 49.25364 ], [ -123.2103, 49.25368 ], [ -123.21105, 49.25375 ], [ -123.2112, 49.25387 ], [ -123.21135, 49.2545 ], [ -123.21107, 49.2554 ], [ -123.21148, 49.25596 ], [ -123.21146, 49.2561 ], [ -123.21112, 49.25635 ], [ -123.21101, 49.25653 ], [ -123.21079, 49.25657 ], [ -123.21065, 49.25668 ], [ -123.21053, 49.25681 ], [ -123.2105, 49.25693 ], [ -123.21016, 49.2573 ], [ -123.20979, 49.2576 ], [ -123.20953, 49.25773 ] ], [ [ -123.19686, 49.2425 ], [ -123.19778, 49.24255 ], [ -123.1981, 49.24261 ], [ -123.19884, 49.24259 ], [ -123.19961, 49.24265 ], [ -123.20017, 49.24278 ], [ -123.20062, 49.24305 ], [ -123.20147, 49.24376 ], [ -123.2029, 49.24482 ], [ -123.20245, 49.24535 ], [ -123.2024, 49.24557 ], [ -123.2019, 49.24563 ], [ -123.20177, 49.24587 ], [ -123.2018, 49.24596 ], [ -123.20198, 49.24611 ], [ -123.20229, 49.2468 ], [ -123.20317, 49.24736 ], [ -123.20323, 49.24772 ], [ -123.20345, 49.248 ], [ -123.20367, 49.24813 ], [ -123.20402, 49.24814 ], [ -123.20493, 49.24839 ], [ -123.20549, 49.24893 ], [ -123.20567, 49.24923 ] ] ] } },
{ "type": "Feature", "properties": { "name": "Sherry Sakamoto", "key": "Sherry Sakamoto", "kind": "trail" }, "geometry": { "type": "MultiLineString", "coordinates": [ [ [ -123.23172, 49.25721 ], [ -123.23198, 49.25715 ], [ -123.2321, 49.25702 ], [ -123.2358, 49.25574 ] ], [ [ -123.21493, 49.25824 ], [ -123.2217, 49.2583 ], [ -123.22585, 49.25827 ], [ -123.22696, 49.25817 ], [ -123.22805, 49.258 ], [ -123.22919, 49.25775 ], [ -123.22999, 49.2577 ], [ -123.23116, 49.25736 ], [ -123.23144, 49.25721 ], [ -123.23161, 49.25721 ] ] ] } },
{ "type": "Feature", "properties": { "name": "Sherry Sakamoto Trail", "key": "Sherry Sakamoto", "kind": "trail" }, "geometry": { "type": "LineString", "coordinates": [ [ -123.21493, 49.25824 ], [ -123.20627, 49.25812 ], [ -123.20363, 49.25807 ], [ -123.20332, 49.25804 ] ] } },
{ "type": "Feature", "properties": { "name": "Shortcut Road", "key": "Shortcut Road", "kind": "street" }, "geometry": { "type": "LineString", "coordinates": [ [ -123.23542, 49.26552 ], [ -123.23606, 49.26514 ], [ -123.23704, 49.26485 ] ] } },
{ "type": "Feature", "properties": { "name": "Somerset Lane", "key": "Somerset Lane", "kind": "street" }, "geometry": { "type": "LineString", "coordinates": [ [ -123.25767, 49.26812 ], [ -123.25748, 49.2679 ], [ -123.25715, 49.26763 ], [ -123.25718, 49.26755 ], [ -123.25696, 49.26728 ] ] } },
{ "type": "Feature", "properties": { "name": "Southwest Marine Drive", "key": "Southwest Marine Drive", "kind": "street" }, "geometry": { "type": "MultiLineString", "coordinates": [ [ [ -123.19581, 49.23449 ], [ -123.19652, 49.23488 ], [ -123.19734, 49.23513 ], [ -123.20946, 49.23839 ], [ -123.21124, 49.23874 ], [ -123.21251, 49.23893 ], [ -123.2194, 49.23977 ], [ -123.22131, 49.24006 ], [ -123.22292, 49.24039 ], [ -123.22463, 49.24083 ], [ -123.22573, 49.24118 ], [ -123.22731, 49.24175 ], [ -123.22845, 49.24223 ], [ -123.22984, 49.24291 ], [ -123.23489, 49.24571 ], [ -123.23789, 49.24715 ], [ -123.24507, 49.25118 ], [ -123.24663, 49.25201 ], [ -123.2475, 49.25257 ], [ -123.24843, 49.25334 ], [ -123.25169, 49.25622 ], [ -123.25194, 49.25638 ], [ -123.2523, 49.25654 ], [ -123.2525, 49.25657 ], [ -123.25205, 49.25626 ], [ -123.24815, 49.25281 ], [ -123.24696, 49.25198 ], [ -123.24571, 49.25124 ], [ -123.23748, 49.24672 ], [ -123.23511, 49.24563 ], [ -123.23287, 49.24435 ], [ -123.22957, 49.24255 ], [ -123.22728, 49.24154 ], [ -123.22572, 49.24099 ], [ -123.22459, 49.24064 ], [ -123.22268, 49.24015 ], [ -123.2216, 49.23993 ], [ -123.2191, 49.23956 ], [ -123.21189, 49.23867 ], [ -123.21027, 49.2384 ], [ -123.20891, 49.23812 ], [ -123.19811, 49.23522 ], [ -123.19669, 49.23481 ], [ -123.19581, 49.23449 ] ], [ [ -123.19581, 49.23449 ], [ -123.1926, 49.23328 ] ] ] } },
{ "type": "Feature", "properties": { "name": "Southwest Marine Trail", "key": "Southwest Marine", "kind": "trail" }, "geometry": { "type": "LineString", "coordinates": [ [ -123.19715, 49.23516 ], [ -123.19719, 49.23526 ], [ -123.20148, 49.23645 ], [ -123.20324, 49.23707 ], [ -123.2038, 49.23712 ], [ -123.20457, 49.2374 ], [ -123.20514, 49.23742 ], [ -123.20582, 49.2377 ], [ -123.20661, 49.2378 ], [ -123.20739, 49.23809 ], [ -123.20778, 49.23812 ], [ -123.20933, 49.23855 ], [ -123.21071, 49.2388 ], [ -123.21115, 49.23894 ], [ -123.21172, 49.23898 ], [ -123.21253, 49.23916 ], [ -123.21346, 49.23918 ], [ -123.2141, 49.23936 ], [ -123.21431, 49.23932 ], [ -123.21619, 49.23954 ], [ -123.21874, 49.2399 ], [ -123.21973, 49.23994 ], [ -123.22029, 49.2401 ], [ -123.22069, 49.24009 ], [ -123.22166, 49.24027 ], [ -123.22219, 49.24049 ], [ -123.22244, 49.24051 ], [ -123.22288, 49.24066 ], [ -123.22357, 49.24077 ], [ -123.22506, 49.24121 ], [ -123.22532, 49.24125 ], [ -123.22567, 49.24139 ], [ -123.22631, 49.24154 ], [ -123.22683, 49.24176 ], [ -123.22745, 49.24195 ] ] } },
{ "type": "Feature", "properties": { "name": "Spanish Trail", "key": "Spanish", "kind": "trail" }, "geometry": { "type": "MultiLineString", "coordinates": [ [ [ -123.23635, 49.26849 ], [ -123.23609, 49.26858 ], [ -123.23596, 49.26885 ], [ -123.23535, 49.26933 ], [ -123.23447, 49.26964 ], [ -123.23429, 49.26964 ], [ -123.23345, 49.26935 ], [ -123.23282, 49.26923 ], [ -123.23228, 49.26918 ], [ -123.23165, 49.26898 ], [ -123.23102, 49.26853 ], [ -123.23041, 49.26798 ], [ -123.22977, 49.26767 ], [ -123.22909, 49.26762 ], [ -123.22845, 49.26765 ], [ -123.22797, 49.26754 ], [ -123.22757, 49.26765 ], [ -123.2267, 49.26779 ], [ -123.22599, 49.26779 ], [ -123.22567, 49.26788 ], [ -123.22545, 49.26811 ], [ -123.22549, 49.2683 ], [ -123.22565, 49.26848 ], [ -123.22565, 49.26861 ], [ -123.22552, 49.2688 ] ], [ [ -123.22608, 49.27573 ], [ -123.22637, 49.27594 ], [ -123.2264, 49.27636 ] ], [ [ -123.22608, 49.27573 ], [ -123.22562, 49.27609 ], [ -123.22558, 49.27623 ], [ -123.22571, 49.27633 ], [ -123.22538, 49.27644 ], [ -123.22536, 49.27657 ], [ -123.22502, 49.27705 ], [ -123.22464, 49.2773 ], [ -123.2246, 49.27744 ] ], [ [ -123.22572, 49.26889 ], [ -123.22549, 49.26911 ], [ -123.22533, 49.26904 ], [ -123.22503, 49.2693 ], [ -123.22454, 49.26946 ], [ -123.22445, 49.26956 ], [ -123.22455, 49.26981 ], [ -123.22493, 49.27019 ], [ -123.22493, 49.27046 ], [ -123.22487, 49.27056 ], [ -123.22501, 49.27084 ], [ -123.22501, 49.27105 ], [ -123.22516, 49.27117 ], [ -123.22549, 49.27132 ], [ -123.22574, 49.27159 ], [ -123.22613, 49.27168 ], [ -123.22625, 49.27177 ], [ -123.22643, 49.27226 ], [ -123.22645, 49.27236 ], [ -123.22625, 49.27277 ], [ -123.22651, 49.27327 ], [ -123.22659, 49.27363 ], [ -123.22646, 49.27403 ], [ -123.22646, 49.27454 ], [ -123.22638, 49.27483 ], [ -123.2261, 49.27526 ], [ -123.22608, 49.27573 ] ] ] } },
{ "type": "Feature", "properties": { "name": "St. Andrew's Walk", "key": "St. Andrew's Walk", "kind": "street" }, "geometry": { "type": "LineString", "coordinates": [ [ -123.2519, 49.27091 ], [ -123.25099, 49.2698 ] ] } },
{ "type": "Feature", "properties": { "name": "St. Georges Trail", "key": "St. Georges", "kind": "trail" }, "geometry": { "type": "LineString", "coordinates": [ [ -123.19696, 49.23855 ], [ -123.19714, 49.23877 ], [ -123.19737, 49.23885 ], [ -123.19752, 49.23902 ], [ -123.19763, 49.23942 ], [ -123.19756, 49.23961 ], [ -123.1976, 49.23991 ], [ -123.19768, 49.24004 ], [ -123.19793, 49.24021 ], [ -123.19803, 49.24062 ], [ -123.1982, 49.24091 ], [ -123.19826, 49.24126 ], [ -123.19853, 49.24169 ], [ -123.19848, 49.24228 ], [ -123.19856, 49.24255 ], [ -123.19836, 49.24274 ], [ -123.19817, 49.24327 ], [ -123.19819, 49.24343 ], [ -123.19843, 49.24378 ], [ -123.19868, 49.24442 ], [ -123.19865, 49.24522 ], [ -123.19883, 49.24579 ], [ -123.19883, 49.24622 ] ] } },
{ "type": "Feature", "properties": { "name": "Stadium Road", "key": "Stadium Road", "kind": "street" }, "geometry": { "type": "MultiLineString", "coordinates": [ [ [ -123.24821, 49.25536 ], [ -123.24996, 49.2544 ] ], [ [ -123.24987, 49.25432 ], [ -123.24811, 49.25528 ] ], [ [ -123.24808, 49.25528 ], [ -123.24771, 49.25516 ], [ -123.24746, 49.25515 ] ], [ [ -123.24746, 49.25515 ], [ -123.24792, 49.25535 ] ], [ [ -123.24746, 49.25515 ], [ -123.24732, 49.25514 ], [ -123.24711, 49.25517 ], [ -123.24683, 49.25524 ] ] ] } },
{ "type": "Feature", "properties": { "name": "Stores Road", "key": "Stores Road", "kind": "street" }, "geometry": { "type": "LineString", "coordinates": [ [ -123.25184, 49.26205 ], [ -123.25155, 49.26216 ] ] } },
{ "type": "Feature", "properties": { "name": "Stores Road", "key": "Stores Road", "kind": "trail" }, "geometry": { "type": "LineString", "coordinates": [ [ -123.25343, 49.26173 ], [ -123.25311, 49.26176 ], [ -123.25269, 49.26192 ], [ -123.25224, 49.26192 ], [ -123.25184, 49.26205 ] ] } },
{ "type": "Feature", "properties": { "name": "Student Union Boulevard", "key": "Student Union Boulevard", "kind": "street" }, "geometry": { "type": "LineString", "coordinates": [ [ -123.25186, 49.26851 ], [ -123.25152, 49.2681 ] ] } },
{ "type": "Feature", "properties": { "name": "Student Union Boulevard - sq̓ʷəlexélə", "key": "Student Union Boulevard", "kind": "trail" }, "geometry": { "type": "LineString", "coordinates": [ [ -123.25112, 49.26833 ], [ -123.25214, 49.26799 ] ] } },
{ "type": "Feature", "properties": { "name": "Sword Fern Trail", "key": "Sword Fern", "kind": "trail" }, "geometry": { "type": "MultiLineString", "coordinates": [ [ [ -123.23696, 49.26642 ], [ -123.23675, 49.26642 ], [ -123.23661, 49.26663 ], [ -123.23667, 49.26675 ], [ -123.23652, 49.26715 ], [ -123.23654, 49.26767 ], [ -123.23648, 49.2679 ], [ -123.23684, 49.26832 ], [ -123.23724, 49.26856 ], [ -123.23749, 49.26883 ], [ -123.23775, 49.26893 ], [ -123.23822, 49.269 ], [ -123.23874, 49.26929 ], [ -123.23905, 49.2696 ], [ -123.23985, 49.27178 ], [ -123.23988, 49.27204 ], [ -123.23979, 49.27216 ], [ -123.23906, 49.27235 ], [ -123.23873, 49.27237 ] ], [ [ -123.23113, 49.25785 ], [ -123.23144, 49.25805 ], [ -123.23199, 49.25865 ], [ -123.23205, 49.25876 ], [ -123.23202, 49.25895 ], [ -123.23247, 49.25939 ], [ -123.2328, 49.26009 ], [ -123.23313, 49.2604 ] ], [ [ -123.22805, 49.258 ], [ -123.22779, 49.25783 ], [ -123.22758, 49.25759 ], [ -123.22729, 49.25743 ], [ -123.2269, 49.25734 ], [ -123.2266, 49.25713 ], [ -123.22611, 49.25697 ], [ -123.22598, 49.25663 ], [ -123.22587, 49.25649 ], [ -123.22571, 49.25601 ], [ -123.22579, 49.25584 ], [ -123.22634, 49.2555 ], [ -123.22676, 49.2554 ], [ -123.22709, 49.2555 ], [ -123.22724, 49.25545 ], [ -123.22776, 49.25544 ], [ -123.22818, 49.2551 ], [ -123.22798, 49.25482 ], [ -123.22742, 49.25446 ], [ -123.22756, 49.25365 ], [ -123.22743, 49.25337 ], [ -123.22719, 49.25316 ], [ -123.22711, 49.25289 ], [ -123.22764, 49.25191 ], [ -123.22747, 49.25173 ], [ -123.22722, 49.25165 ], [ -123.22707, 49.25153 ], [ -123.22708, 49.2514 ], [ -123.22729, 49.25109 ], [ -123.22727, 49.25099 ], [ -123.2267, 49.25045 ], [ -123.22654, 49.25041 ], [ -123.22608, 49.25016 ], [ -123.22571, 49.25005 ], [ -123.22565, 49.24997 ], [ -123.22571, 49.2496 ], [ -123.22567, 49.24936 ], [ -123.22529, 49.24909 ], [ -123.22546, 49.24886 ], [ -123.22555, 49.24852 ], [ -123.22552, 49.24828 ], [ -123.22536, 49.24808 ], [ -123.22536, 49.24758 ], [ -123.2259, 49.24693 ], [ -123.226, 49.24662 ], [ -123.22632, 49.24619 ], [ -123.22621, 49.24569 ], [ -123.22608, 49.24541 ], [ -123.2262, 49.24473 ], [ -123.2261, 49.2446 ], [ -123.22565, 49.24434 ], [ -123.22578, 49.24414 ], [ -123.2257, 49.24377 ], [ -123.22584, 49.24362 ], [ -123.22589, 49.24327 ], [ -123.22569, 49.24297 ], [ -123.22607, 49.24271 ], [ -123.22641, 49.2423 ], [ -123.22624, 49.24186 ], [ -123.22631, 49.24154 ] ] ] } },
{ "type": "Feature", "properties": { "name": "Tasmania Crescent", "key": "Tasmania Crescent", "kind": "street" }, "geometry": { "type": "LineString", "coordinates": [ [ -123.22703, 49.26655 ], [ -123.22583, 49.26681 ], [ -123.22515, 49.26708 ], [ -123.22458, 49.26744 ], [ -123.22368, 49.26813 ] ] } },
{ "type": "Feature", "properties": { "name": "Tennis Crescent", "key": "Tennis Crescent", "kind": "trail" }, "geometry": { "type": "LineString", "coordinates": [ [ -123.2383, 49.26409 ], [ -123.23765, 49.26347 ], [ -123.23741, 49.26304 ], [ -123.23702, 49.26255 ] ] } },
{ "type": "Feature", "properties": { "name": "Thames Court", "key": "Thames Court", "kind": "street" }, "geometry": { "type": "LineString", "coordinates": [ [ -123.23601, 49.25709 ], [ -123.23614, 49.25712 ], [ -123.23667, 49.25777 ] ] } },
{ "type": "Feature", "properties": { "name": "The Berkshire", "key": "The Berkshire", "kind": "trail" }, "geometry": { "type": "LineString", "coordinates": [ [ -123.23595, 49.25695 ], [ -123.23604, 49.25682 ] ] } },
{ "type": "Feature", "properties": { "name": "Theology Mall", "key": "Theology Mall", "kind": "street" }, "geometry": { "type": "MultiLineString", "coordinates": [ [ [ -123.25159, 49.27252 ], [ -123.25126, 49.27212 ] ], [ [ -123.25125, 49.27197 ], [ -123.2508, 49.27138 ] ], [ [ -123.25059, 49.27146 ], [ -123.25107, 49.27206 ] ] ] } },
{ "type": "Feature", "properties": { "name": "Thunderbird Boulevard", "key": "Thunderbird Boulevard", "kind": "street" }, "geometry": { "type": "LineString", "coordinates": [ [ -123.25063, 49.25852 ], [ -123.24891, 49.25911 ] ] } },
{ "type": "Feature", "properties": { "name": "Thunderbird Crescent", "key": "Thunderbird Crescent", "kind": "street" }, "geometry": { "type": "LineString", "coordinates": [ [ -123.25107, 49.25908 ], [ -123.24946, 49.25964 ] ] } },
{ "type": "Feature", "properties": { "name": "Tolmie Street", "key": "Tolmie Street", "kind": "street" }, "geometry": { "type": "LineString", "coordinates": [ [ -123.21211, 49.26503 ], [ -123.21236, 49.25827 ] ] } },
{ "type": "Feature", "properties": { "name": "Top Trail", "key": "Top", "kind": "trail" }, "geometry": { "type": "MultiLineString", "coordinates": [ [ [ -123.21233, 49.25821 ], [ -123.21218, 49.25796 ], [ -123.21196, 49.25781 ], [ -123.21183, 49.25776 ], [ -123.21136, 49.25773 ], [ -123.2102, 49.25732 ], [ -123.21004, 49.25722 ], [ -123.20984, 49.25691 ], [ -123.2094, 49.25679 ], [ -123.20903, 49.25689 ], [ -123.20884, 49.25685 ], [ -123.20851, 49.25619 ], [ -123.20844, 49.25613 ], [ -123.20797, 49.25603 ], [ -123.20746, 49.25574 ], [ -123.20728, 49.25558 ], [ -123.20713, 49.25521 ], [ -123.20714, 49.2549 ], [ -123.207, 49.25475 ], [ -123.20687, 49.25438 ], [ -123.20667, 49.25419 ], [ -123.20625, 49.25409 ], [ -123.20607, 49.25393 ], [ -123.20596, 49.25381 ], [ -123.20593, 49.25359 ], [ -123.2057, 49.25308 ], [ -123.20548, 49.2529 ], [ -123.20497, 49.25226 ], [ -123.20422, 49.25191 ], [ -123.20369, 49.25157 ], [ -123.20257, 49.25063 ] ], [ [ -123.2029, 49.25036 ], [ -123.20262, 49.25024 ], [ -123.20215, 49.24995 ], [ -123.2014, 49.25012 ], [ -123.20114, 49.2501 ], [ -123.19985, 49.25023 ], [ -123.19933, 49.2502 ] ], [ [ -123.19933, 49.2502 ], [ -123.19919, 49.25026 ], [ -123.19884, 49.25027 ], [ -123.19816, 49.25005 ], [ -123.19769, 49.24999 ], [ -123.19696, 49.25001 ], [ -123.19649, 49.2501 ], [ -123.19361, 49.25012 ] ], [ [ -123.19933, 49.2502 ], [ -123.19887, 49.25014 ] ] ] } },
{ "type": "Feature", "properties": { "name": "Toronto Road", "key": "Toronto Road", "kind": "street" }, "geometry": { "type": "LineString", "coordinates": [ [ -123.24193, 49.26452 ], [ -123.23679, 49.26635 ] ] } },
{ "type": "Feature", "properties": { "name": "Trimble Street", "key": "Trimble Street", "kind": "street" }, "geometry": { "type": "LineString", "coordinates": [ [ -123.20615, 49.26164 ], [ -123.20627, 49.25818 ] ] } },
{ "type": "Feature", "properties": { "name": "UBC Greenway", "key": "UBC Greenway", "kind": "trail" }, "geometry": { "type": "LineString", "coordinates": [ [ -123.2278, 49.24542 ], [ -123.22802, 49.24619 ], [ -123.22786, 49.24685 ], [ -123.22817, 49.24798 ], [ -123.22843, 49.2485 ], [ -123.22881, 49.24892 ], [ -123.22906, 49.24975 ], [ -123.22945, 49.24983 ], [ -123.22998, 49.2498 ], [ -123.23041, 49.24948 ], [ -123.23053, 49.24946 ], [ -123.23209, 49.24966 ] ] } },
{ "type": "Feature", "properties": { "name": "University Boulevard", "key": "University Boulevard", "kind": "street" }, "geometry": { "type": "LineString", "coordinates": [ [ -123.24371, 49.26661 ], [ -123.24167, 49.26689 ], [ -123.2406, 49.26692 ], [ -123.23951, 49.26686 ], [ -123.23856, 49.26672 ], [ -123.23773, 49.26654 ], [ -123.23696, 49.26628 ], [ -123.2359, 49.26579 ], [ -123.23363, 49.26434 ], [ -123.23301, 49.26401 ], [ -123.23224, 49.26375 ], [ -123.2312, 49.26355 ], [ -123.23042, 49.2635 ], [ -123.22829, 49.26353 ], [ -123.21539, 49.26384 ], [ -123.21523, 49.26391 ], [ -123.21537, 49.26398 ], [ -123.23007, 49.26363 ], [ -123.23084, 49.26365 ], [ -123.23188, 49.26381 ], [ -123.23285, 49.26412 ], [ -123.23346, 49.26443 ], [ -123.23597, 49.26601 ], [ -123.23716, 49.26649 ], [ -123.23801, 49.26674 ], [ -123.23853, 49.26686 ], [ -123.23961, 49.267 ], [ -123.24086, 49.26707 ], [ -123.24205, 49.26699 ], [ -123.24381, 49.26673 ] ] } },
{ "type": "Feature", "properties": { "name": "University Boulevard - šxʷyəθəstəm", "key": "University Boulevard", "kind": "street" }, "geometry": { "type": "LineString", "coordinates": [ [ -123.25497, 49.26393 ], [ -123.25637, 49.26343 ] ] } },
{ "type": "Feature", "properties": { "name": "University Boulevard - šxʷyəθəstəm", "key": "University Boulevard", "kind": "trail" }, "geometry": { "type": "MultiLineString", "coordinates": [ [ [ -123.25379, 49.26455 ], [ -123.25572, 49.26386 ] ], [ [ -123.25497, 49.26393 ], [ -123.25371, 49.26438 ] ] ] } },
{ "type": "Feature", "properties": { "name": "Vine Maple Trail", "key": "Vine Maple", "kind": "trail" }, "geometry": { "type": "LineString", "coordinates": [ [ -123.21868, 49.26077 ], [ -123.21853, 49.26076 ], [ -123.21806, 49.26039 ], [ -123.21795, 49.26038 ], [ -123.21773, 49.26045 ], [ -123.21741, 49.26043 ], [ -123.2171, 49.26057 ], [ -123.21693, 49.26053 ], [ -123.21683, 49.26046 ], [ -123.21688, 49.26027 ], [ -123.21676, 49.26 ], [ -123.21584, 49.2595 ], [ -123.21554, 49.25943 ] ] } },
{ "type": "Feature", "properties": { "name": "Wallace Street", "key": "Wallace Street", "kind": "street" }, "geometry": { "type": "LineString", "coordinates": [ [ -123.19081, 49.25635 ], [ -123.19088, 49.24627 ] ] } },
{ "type": "Feature", "properties": { "name": "Walter Gage Road", "key": "Walter Gage Road", "kind": "street" }, "geometry": { "type": "LineString", "coordinates": [ [ -123.25316, 49.269 ], [ -123.24917, 49.27045 ] ] } },
{ "type": "Feature", "properties": { "name": "Wesbrook Crescent", "key": "Wesbrook Crescent", "kind": "street" }, "geometry": { "type": "MultiLineString", "coordinates": [ [ [ -123.252, 49.27484 ], [ -123.25001, 49.27443 ], [ -123.24955, 49.27426 ], [ -123.24922, 49.27408 ], [ -123.24886, 49.27381 ], [ -123.24852, 49.27329 ] ], [ [ -123.2484, 49.27293 ], [ -123.24815, 49.27225 ] ] ] } },
{ "type": "Feature", "properties": { "name": "Wesbrook Mall", "key": "Wesbrook Mall", "kind": "street" }, "geometry": { "type": "MultiLineString", "coordinates": [ [ [ -123.2487, 49.2729 ], [ -123.24832, 49.27211 ] ], [ [ -123.2363, 49.25595 ], [ -123.23639, 49.25598 ] ], [ [ -123.23611, 49.25538 ], [ -123.23598, 49.25532 ] ], [ [ -123.23598, 49.25532 ], [ -123.2361, 49.25564 ] ], [ [ -123.23598, 49.25532 ], [ -123.23421, 49.25315 ], [ -123.23301, 49.25131 ], [ -123.23227, 49.24976 ], [ -123.23195, 49.24893 ], [ -123.23179, 49.24826 ], [ -123.23178, 49.24738 ] ], [ [ -123.23382, 49.2449 ], [ -123.23338, 49.24521 ], [ -123.23204, 49.24685 ] ], [ [ -123.23204, 49.24685 ], [ -123.23178, 49.24698 ] ], [ [ -123.23203, 49.24705 ], [ -123.23204, 49.24685 ] ] ] } },
{ "type": "Feature", "properties": { "name": "West 10th Avenue", "key": "West 10th Avenue", "kind": "street" }, "geometry": { "type": "LineString", "coordinates": [ [ -123.21056, 49.26386 ], [ -123.21523, 49.26391 ] ] } },
{ "type": "Feature", "properties": { "name": "West 11th Avenue", "key": "West 11th Avenue", "kind": "street" }, "geometry": { "type": "LineString", "coordinates": [ [ -123.20997, 49.26292 ], [ -123.21527, 49.263 ] ] } },
{ "type": "Feature", "properties": { "name": "West 12th Avenue", "key": "West 12th Avenue", "kind": "street" }, "geometry": { "type": "LineString", "coordinates": [ [ -123.21531, 49.2621 ], [ -123.20985, 49.26202 ] ] } },
{ "type": "Feature", "properties": { "name": "West 13th Avenue", "key": "West 13th Avenue", "kind": "street" }, "geometry": { "type": "LineString", "coordinates": [ [ -123.21534, 49.2612 ], [ -123.20019, 49.26097 ] ] } },
{ "type": "Feature", "properties": { "name": "West 14th Avenue", "key": "West 14th Avenue", "kind": "street" }, "geometry": { "type": "MultiLineString", "coordinates": [ [ [ -123.21537, 49.26029 ], [ -123.20324, 49.2601 ] ], [ [ -123.2031, 49.2601 ], [ -123.19596, 49.25999 ] ] ] } },
{ "type": "Feature", "properties": { "name": "West 15th Avenue", "key": "West 15th Avenue", "kind": "street" }, "geometry": { "type": "LineString", "coordinates": [ [ -123.19407, 49.25906 ], [ -123.2154, 49.25938 ] ] } },
{ "type": "Feature", "properties": { "name": "West 16th Avenue", "key": "West 16th Avenue", "kind": "street" }, "geometry": { "type": "MultiLineString", "coordinates": [ [ [ -123.24427, 49.25309 ], [ -123.24613, 49.25244 ], [ -123.24663, 49.25201 ] ], [ [ -123.24653, 49.25196 ], [ -123.24596, 49.2523 ], [ -123.2455, 49.25249 ] ], [ [ -123.2455, 49.25249 ], [ -123.24408, 49.25298 ] ], [ [ -123.24507, 49.25118 ], [ -123.24568, 49.25159 ], [ -123.24587, 49.25185 ], [ -123.2459, 49.252 ], [ -123.24582, 49.2522 ], [ -123.2455, 49.25249 ] ], [ [ -123.23552, 49.25601 ], [ -123.23598, 49.25593 ], [ -123.23623, 49.25593 ] ], [ [ -123.23606, 49.2557 ], [ -123.23552, 49.25601 ] ], [ [ -123.23411, 49.2565 ], [ -123.23552, 49.25601 ] ], [ [ -123.23411, 49.2565 ], [ -123.23319, 49.25676 ], [ -123.2313, 49.25745 ] ], [ [ -123.19195, 49.25813 ], [ -123.22394, 49.25861 ], [ -123.22518, 49.25859 ], [ -123.2276, 49.25843 ], [ -123.23065, 49.25782 ], [ -123.23204, 49.25738 ], [ -123.23411, 49.2565 ] ], [ [ -123.21657, 49.25833 ], [ -123.19184, 49.25794 ] ] ] } },
{ "type": "Feature", "properties": { "name": "West 17th Avenue", "key": "West 17th Avenue", "kind": "street" }, "geometry": { "type": "LineString", "coordinates": [ [ -123.19657, 49.25753 ], [ -123.19154, 49.25745 ] ] } },
{ "type": "Feature", "properties": { "name": "West 18th Avenue", "key": "West 18th Avenue", "kind": "street" }, "geometry": { "type": "LineString", "coordinates": [ [ -123.19658, 49.25653 ], [ -123.19097, 49.25651 ] ] } },
{ "type": "Feature", "properties": { "name": "West 19th Avenue", "key": "West 19th Avenue", "kind": "street" }, "geometry": { "type": "LineString", "coordinates": [ [ -123.19656, 49.25562 ], [ -123.18948, 49.2556 ] ] } },
{ "type": "Feature", "properties": { "name": "West 20th Avenue", "key": "West 20th Avenue", "kind": "street" }, "geometry": { "type": "LineString", "coordinates": [ [ -123.19591, 49.25472 ], [ -123.18866, 49.2547 ] ] } },
{ "type": "Feature", "properties": { "name": "West 21st Avenue", "key": "West 21st Avenue", "kind": "street" }, "geometry": { "type": "LineString", "coordinates": [ [ -123.19593, 49.25381 ], [ -123.18838, 49.25379 ] ] } },
{ "type": "Feature", "properties": { "name": "West 22nd Avenue", "key": "West 22nd Avenue", "kind": "street" }, "geometry": { "type": "LineString", "coordinates": [ [ -123.1936, 49.2529 ], [ -123.18825, 49.25289 ] ] } },
{ "type": "Feature", "properties": { "name": "West 23rd Avenue", "key": "West 23rd Avenue", "kind": "street" }, "geometry": { "type": "LineString", "coordinates": [ [ -123.19361, 49.25202 ], [ -123.18826, 49.25198 ] ] } },
{ "type": "Feature", "properties": { "name": "West 24th Avenue", "key": "West 24th Avenue", "kind": "street" }, "geometry": { "type": "LineString", "coordinates": [ [ -123.19362, 49.2511 ], [ -123.18827, 49.25108 ] ] } },
{ "type": "Feature", "properties": { "name": "West 26th Avenue", "key": "West 26th Avenue", "kind": "street" }, "geometry": { "type": "LineString", "coordinates": [ [ -123.19087, 49.24904 ], [ -123.1883, 49.24903 ] ] } },
{ "type": "Feature", "properties": { "name": "West 27th Avenue", "key": "West 27th Avenue", "kind": "street" }, "geometry": { "type": "LineString", "coordinates": [ [ -123.19672, 49.24813 ], [ -123.18862, 49.24811 ] ] } },
{ "type": "Feature", "properties": { "name": "West 28th Avenue", "key": "West 28th Avenue", "kind": "street" }, "geometry": { "type": "LineString", "coordinates": [ [ -123.19677, 49.24718 ], [ -123.19366, 49.24717 ] ] } },
{ "type": "Feature", "properties": { "name": "West 29th Avenue", "key": "West 29th Avenue", "kind": "street" }, "geometry": { "type": "MultiLineString", "coordinates": [ [ [ -123.20131, 49.24748 ], [ -123.20461, 49.24912 ] ], [ [ -123.19103, 49.24621 ], [ -123.19869, 49.24626 ], [ -123.19902, 49.24632 ], [ -123.20119, 49.24742 ] ] ] } },
{ "type": "Feature", "properties": { "name": "West 2nd Avenue", "key": "West 2nd Avenue", "kind": "street" }, "geometry": { "type": "LineString", "coordinates": [ [ -123.2209, 49.27117 ], [ -123.21893, 49.2714 ], [ -123.21725, 49.27147 ], [ -123.21623, 49.27146 ] ] } },
{ "type": "Feature", "properties": { "name": "West 30th Avenue", "key": "West 30th Avenue", "kind": "street" }, "geometry": { "type": "LineString", "coordinates": [ [ -123.19146, 49.24526 ], [ -123.19678, 49.24529 ] ] } },
{ "type": "Feature", "properties": { "name": "West 31st Avenue", "key": "West 31st Avenue", "kind": "street" }, "geometry": { "type": "LineString", "coordinates": [ [ -123.19147, 49.24431 ], [ -123.19678, 49.24434 ] ] } },
{ "type": "Feature", "properties": { "name": "West 32nd Avenue", "key": "West 32nd Avenue", "kind": "street" }, "geometry": { "type": "LineString", "coordinates": [ [ -123.1968, 49.24338 ], [ -123.19148, 49.24336 ] ] } },
{ "type": "Feature", "properties": { "name": "West 33rd Avenue", "key": "West 33rd Avenue", "kind": "street" }, "geometry": { "type": "LineString", "coordinates": [ [ -123.19682, 49.24244 ], [ -123.19149, 49.24241 ] ] } },
{ "type": "Feature", "properties": { "name": "West 34th Avenue", "key": "West 34th Avenue", "kind": "street" }, "geometry": { "type": "LineString", "coordinates": [ [ -123.19681, 49.24148 ], [ -123.1915, 49.24145 ] ] } },
{ "type": "Feature", "properties": { "name": "West 35th Avenue", "key": "West 35th Avenue", "kind": "street" }, "geometry": { "type": "LineString", "coordinates": [ [ -123.19151, 49.2405 ], [ -123.19681, 49.24053 ] ] } },
{ "type": "Feature", "properties": { "name": "West 36th Avenue", "key": "West 36th Avenue", "kind": "street" }, "geometry": { "type": "LineString", "coordinates": [ [ -123.19151, 49.23956 ], [ -123.19682, 49.23958 ] ] } },
{ "type": "Feature", "properties": { "name": "West 37th Avenue", "key": "West 37th Avenue", "kind": "street" }, "geometry": { "type": "LineString", "coordinates": [ [ -123.19683, 49.23862 ], [ -123.19152, 49.23861 ] ] } },
{ "type": "Feature", "properties": { "name": "West 38th Avenue", "key": "West 38th Avenue", "kind": "street" }, "geometry": { "type": "LineString", "coordinates": [ [ -123.19173, 49.23761 ], [ -123.19685, 49.23764 ] ] } },
{ "type": "Feature", "properties": { "name": "West 39th Avenue", "key": "West 39th Avenue", "kind": "street" }, "geometry": { "type": "LineString", "coordinates": [ [ -123.19686, 49.23648 ], [ -123.19166, 49.23646 ] ] } },
{ "type": "Feature", "properties": { "name": "West 3rd Avenue", "key": "West 3rd Avenue", "kind": "street" }, "geometry": { "type": "LineString", "coordinates": [ [ -123.21492, 49.27029 ], [ -123.215, 49.27029 ] ] } },
{ "type": "Feature", "properties": { "name": "West 40th Avenue", "key": "West 40th Avenue", "kind": "street" }, "geometry": { "type": "LineString", "coordinates": [ [ -123.19684, 49.23565 ], [ -123.19374, 49.23564 ] ] } },
{ "type": "Feature", "properties": { "name": "West 41st Avenue", "key": "West 41st Avenue", "kind": "street" }, "geometry": { "type": "MultiLineString", "coordinates": [ [ [ -123.19665, 49.23479 ], [ -123.19598, 49.23477 ] ], [ [ -123.19598, 49.23477 ], [ -123.19652, 49.23488 ] ], [ [ -123.19598, 49.23477 ], [ -123.19414, 49.23478 ], [ -123.1917, 49.23477 ] ] ] } },
{ "type": "Feature", "properties": { "name": "West 4th Avenue", "key": "West 4th Avenue", "kind": "street" }, "geometry": { "type": "LineString", "coordinates": [ [ -123.2144, 49.2691 ], [ -123.21734, 49.26913 ], [ -123.21812, 49.2691 ], [ -123.22225, 49.26869 ] ] } },
{ "type": "Feature", "properties": { "name": "West 5th Avenue", "key": "West 5th Avenue", "kind": "street" }, "geometry": { "type": "LineString", "coordinates": [ [ -123.21506, 49.26824 ], [ -123.21428, 49.26823 ] ] } },
{ "type": "Feature", "properties": { "name": "West 6th Avenue", "key": "West 6th Avenue", "kind": "street" }, "geometry": { "type": "LineString", "coordinates": [ [ -123.2196, 49.2672 ], [ -123.21697, 49.26738 ], [ -123.21435, 49.26738 ] ] } },
{ "type": "Feature", "properties": { "name": "West 7th Avenue", "key": "West 7th Avenue", "kind": "street" }, "geometry": { "type": "LineString", "coordinates": [ [ -123.21442, 49.26653 ], [ -123.21963, 49.2666 ] ] } },
{ "type": "Feature", "properties": { "name": "West 8th Avenue", "key": "West 8th Avenue", "kind": "street" }, "geometry": { "type": "LineString", "coordinates": [ [ -123.21424, 49.26566 ], [ -123.21516, 49.26567 ] ] } },
{ "type": "Feature", "properties": { "name": "West 9th Avenue", "key": "West 9th Avenue", "kind": "street" }, "geometry": { "type": "LineString", "coordinates": [ [ -123.21519, 49.26481 ], [ -123.21163, 49.26475 ] ] } },
{ "type": "Feature", "properties": { "name": "West Canyon Trail", "key": "West Canyon", "kind": "trail" }, "geometry": { "type": "LineString", "coordinates": [ [ -123.23209, 49.27732 ], [ -123.23219, 49.2769 ], [ -123.23216, 49.27656 ], [ -123.23233, 49.27632 ], [ -123.23259, 49.27559 ], [ -123.2326, 49.27544 ], [ -123.23252, 49.27527 ], [ -123.23252, 49.27507 ], [ -123.23209, 49.27445 ], [ -123.23211, 49.27409 ], [ -123.23198, 49.27385 ], [ -123.23205, 49.27359 ], [ -123.23181, 49.2734 ], [ -123.23163, 49.27307 ], [ -123.2316, 49.27283 ], [ -123.23098, 49.27245 ], [ -123.23081, 49.27213 ], [ -123.2308, 49.27192 ], [ -123.23053, 49.27183 ], [ -123.23022, 49.27184 ], [ -123.23007, 49.2717 ], [ -123.22959, 49.2716 ] ] } },
{ "type": "Feature", "properties": { "name": "West King Edward Avenue", "key": "West King Edward Avenue", "kind": "street" }, "geometry": { "type": "MultiLineString", "coordinates": [ [ [ -123.20461, 49.24912 ], [ -123.2044, 49.24933 ], [ -123.20386, 49.24948 ], [ -123.20071, 49.25002 ], [ -123.19916, 49.25007 ], [ -123.19887, 49.25014 ] ], [ [ -123.19362, 49.25 ], [ -123.18829, 49.24998 ] ], [ [ -123.18829, 49.25017 ], [ -123.19361, 49.2502 ] ] ] } },
{ "type": "Feature", "properties": { "name": "West Mall", "key": "West Mall", "kind": "street" }, "geometry": { "type": "MultiLineString", "coordinates": [ [ [ -123.25265, 49.26065 ], [ -123.25188, 49.26004 ], [ -123.24841, 49.2558 ] ], [ [ -123.24841, 49.2558 ], [ -123.2482, 49.25541 ] ], [ [ -123.24805, 49.25547 ], [ -123.24841, 49.2558 ] ] ] } },
{ "type": "Feature", "properties": { "name": "West Mall - sme:ntásəm", "key": "West Mall", "kind": "street" }, "geometry": { "type": "MultiLineString", "coordinates": [ [ [ -123.25886, 49.26865 ], [ -123.25733, 49.26681 ] ], [ [ -123.25265, 49.26065 ], [ -123.25337, 49.26155 ], [ -123.25354, 49.26218 ], [ -123.25497, 49.26393 ] ] ] } },
{ "type": "Feature", "properties": { "name": "Westchester", "key": "Westchester", "kind": "street" }, "geometry": { "type": "LineString", "coordinates": [ [ -123.24869, 49.25688 ], [ -123.24934, 49.2577 ] ] } },
{ "type": "Feature", "properties": { "name": "Western Crescent", "key": "Western Crescent", "kind": "street" }, "geometry": { "type": "LineString", "coordinates": [ [ -123.2459, 49.27509 ], [ -123.2465, 49.27496 ], [ -123.24674, 49.27487 ], [ -123.24696, 49.27475 ], [ -123.24722, 49.27452 ], [ -123.24738, 49.2741 ], [ -123.24722, 49.27346 ] ] } },
{ "type": "Feature", "properties": { "name": "Western Parkway", "key": "Western Parkway", "kind": "street" }, "geometry": { "type": "LineString", "coordinates": [ [ -123.24704, 49.27295 ], [ -123.24722, 49.27346 ] ] } },
{ "type": "Feature", "properties": { "name": "Windsor Row", "key": "Windsor Row", "kind": "trail" }, "geometry": { "type": "LineString", "coordinates": [ [ -123.23533, 49.25671 ], [ -123.23556, 49.25697 ], [ -123.23565, 49.25694 ] ] } },
{ "type": "Feature", "properties": { "name": "Wycliffe Road", "key": "Wycliffe Road", "kind": "street" }, "geometry": { "type": "MultiLineString", "coordinates": [ [ [ -123.24514, 49.27236 ], [ -123.24176, 49.27235 ] ], [ [ -123.22458, 49.26744 ], [ -123.22298, 49.26666 ], [ -123.22296, 49.26659 ] ] ] } },
{ "type": "Feature", "properties": { "name": "Yalta Place", "key": "Yalta Place", "kind": "street" }, "geometry": { "type": "LineString", "coordinates": [ [ -123.23697, 49.26425 ], [ -123.23665, 49.26436 ] ] } },
{ "type": "Feature", "properties": { "name": "Yalta Place", "key": "Yalta Place", "kind": "trail" }, "geometry": { "type": "LineString", "coordinates": [ [ -123.23899, 49.2639 ], [ -123.23883, 49.26398 ], [ -123.2383, 49.26409 ], [ -123.23808, 49.26427 ], [ -123.2373, 49.26448 ] ] } },
{ "type": "Feature", "properties": { "name": "wheelchair ramp", "key": "wheelchair ramp", "kind": "trail" }, "geometry": { "type": "LineString", "coordinates": [ [ -123.25122, 49.27026 ], [ -123.25126, 49.27041 ] ] } }
]
}
