{
"type": "FeatureCollection",
"name": "add_connectors",
"crs": { "type": "name", "properties": { "name": "urn:ogc:def:crs:OGC:1.3:CRS84" } },
"features": [
{ "type": "Feature", "properties": { "name": "Cleveland Trail crossing, W 16th Ave", "reason": "In OSM the north and south halves of Cleveland Trail stop 22 m apart at 16th Ave without joining", "from_node": 676620292, "to_node": 8669638574 }, "geometry": { "type": "LineString", "coordinates": [ [ -123.2220025, 49.258405 ], [ -123.2217007, 49.2584011 ] ] } },
{ "type": "Feature", "properties": { "name": "Sword Fern to Douglas Fir crossing, W 16th Ave", "reason": "We cross straight over 16th Ave here; OSM has no link, so routes detoured ~200 m", "from_node": 317124724, "to_node": 1151836110 }, "geometry": { "type": "LineString", "coordinates": [ [ -123.2311265, 49.2578539 ], [ -123.231158, 49.2573607 ] ] } }
]
}
