{
"type": "FeatureCollection",
"name": "remove_areas",
"crs": { "type": "name", "properties": { "name": "urn:ogc:def:crs:OGC:1.3:CRS84" } },
"features": [
{ "type": "Feature", "properties": { "name": "Water side of Marine Drive", "reason": "Beaches and foreshore (Foreshore Trail, Wreck Beach and Spanish Banks trails) are outside what we run; NW/SW Marine Drive is the edge", "made": "2026-09-26: study area split along NW + SW Marine Drive (road + 15 m kept); edit freely, e.g. at geojson.io" }, "geometry": { "type": "Polygon", "coordinates": [ [ [ -123.27168363142242, 49.264147958281008 ], [ -123.271386665134187, 49.268474121919098 ], [ -123.269072431110786, 49.272967133627738 ], [ -123.264678312560918, 49.27779820696464 ], [ -123.261726930462842, 49.280401875108488 ], [ -123.260585873427942, 49.281041984373331 ], [ -123.253996280816054, 49.28323773298137 ], [ -123.248652505795675, 49.284297660190838 ], [ -123.243197203683394, 49.284705881061257 ], [ -123.238792390539516, 49.284546643980939 ], [ -123.2367750569842, 49.284074955847238 ], [ -123.235186278825324, 49.283134840664601 ], [ -123.234424498552315, 49.282206047963591 ], [ -123.234136123414899, 49.281362705577507 ], [ -123.233402340679532, 49.281056644874369 ], [ -123.229739798841862, 49.281298849708691 ], [ -123.226256318036633, 49.280880977465522 ], [ -123.225065159444995, 49.280957045246701 ], [ -123.222836085685174, 49.280800952180364 ], [ -123.221301108200279, 49.280434546975805 ], [ -123.219636536505618, 49.279521404430227 ], [ -123.218817462245937, 49.278596444109247 ], [ -123.218519400013975, 49.277909463488996 ], [ -123.218473520147469, 49.276840906065864 ], [ -123.218586794565311, 49.276498250578982 ], [ -123.219115000877636, 49.276545654829725 ], [ -123.220021895686514, 49.276716589553921 ], [ -123.222993352060612, 49.277426266900022 ], [ -123.223585068068289, 49.277507048042985 ], [ -123.226260135809596, 49.277694169112685 ], [ -123.228586756361167, 49.278161134396051 ], [ -123.229313419787545, 49.278266415553425 ], [ -123.230353645434434, 49.278350631729609 ], [ -123.231095121831018, 49.278366914998799 ], [ -123.233402260568653, 49.278253190774358 ], [ -123.233751755600295, 49.278251381405781 ], [ -123.234229149239056, 49.278293856789446 ], [ -123.234890667701848, 49.27843059394668 ], [ -123.237397665953395, 49.279066842322742 ], [ -123.237837916293387, 49.279157882039776 ], [ -123.238821413475279, 49.279297306352625 ], [ -123.239783024660369, 49.279351646297577 ], [ -123.243034033524864, 49.27940707988401 ], [ -123.243386516961451, 49.279385261329644 ], [ -123.243783023816079, 49.279316585978293 ], [ -123.244225384869083, 49.279165807404347 ], [ -123.247071071766484, 49.277864585252942 ], [ -123.249317260743013, 49.276992815231907 ], [ -123.249673765490854, 49.276777222059209 ], [ -123.249994856139267, 49.276507059727344 ], [ -123.25069210708979, 49.275608231297873 ], [ -123.250984824701632, 49.275488771771109 ], [ -123.251565722118144, 49.275394196535878 ], [ -123.251885258749667, 49.275260302477093 ], [ -123.252099686136731, 49.275066769306967 ], [ -123.252360291113689, 49.274558003953487 ], [ -123.252487521826311, 49.274398381984099 ], [ -123.252693867970507, 49.274267679435887 ], [ -123.253476002645385, 49.273999470397229 ], [ -123.253773853640084, 49.273847902066699 ], [ -123.253994123155991, 49.273687532778631 ], [ -123.254272405140526, 49.273385529636123 ], [ -123.254422969527468, 49.273056346918288 ], [ -123.254439755011632, 49.272653135576142 ], [ -123.254235239771859, 49.271352795876936 ], [ -123.254406523767244, 49.271205546305865 ], [ -123.254467976125028, 49.271082565226422 ], [ -123.258257149428232, 49.269167778596021 ], [ -123.258874158323394, 49.268826069273082 ], [ -123.259456145429638, 49.268358843944142 ], [ -123.259728022231073, 49.268077374818439 ], [ -123.26002568391209, 49.267682546394369 ], [ -123.26020637675056, 49.267387425123395 ], [ -123.260459973861998, 49.266824680585046 ], [ -123.260607251944478, 49.265485440872368 ], [ -123.260913622123027, 49.264507535059188 ], [ -123.260846439638101, 49.26418220384712 ], [ -123.26067268941604, 49.263976147994065 ], [ -123.260470413671641, 49.263834211242312 ], [ -123.259175845834505, 49.26322760768381 ], [ -123.258845377045148, 49.263010150827576 ], [ -123.258714326166057, 49.262741587606733 ], [ -123.25885211694208, 49.262236367479275 ], [ -123.258822632498891, 49.261952294117215 ], [ -123.2585857072431, 49.261680105271836 ], [ -123.258117574961133, 49.261395814080608 ], [ -123.257964337443525, 49.261260040927404 ], [ -123.257707083391608, 49.260745000363933 ], [ -123.257441740534276, 49.260456259752807 ], [ -123.256996838027504, 49.260219178648242 ], [ -123.25577102348592, 49.259803084770283 ], [ -123.255420402478094, 49.259610303645729 ], [ -123.255174611684851, 49.259403311223231 ], [ -123.254913590711197, 49.259013727000358 ], [ -123.254317770925709, 49.257462569890009 ], [ -123.254106006511961, 49.25718177201427 ], [ -123.253726046321262, 49.256897433714173 ], [ -123.253437652799562, 49.256756059994615 ], [ -123.252634377215927, 49.256465683732749 ], [ -123.252210167358143, 49.256173816407674 ], [ -123.248765663476959, 49.25311616083372 ], [ -123.248303313258305, 49.252720469598636 ], [ -123.247561556391375, 49.252169938081593 ], [ -123.245839622875664, 49.251134267798697 ], [ -123.238829668291459, 49.247271688502671 ], [ -123.237596837185279, 49.246614599645156 ], [ -123.23523527888122, 49.245525282721403 ], [ -123.23132307621556, 49.243315485207326 ], [ -123.229696626427867, 49.242447226154169 ], [ -123.228965065558995, 49.242096662303602 ], [ -123.227388165074956, 49.241423797967578 ], [ -123.225817198742092, 49.240865775706325 ], [ -123.224669040624136, 49.240511568101816 ], [ -123.222744078708374, 49.24002441641624 ], [ -123.221652627000751, 49.239801275553027 ], [ -123.220237351057449, 49.239570496952915 ], [ -123.211935374158685, 49.238536143689643 ], [ -123.210327586898757, 49.238271994159398 ], [ -123.208743349382644, 49.237937651751274 ], [ -123.199852175727017, 49.235555828573453 ], [ -123.197138492940837, 49.23479941881385 ], [ -123.192719834751031, 49.23317468864856 ], [ -123.193222291057197, 49.232728433956289 ], [ -123.194052238057409, 49.232279673380631 ], [ -123.195506538274842, 49.231825521958136 ], [ -123.197099460288527, 49.231667139922891 ], [ -123.199202032466872, 49.231935744416731 ], [ -123.21104382156264, 49.23509525864538 ], [ -123.216482141665907, 49.235887026790849 ], [ -123.217773215618777, 49.23459484308863 ], [ -123.219083438714705, 49.233970708666213 ], [ -123.220087635620331, 49.233706307614831 ], [ -123.222233729569851, 49.233584640939306 ], [ -123.22486015102352, 49.234162123365735 ], [ -123.227008039415722, 49.235049827305495 ], [ -123.228811588978829, 49.236341860873672 ], [ -123.234618192729386, 49.238404319055817 ], [ -123.237785198856812, 49.23972196264971 ], [ -123.240098432542382, 49.241278443690206 ], [ -123.241714732162819, 49.242150606664829 ], [ -123.24648587540787, 49.244049093461179 ], [ -123.248351812876336, 49.244667888089573 ], [ -123.250114545746783, 49.245048529119202 ], [ -123.25166399481914, 49.245714378279416 ], [ -123.256460065048941, 49.248526316989086 ], [ -123.257241827643554, 49.249142765242652 ], [ -123.259353187501688, 49.251775650286739 ], [ -123.260106241814754, 49.253554928058641 ], [ -123.261366705690676, 49.25457121027123 ], [ -123.261897983820887, 49.253700513704231 ], [ -123.262913661936921, 49.252836844238097 ], [ -123.264277769358984, 49.252211861436976 ], [ -123.265319921580868, 49.251957201691418 ], [ -123.26643894773477, 49.251844408920796 ], [ -123.26802804143162, 49.251940881712507 ], [ -123.269034724480605, 49.252170490891146 ], [ -123.270371341065854, 49.252741328814949 ], [ -123.271401136808535, 49.253539444863456 ], [ -123.272151536868137, 49.254838796837539 ], [ -123.272302340810285, 49.255826450958118 ], [ -123.272104986420274, 49.256713557311549 ], [ -123.272645674020495, 49.258038203171303 ], [ -123.272586196648845, 49.26014066663253 ], [ -123.27168363142242, 49.264147958281008 ] ] ] } }
]
}
