{
"type": "FeatureCollection",
"name": "osm_amenities",
"crs": { "type": "name", "properties": { "name": "urn:ogc:def:crs:OGC:1.3:CRS84" } },
"features": [
{ "type": "Feature", "properties": { "osm_type": "node", "osm_id": 318550441, "amenity": "toilets", "fee": "no", "check_date": null, "opening_hours": null, "access": null, "female": null, "toilets:disposal": null, "wheelchair": null, "changing_table": null, "source": null, "unisex": null, "direction": null, "operator": null, "operator:type": null, "toilets:handwashing": null, "toilets:menstrual_products": null, "fountain": null, "addr:city": null, "addr:postcode": null, "addr:street": null, "name": null, "phone": null, "toilets:wheelchair": null, "website": null, "wheelchair:description": null, "toilets:position": null, "male": null, "description": null, "portable": null, "building": null, "building:levels": null, "operator:wikidata": null, "toilets:paper_supplied": null }, "geometry": { "type": "Point", "coordinates": [ -123.2225747, 49.2592078 ] } },
{ "type": "Feature", "properties": { "osm_type": "node", "osm_id": 724309061, "amenity": "toilets", "fee": null, "check_date": "2026-04-04", "opening_hours": "Mo-Su dawn-dusk", "access": null, "female": null, "toilets:disposal": null, "wheelchair": null, "changing_table": null, "source": null, "unisex": null, "direction": null, "operator": null, "operator:type": null, "toilets:handwashing": null, "toilets:menstrual_products": null, "fountain": null, "addr:city": null, "addr:postcode": null, "addr:street": null, "name": null, "phone": null, "toilets:wheelchair": null, "website": null, "wheelchair:description": null, "toilets:position": null, "male": null, "description": null, "portable": null, "building": null, "building:levels": null, "operator:wikidata": null, "toilets:paper_supplied": null }, "geometry": { "type": "Point", "coordinates": [ -123.191148, 49.249475 ] } },
{ "type": "Feature", "properties": { "osm_type": "node", "osm_id": 1231859210, "amenity": "toilets", "fee": null, "check_date": null, "opening_hours": null, "access": null, "female": null, "toilets:disposal": null, "wheelchair": null, "changing_table": null, "source": null, "unisex": null, "direction": null, "operator": null, "operator:type": null, "toilets:handwashing": null, "toilets:menstrual_products": null, "fountain": null, "addr:city": null, "addr:postcode": null, "addr:street": null, "name": null, "phone": null, "toilets:wheelchair": null, "website": null, "wheelchair:description": null, "toilets:position": null, "male": null, "description": null, "portable": null, "building": null, "building:levels": null, "operator:wikidata": null, "toilets:paper_supplied": null }, "geometry": { "type": "Point", "coordinates": [ -123.251136, 49.2540871 ] } },
{ "type": "Feature", "properties": { "osm_type": "node", "osm_id": 1231859211, "amenity": "toilets", "fee": null, "check_date": null, "opening_hours": null, "access": null, "female": null, "toilets:disposal": null, "wheelchair": null, "changing_table": null, "source": null, "unisex": null, "direction": null, "operator": null, "operator:type": null, "toilets:handwashing": null, "toilets:menstrual_products": null, "fountain": null, "addr:city": null, "addr:postcode": null, "addr:street": null, "name": null, "phone": null, "toilets:wheelchair": null, "website": null, "wheelchair:description": null, "toilets:position": null, "male": null, "description": null, "portable": null, "building": null, "building:levels": null, "operator:wikidata": null, "toilets:paper_supplied": null }, "geometry": { "type": "Point", "coordinates": [ -123.2471019, 49.2532511 ] } },
{ "type": "Feature", "properties": { "osm_type": "node", "osm_id": 1369634160, "amenity": "drinking_water", "fee": null, "check_date": null, "opening_hours": null, "access": null, "female": null, "toilets:disposal": null, "wheelchair": null, "changing_table": null, "source": null, "unisex": null, "direction": null, "operator": null, "operator:type": null, "toilets:handwashing": null, "toilets:menstrual_products": null, "fountain": null, "addr:city": null, "addr:postcode": null, "addr:street": null, "name": null, "phone": null, "toilets:wheelchair": null, "website": null, "wheelchair:description": null, "toilets:position": null, "male": null, "description": null, "portable": null, "building": null, "building:levels": null, "operator:wikidata": null, "toilets:paper_supplied": null }, "geometry": { "type": "Point", "coordinates": [ -123.2352962, 49.2543244 ] } },
{ "type": "Feature", "properties": { "osm_type": "node", "osm_id": 1692226729, "amenity": "toilets", "fee": "no", "check_date": null, "opening_hours": "Mo-Su dawn-dusk", "access": "yes", "female": "yes", "toilets:disposal": "flush", "wheelchair": "yes", "changing_table": null, "source": null, "unisex": null, "direction": null, "operator": null, "operator:type": null, "toilets:handwashing": null, "toilets:menstrual_products": null, "fountain": null, "addr:city": null, "addr:postcode": null, "addr:street": null, "name": null, "phone": null, "toilets:wheelchair": null, "website": null, "wheelchair:description": null, "toilets:position": null, "male": null, "description": null, "portable": null, "building": null, "building:levels": null, "operator:wikidata": null, "toilets:paper_supplied": null }, "geometry": { "type": "Point", "coordinates": [ -123.2225378, 49.2774966 ] } },
{ "type": "Feature", "properties": { "osm_type": "node", "osm_id": 2333683224, "amenity": "toilets", "fee": null, "check_date": null, "opening_hours": null, "access": "yes", "female": null, "toilets:disposal": "pitlatrine", "wheelchair": null, "changing_table": "no", "source": "survey", "unisex": "yes", "direction": null, "operator": null, "operator:type": null, "toilets:handwashing": null, "toilets:menstrual_products": null, "fountain": null, "addr:city": null, "addr:postcode": null, "addr:street": null, "name": null, "phone": null, "toilets:wheelchair": null, "website": null, "wheelchair:description": null, "toilets:position": null, "male": null, "description": null, "portable": null, "building": null, "building:levels": null, "operator:wikidata": null, "toilets:paper_supplied": null }, "geometry": { "type": "Point", "coordinates": [ -123.2000091, 49.254496 ] } },
{ "type": "Feature", "properties": { "osm_type": "node", "osm_id": 4059372409, "amenity": "toilets", "fee": null, "check_date": null, "opening_hours": null, "access": null, "female": null, "toilets:disposal": "pitlatrine", "wheelchair": null, "changing_table": null, "source": null, "unisex": null, "direction": null, "operator": null, "operator:type": null, "toilets:handwashing": null, "toilets:menstrual_products": null, "fountain": null, "addr:city": null, "addr:postcode": null, "addr:street": null, "name": null, "phone": null, "toilets:wheelchair": null, "website": null, "wheelchair:description": null, "toilets:position": null, "male": null, "description": null, "portable": null, "building": null, "building:levels": null, "operator:wikidata": null, "toilets:paper_supplied": null }, "geometry": { "type": "Point", "coordinates": [ -123.2049241, 49.249154 ] } },
{ "type": "Feature", "properties": { "osm_type": "node", "osm_id": 4059372414, "amenity": "toilets", "fee": "no", "check_date": null, "opening_hours": null, "access": "yes", "female": null, "toilets:disposal": "pitlatrine", "wheelchair": null, "changing_table": "no", "source": null, "unisex": "yes", "direction": "0", "operator": "Metro Vancouver", "operator:type": "government", "toilets:handwashing": "no", "toilets:menstrual_products": "no", "fountain": null, "addr:city": null, "addr:postcode": null, "addr:street": null, "name": null, "phone": null, "toilets:wheelchair": null, "website": null, "wheelchair:description": null, "toilets:position": null, "male": null, "description": null, "portable": null, "building": null, "building:levels": null, "operator:wikidata": null, "toilets:paper_supplied": null }, "geometry": { "type": "Point", "coordinates": [ -123.2282014, 49.2496411 ] } },
{ "type": "Feature", "properties": { "osm_type": "node", "osm_id": 4396779192, "amenity": "toilets", "fee": null, "check_date": null, "opening_hours": null, "access": null, "female": null, "toilets:disposal": null, "wheelchair": "no", "changing_table": "no", "source": null, "unisex": null, "direction": null, "operator": null, "operator:type": null, "toilets:handwashing": null, "toilets:menstrual_products": null, "fountain": null, "addr:city": null, "addr:postcode": null, "addr:street": null, "name": null, "phone": null, "toilets:wheelchair": null, "website": null, "wheelchair:description": null, "toilets:position": null, "male": null, "description": null, "portable": null, "building": null, "building:levels": null, "operator:wikidata": null, "toilets:paper_supplied": null }, "geometry": { "type": "Point", "coordinates": [ -123.2614914, 49.2625782 ] } },
{ "type": "Feature", "properties": { "osm_type": "node", "osm_id": 4396819289, "amenity": "toilets", "fee": "no", "check_date": null, "opening_hours": null, "access": "yes", "female": null, "toilets:disposal": "pitlatrine", "wheelchair": "no", "changing_table": "no", "source": null, "unisex": "yes", "direction": null, "operator": null, "operator:type": null, "toilets:handwashing": "no", "toilets:menstrual_products": null, "fountain": null, "addr:city": null, "addr:postcode": null, "addr:street": null, "name": null, "phone": null, "toilets:wheelchair": null, "website": null, "wheelchair:description": null, "toilets:position": null, "male": null, "description": null, "portable": null, "building": null, "building:levels": null, "operator:wikidata": null, "toilets:paper_supplied": null }, "geometry": { "type": "Point", "coordinates": [ -123.2589886, 49.2632265 ] } },
{ "type": "Feature", "properties": { "osm_type": "node", "osm_id": 5008456428, "amenity": "drinking_water", "fee": null, "check_date": null, "opening_hours": null, "access": null, "female": null, "toilets:disposal": null, "wheelchair": null, "changing_table": null, "source": null, "unisex": null, "direction": null, "operator": null, "operator:type": null, "toilets:handwashing": null, "toilets:menstrual_products": null, "fountain": "bubbler", "addr:city": null, "addr:postcode": null, "addr:street": null, "name": null, "phone": null, "toilets:wheelchair": null, "website": null, "wheelchair:description": null, "toilets:position": null, "male": null, "description": null, "portable": null, "building": null, "building:levels": null, "operator:wikidata": null, "toilets:paper_supplied": null }, "geometry": { "type": "Point", "coordinates": [ -123.2262139, 49.277835 ] } },
{ "type": "Feature", "properties": { "osm_type": "node", "osm_id": 5608189222, "amenity": "toilets", "fee": null, "check_date": "2026-09-26", "opening_hours": null, "access": null, "female": null, "toilets:disposal": null, "wheelchair": "yes", "changing_table": null, "source": null, "unisex": null, "direction": null, "operator": null, "operator:type": null, "toilets:handwashing": null, "toilets:menstrual_products": null, "fountain": null, "addr:city": "Vancouver, BC, Canada", "addr:postcode": "V6T 1Z2", "addr:street": "6393 NW Marine Drive", "name": "MOA handicap toilets", "phone": "+1-604-822-5087", "toilets:wheelchair": "yes", "website": "https://moa.ubc.ca", "wheelchair:description": "Manual door. Toilets are opposite gift shop", "toilets:position": null, "male": null, "description": null, "portable": null, "building": null, "building:levels": null, "operator:wikidata": null, "toilets:paper_supplied": null }, "geometry": { "type": "Point", "coordinates": [ -123.2594723, 49.2692292 ] } },
{ "type": "Feature", "properties": { "osm_type": "node", "osm_id": 6177060490, "amenity": "drinking_water", "fee": null, "check_date": null, "opening_hours": null, "access": null, "female": null, "toilets:disposal": null, "wheelchair": null, "changing_table": null, "source": null, "unisex": null, "direction": null, "operator": null, "operator:type": null, "toilets:handwashing": null, "toilets:menstrual_products": null, "fountain": null, "addr:city": null, "addr:postcode": null, "addr:street": null, "name": null, "phone": null, "toilets:wheelchair": null, "website": null, "wheelchair:description": null, "toilets:position": null, "male": null, "description": null, "portable": null, "building": null, "building:levels": null, "operator:wikidata": null, "toilets:paper_supplied": null }, "geometry": { "type": "Point", "coordinates": [ -123.2225255, 49.2591402 ] } },
{ "type": "Feature", "properties": { "osm_type": "node", "osm_id": 6566491652, "amenity": "toilets", "fee": "no", "check_date": null, "opening_hours": null, "access": "yes", "female": null, "toilets:disposal": "pitlatrine", "wheelchair": null, "changing_table": "no", "source": null, "unisex": "yes", "direction": "270", "operator": "Metro Vancouver", "operator:type": "government", "toilets:handwashing": "no", "toilets:menstrual_products": "no", "fountain": null, "addr:city": null, "addr:postcode": null, "addr:street": null, "name": null, "phone": null, "toilets:wheelchair": null, "website": null, "wheelchair:description": null, "toilets:position": "seated", "male": null, "description": null, "portable": null, "building": null, "building:levels": null, "operator:wikidata": null, "toilets:paper_supplied": null }, "geometry": { "type": "Point", "coordinates": [ -123.2094445, 49.2578269 ] } },
{ "type": "Feature", "properties": { "osm_type": "node", "osm_id": 8576181728, "amenity": "toilets", "fee": null, "check_date": null, "opening_hours": null, "access": "yes", "female": "yes", "toilets:disposal": null, "wheelchair": null, "changing_table": null, "source": null, "unisex": null, "direction": null, "operator": null, "operator:type": null, "toilets:handwashing": null, "toilets:menstrual_products": null, "fountain": null, "addr:city": null, "addr:postcode": null, "addr:street": null, "name": null, "phone": null, "toilets:wheelchair": null, "website": null, "wheelchair:description": null, "toilets:position": null, "male": "yes", "description": null, "portable": null, "building": null, "building:levels": null, "operator:wikidata": null, "toilets:paper_supplied": null }, "geometry": { "type": "Point", "coordinates": [ -123.2508771, 49.2527225 ] } },
{ "type": "Feature", "properties": { "osm_type": "node", "osm_id": 8616229406, "amenity": "toilets", "fee": "no", "check_date": null, "opening_hours": null, "access": "yes", "female": null, "toilets:disposal": "pitlatrine", "wheelchair": "no", "changing_table": "no", "source": null, "unisex": "yes", "direction": null, "operator": null, "operator:type": null, "toilets:handwashing": "no", "toilets:menstrual_products": null, "fountain": null, "addr:city": null, "addr:postcode": null, "addr:street": null, "name": null, "phone": null, "toilets:wheelchair": null, "website": null, "wheelchair:description": null, "toilets:position": null, "male": null, "description": null, "portable": null, "building": null, "building:levels": null, "operator:wikidata": null, "toilets:paper_supplied": null }, "geometry": { "type": "Point", "coordinates": [ -123.2589847, 49.263234 ] } },
{ "type": "Feature", "properties": { "osm_type": "node", "osm_id": 8618339172, "amenity": "toilets", "fee": "no", "check_date": null, "opening_hours": null, "access": "yes", "female": null, "toilets:disposal": "pitlatrine", "wheelchair": "no", "changing_table": "no", "source": null, "unisex": null, "direction": null, "operator": null, "operator:type": null, "toilets:handwashing": "no", "toilets:menstrual_products": null, "fountain": null, "addr:city": null, "addr:postcode": null, "addr:street": null, "name": null, "phone": null, "toilets:wheelchair": null, "website": null, "wheelchair:description": null, "toilets:position": null, "male": null, "description": null, "portable": null, "building": null, "building:levels": null, "operator:wikidata": null, "toilets:paper_supplied": null }, "geometry": { "type": "Point", "coordinates": [ -123.2544022, 49.2715196 ] } },
{ "type": "Feature", "properties": { "osm_type": "node", "osm_id": 8618553636, "amenity": "toilets", "fee": "no", "check_date": null, "opening_hours": null, "access": "yes", "female": null, "toilets:disposal": "pitlatrine", "wheelchair": null, "changing_table": "no", "source": null, "unisex": null, "direction": null, "operator": null, "operator:type": null, "toilets:handwashing": "no", "toilets:menstrual_products": null, "fountain": null, "addr:city": null, "addr:postcode": null, "addr:street": null, "name": null, "phone": null, "toilets:wheelchair": null, "website": null, "wheelchair:description": null, "toilets:position": null, "male": null, "description": null, "portable": null, "building": null, "building:levels": null, "operator:wikidata": null, "toilets:paper_supplied": null }, "geometry": { "type": "Point", "coordinates": [ -123.2611567, 49.2687423 ] } },
{ "type": "Feature", "properties": { "osm_type": "node", "osm_id": 8828800666, "amenity": "toilets", "fee": "no", "check_date": null, "opening_hours": null, "access": null, "female": null, "toilets:disposal": "pitlatrine", "wheelchair": null, "changing_table": null, "source": null, "unisex": null, "direction": null, "operator": null, "operator:type": null, "toilets:handwashing": null, "toilets:menstrual_products": null, "fountain": null, "addr:city": null, "addr:postcode": null, "addr:street": null, "name": null, "phone": null, "toilets:wheelchair": null, "website": null, "wheelchair:description": null, "toilets:position": null, "male": null, "description": null, "portable": null, "building": null, "building:levels": null, "operator:wikidata": null, "toilets:paper_supplied": null }, "geometry": { "type": "Point", "coordinates": [ -123.2595591, 49.2633523 ] } },
{ "type": "Feature", "properties": { "osm_type": "node", "osm_id": 10038092515, "amenity": "drinking_water", "fee": null, "check_date": null, "opening_hours": null, "access": null, "female": null, "toilets:disposal": null, "wheelchair": null, "changing_table": null, "source": null, "unisex": null, "direction": null, "operator": null, "operator:type": null, "toilets:handwashing": null, "toilets:menstrual_products": null, "fountain": "bottle_refill", "addr:city": null, "addr:postcode": null, "addr:street": null, "name": null, "phone": null, "toilets:wheelchair": null, "website": null, "wheelchair:description": null, "toilets:position": null, "male": null, "description": null, "portable": null, "building": null, "building:levels": null, "operator:wikidata": null, "toilets:paper_supplied": null }, "geometry": { "type": "Point", "coordinates": [ -123.2224548, 49.2774866 ] } },
{ "type": "Feature", "properties": { "osm_type": "node", "osm_id": 10038423524, "amenity": "toilets", "fee": "no", "check_date": null, "opening_hours": "Mo-Su dawn-dusk", "access": "yes", "female": null, "toilets:disposal": "flush", "wheelchair": "no", "changing_table": null, "source": null, "unisex": null, "direction": null, "operator": null, "operator:type": null, "toilets:handwashing": null, "toilets:menstrual_products": null, "fountain": null, "addr:city": null, "addr:postcode": null, "addr:street": null, "name": null, "phone": null, "toilets:wheelchair": null, "website": null, "wheelchair:description": null, "toilets:position": null, "male": "yes", "description": null, "portable": null, "building": null, "building:levels": null, "operator:wikidata": null, "toilets:paper_supplied": null }, "geometry": { "type": "Point", "coordinates": [ -123.2223754, 49.2774533 ] } },
{ "type": "Feature", "properties": { "osm_type": "node", "osm_id": 11880019785, "amenity": "toilets", "fee": null, "check_date": null, "opening_hours": null, "access": null, "female": null, "toilets:disposal": null, "wheelchair": null, "changing_table": null, "source": null, "unisex": null, "direction": null, "operator": null, "operator:type": null, "toilets:handwashing": null, "toilets:menstrual_products": null, "fountain": null, "addr:city": null, "addr:postcode": null, "addr:street": null, "name": null, "phone": null, "toilets:wheelchair": null, "website": null, "wheelchair:description": null, "toilets:position": null, "male": null, "description": null, "portable": null, "building": null, "building:levels": null, "operator:wikidata": null, "toilets:paper_supplied": null }, "geometry": { "type": "Point", "coordinates": [ -123.2470892, 49.2533186 ] } },
{ "type": "Feature", "properties": { "osm_type": "node", "osm_id": 12926627884, "amenity": "toilets", "fee": null, "check_date": null, "opening_hours": null, "access": null, "female": null, "toilets:disposal": null, "wheelchair": null, "changing_table": null, "source": null, "unisex": null, "direction": null, "operator": null, "operator:type": null, "toilets:handwashing": null, "toilets:menstrual_products": null, "fountain": null, "addr:city": null, "addr:postcode": null, "addr:street": null, "name": null, "phone": null, "toilets:wheelchair": null, "website": null, "wheelchair:description": null, "toilets:position": null, "male": null, "description": null, "portable": "yes", "building": null, "building:levels": null, "operator:wikidata": null, "toilets:paper_supplied": null }, "geometry": { "type": "Point", "coordinates": [ -123.2203445, 49.2476375 ] } },
{ "type": "Feature", "properties": { "osm_type": "way", "osm_id": 682360083, "amenity": "toilets", "fee": "no", "check_date": null, "opening_hours": null, "access": "yes", "female": null, "toilets:disposal": "pitlatrine", "wheelchair": null, "changing_table": "no", "source": null, "unisex": "yes", "direction": null, "operator": "Metro Vancouver", "operator:type": "government", "toilets:handwashing": "no", "toilets:menstrual_products": "no", "fountain": null, "addr:city": null, "addr:postcode": null, "addr:street": null, "name": null, "phone": null, "toilets:wheelchair": null, "website": null, "wheelchair:description": null, "toilets:position": "seated", "male": null, "description": null, "portable": "no", "building": "toilets", "building:levels": "1", "operator:wikidata": "Q1061069", "toilets:paper_supplied": "yes" }, "geometry": { "type": "Point", "coordinates": [ -123.2424433, 49.2795382 ] } },
{ "type": "Feature", "properties": { "osm_type": "way", "osm_id": 1099471278, "amenity": "toilets", "fee": null, "check_date": null, "opening_hours": null, "access": "yes", "female": null, "toilets:disposal": "flush", "wheelchair": "yes", "changing_table": "yes", "source": null, "unisex": "yes", "direction": null, "operator": null, "operator:type": null, "toilets:handwashing": null, "toilets:menstrual_products": null, "fountain": null, "addr:city": null, "addr:postcode": null, "addr:street": null, "name": null, "phone": null, "toilets:wheelchair": null, "website": null, "wheelchair:description": null, "toilets:position": null, "male": null, "description": "Public toilet closed at night time till dawn", "portable": null, "building": "yes", "building:levels": null, "operator:wikidata": null, "toilets:paper_supplied": null }, "geometry": { "type": "Point", "coordinates": [ -123.2000133, 49.257876 ] } },
{ "type": "Feature", "properties": { "osm_type": "way", "osm_id": 1493747684, "amenity": "toilets", "fee": "no", "check_date": null, "opening_hours": null, "access": "yes", "female": null, "toilets:disposal": "pitlatrine", "wheelchair": null, "changing_table": "no", "source": null, "unisex": "yes", "direction": null, "operator": "Metro Vancouver", "operator:type": "government", "toilets:handwashing": "no", "toilets:menstrual_products": "no", "fountain": null, "addr:city": null, "addr:postcode": null, "addr:street": null, "name": null, "phone": null, "toilets:wheelchair": null, "website": null, "wheelchair:description": null, "toilets:position": null, "male": null, "description": null, "portable": null, "building": "yes", "building:levels": "1", "operator:wikidata": null, "toilets:paper_supplied": null }, "geometry": { "type": "Point", "coordinates": [ -123.2034759, 49.2371381 ] } },
{ "type": "Feature", "properties": { "osm_type": "way", "osm_id": 1493747691, "amenity": "toilets", "fee": "no", "check_date": null, "opening_hours": null, "access": "yes", "female": null, "toilets:disposal": "pitlatrine", "wheelchair": null, "changing_table": "no", "source": null, "unisex": "yes", "direction": null, "operator": "Metro Vancouver", "operator:type": "government", "toilets:handwashing": "no", "toilets:menstrual_products": "no", "fountain": null, "addr:city": null, "addr:postcode": null, "addr:street": null, "name": null, "phone": null, "toilets:wheelchair": null, "website": null, "wheelchair:description": null, "toilets:position": null, "male": null, "description": null, "portable": null, "building": "yes", "building:levels": "1", "operator:wikidata": null, "toilets:paper_supplied": null }, "geometry": { "type": "Point", "coordinates": [ -123.1986691, 49.2426842 ] } },
{ "type": "Feature", "properties": { "osm_type": "way", "osm_id": 1549010452, "amenity": "toilets", "fee": "no", "check_date": null, "opening_hours": null, "access": "yes", "female": null, "toilets:disposal": "pitlatrine", "wheelchair": "no", "changing_table": "no", "source": null, "unisex": "yes", "direction": null, "operator": "Metro Vancouver", "operator:type": "government", "toilets:handwashing": "no", "toilets:menstrual_products": "no", "fountain": null, "addr:city": null, "addr:postcode": null, "addr:street": null, "name": null, "phone": null, "toilets:wheelchair": null, "website": null, "wheelchair:description": null, "toilets:position": "seated", "male": null, "description": null, "portable": "no", "building": "toilets", "building:levels": "1", "operator:wikidata": "Q1061069", "toilets:paper_supplied": "yes" }, "geometry": { "type": "Point", "coordinates": [ -123.2292656, 49.2710345 ] } },
{ "type": "Feature", "properties": { "osm_type": "way", "osm_id": 1549010480, "amenity": "toilets", "fee": "no", "check_date": null, "opening_hours": null, "access": "yes", "female": null, "toilets:disposal": "pitlatrine", "wheelchair": null, "changing_table": "no", "source": null, "unisex": "yes", "direction": null, "operator": "Metro Vancouver", "operator:type": "government", "toilets:handwashing": "no", "toilets:menstrual_products": "no", "fountain": null, "addr:city": null, "addr:postcode": null, "addr:street": null, "name": null, "phone": null, "toilets:wheelchair": null, "website": null, "wheelchair:description": null, "toilets:position": "seated", "male": null, "description": null, "portable": "no", "building": "toilets", "building:levels": "1", "operator:wikidata": "Q1061069", "toilets:paper_supplied": "yes" }, "geometry": { "type": "Point", "coordinates": [ -123.2424046, 49.2795372 ] } }
]
}
