{
"type": "FeatureCollection",
"name": "park_boundary_osm",
"crs": { "type": "name", "properties": { "name": "urn:ogc:def:crs:OGC:1.3:CRS84" } },
"features": [
{ "type": "Feature", "properties": { "bbox_west": -123.2654851, "bbox_south": 49.235149, "bbox_east": -123.1937129, "bbox_north": 49.2797884, "place_id": 377471283, "osm_type": "relation", "osm_id": 11683817, "lat": 49.2574846, "lon": -123.2173026, "class": "leisure", "type": "park", "place_rank": 24, "importance": 0.44105200506043646, "addresstype": "park", "name": "Pacific Spirit Regional Park", "display_name": "Pacific Spirit Regional Park, Dunbar-Southlands, Electoral Area A, Metro Vancouver Regional District, British Columbia, Canada" }, "geometry": { "type": "Polygon", "coordinates": [ [ [ -123.2654851, 49.2649296 ], [ -123.2623618, 49.2633384 ], [ -123.2630353, 49.259514 ], [ -123.2615181, 49.2603226 ], [ -123.2606684, 49.2608435 ], [ -123.260782, 49.2610264 ], [ -123.2609833, 49.2613497 ], [ -123.2612205, 49.2617297 ], [ -123.2609596, 49.2617288 ], [ -123.258456, 49.259328 ], [ -123.2556536, 49.256413 ], [ -123.2538138, 49.2544984 ], [ -123.2523759, 49.2512467 ], [ -123.2473518, 49.2484896 ], [ -123.2423447, 49.2470777 ], [ -123.2345484, 49.2430324 ], [ -123.233494, 49.2424323 ], [ -123.22946, 49.2412406 ], [ -123.2259664, 49.2400878 ], [ -123.2239741, 49.2391631 ], [ -123.2234642, 49.238602 ], [ -123.221136, 49.2376627 ], [ -123.2199225, 49.2395812 ], [ -123.2175414, 49.2390496 ], [ -123.2145371, 49.2374081 ], [ -123.2086622, 49.2353642 ], [ -123.2077336, 49.2360578 ], [ -123.2066436, 49.236625 ], [ -123.2057344, 49.2372447 ], [ -123.205477, 49.2374201 ], [ -123.2052982, 49.23737 ], [ -123.1998057, 49.2359244 ], [ -123.1970724, 49.235149 ], [ -123.1971746, 49.2365802 ], [ -123.1985268, 49.236499 ], [ -123.1984848, 49.238532 ], [ -123.1968874, 49.2386427 ], [ -123.1968984, 49.2429374 ], [ -123.1969076, 49.2461837 ], [ -123.1989295, 49.246242 ], [ -123.2045751, 49.2491036 ], [ -123.2045694, 49.2493454 ], [ -123.2000148, 49.2501537 ], [ -123.1988706, 49.2501397 ], [ -123.19779, 49.2499639 ], [ -123.1966845, 49.2499857 ], [ -123.1966479, 49.2493255 ], [ -123.1937317, 49.2493028 ], [ -123.1937317, 49.25006 ], [ -123.1937306, 49.2501259 ], [ -123.1937129, 49.2533061 ], [ -123.195921, 49.2533063 ], [ -123.1960495, 49.2533445 ], [ -123.1960498, 49.2542677 ], [ -123.19605, 49.2551547 ], [ -123.1965115, 49.2551553 ], [ -123.1965196, 49.2566278 ], [ -123.1966699, 49.2566293 ], [ -123.2030353, 49.2566353 ], [ -123.2035337, 49.2580168 ], [ -123.2155924, 49.2582302 ], [ -123.2154177, 49.2623402 ], [ -123.2155029, 49.2623346 ], [ -123.215665, 49.2623238 ], [ -123.2158495, 49.2623116 ], [ -123.2172047, 49.262222 ], [ -123.2191235, 49.2624942 ], [ -123.2191336, 49.262073 ], [ -123.2191195, 49.2616419 ], [ -123.2199383, 49.2615232 ], [ -123.2215288, 49.2618843 ], [ -123.2240438, 49.2618204 ], [ -123.227039, 49.2621239 ], [ -123.2294308, 49.2633501 ], [ -123.2302093, 49.2626917 ], [ -123.2305978, 49.2625911 ], [ -123.2300361, 49.2618331 ], [ -123.2337056, 49.2607236 ], [ -123.233216, 49.2599923 ], [ -123.2332764, 49.2598878 ], [ -123.233009, 49.2595689 ], [ -123.2327272, 49.2592327 ], [ -123.2323085, 49.2587332 ], [ -123.2322342, 49.2586446 ], [ -123.2320139, 49.2583817 ], [ -123.2314194, 49.2576674 ], [ -123.2312091, 49.2574209 ], [ -123.231158, 49.2573607 ], [ -123.2316561, 49.2572695 ], [ -123.2311344, 49.256289 ], [ -123.230399, 49.2544024 ], [ -123.2301212, 49.2535078 ], [ -123.2300513, 49.2532661 ], [ -123.229989, 49.2531043 ], [ -123.2297189, 49.2521679 ], [ -123.2289854, 49.2497325 ], [ -123.228646, 49.2490203 ], [ -123.2285438, 49.2488057 ], [ -123.2283066, 49.2485539 ], [ -123.2280813, 49.2483737 ], [ -123.22813, 49.2480648 ], [ -123.2276275, 49.2466434 ], [ -123.2274143, 49.2464766 ], [ -123.2275438, 49.2462881 ], [ -123.2279578, 49.2462759 ], [ -123.2276562, 49.2449324 ], [ -123.227546, 49.2431313 ], [ -123.2279601, 49.2432285 ], [ -123.2284625, 49.2431617 ], [ -123.2288208, 49.2432497 ], [ -123.2292813, 49.2435565 ], [ -123.2293184, 49.2436043 ], [ -123.2299979, 49.2444799 ], [ -123.2312029, 49.2442338 ], [ -123.23171, 49.2444404 ], [ -123.2330453, 49.2452027 ], [ -123.2335144, 49.245275 ], [ -123.2355975, 49.2463255 ], [ -123.2367309, 49.2468971 ], [ -123.2386602, 49.24787 ], [ -123.2388173, 49.2477407 ], [ -123.2390921, 49.2475151 ], [ -123.2391482, 49.2474683 ], [ -123.2414903, 49.2481798 ], [ -123.243269, 49.2486139 ], [ -123.2442896, 49.2490375 ], [ -123.2446396, 49.2492004 ], [ -123.2457497, 49.2497173 ], [ -123.2469347, 49.250193 ], [ -123.2471421, 49.2502763 ], [ -123.2480775, 49.2506768 ], [ -123.2483809, 49.2509149 ], [ -123.2493082, 49.2516427 ], [ -123.2495764, 49.2518689 ], [ -123.2519434, 49.2540817 ], [ -123.2522383, 49.2555582 ], [ -123.2524851, 49.2564314 ], [ -123.2528713, 49.2566343 ], [ -123.2535245, 49.2568847 ], [ -123.2538477, 49.2570825 ], [ -123.2539979, 49.2572427 ], [ -123.2540977, 49.2573233 ], [ -123.2541285, 49.257385 ], [ -123.2542122, 49.2575483 ], [ -123.2547744, 49.2590081 ], [ -123.2547704, 49.2590364 ], [ -123.2548067, 49.2591137 ], [ -123.2548706, 49.2592216 ], [ -123.2549455, 49.2593254 ], [ -123.2550097, 49.259402 ], [ -123.255084, 49.2594808 ], [ -123.2551633, 49.2595502 ], [ -123.2552225, 49.2596006 ], [ -123.2553044, 49.2596626 ], [ -123.2553735, 49.2597111 ], [ -123.2554618, 49.259764 ], [ -123.2555817, 49.2598311 ], [ -123.2557031, 49.2598841 ], [ -123.2558325, 49.2599431 ], [ -123.2560259, 49.2600117 ], [ -123.2569293, 49.2603032 ], [ -123.2570376, 49.2603472 ], [ -123.2571512, 49.2604034 ], [ -123.2572287, 49.2604448 ], [ -123.2572981, 49.2604904 ], [ -123.2573739, 49.2605499 ], [ -123.2574509, 49.2606201 ], [ -123.2575133, 49.260686 ], [ -123.2575629, 49.2607503 ], [ -123.2576065, 49.260823 ], [ -123.2576474, 49.2608986 ], [ -123.2576715, 49.2609479 ], [ -123.257744, 49.2611164 ], [ -123.2577897, 49.2612196 ], [ -123.2578348, 49.2612923 ], [ -123.2578892, 49.2613581 ], [ -123.2579599, 49.2614238 ], [ -123.2580276, 49.2614713 ], [ -123.258119, 49.2615292 ], [ -123.2582317, 49.2615925 ], [ -123.2584132, 49.2616996 ], [ -123.2584742, 49.2617397 ], [ -123.2585323, 49.2617831 ], [ -123.258597, 49.2618408 ], [ -123.2586384, 49.2618882 ], [ -123.2586674, 49.2619287 ], [ -123.2586943, 49.2619767 ], [ -123.2587176, 49.2620387 ], [ -123.2587304, 49.262093 ], [ -123.2587335, 49.2621511 ], [ -123.2587277, 49.2622119 ], [ -123.2587101, 49.2622774 ], [ -123.2586669, 49.2623958 ], [ -123.2586074, 49.2625555 ], [ -123.258591, 49.2626167 ], [ -123.2585823, 49.2626639 ], [ -123.2585797, 49.2627279 ], [ -123.2585872, 49.2627999 ], [ -123.2586096, 49.2628745 ], [ -123.2586318, 49.262923 ], [ -123.2586624, 49.2629767 ], [ -123.2587036, 49.2630323 ], [ -123.2588059, 49.2631284 ], [ -123.2588518, 49.2631659 ], [ -123.2589093, 49.2632066 ], [ -123.2589775, 49.2632449 ], [ -123.2592471, 49.2633786 ], [ -123.2594317, 49.2634637 ], [ -123.2597419, 49.2636071 ], [ -123.2603674, 49.2638999 ], [ -123.2604568, 49.2639502 ], [ -123.2605455, 49.264016 ], [ -123.2606274, 49.264085 ], [ -123.2606652, 49.2641305 ], [ -123.2607136, 49.2641969 ], [ -123.2607396, 49.2642468 ], [ -123.2607739, 49.2643364 ], [ -123.2607839, 49.2643908 ], [ -123.2607845, 49.2644897 ], [ -123.2607798, 49.2645614 ], [ -123.2607614, 49.2646304 ], [ -123.2606967, 49.2648217 ], [ -123.2605803, 49.2651358 ], [ -123.2604973, 49.2653819 ], [ -123.260481, 49.2654646 ], [ -123.26047, 49.2655377 ], [ -123.2604595, 49.265626 ], [ -123.2603995, 49.2664936 ], [ -123.2603415, 49.2667352 ], [ -123.2603278, 49.2667864 ], [ -123.2604051, 49.2667934 ], [ -123.2622125, 49.2673676 ], [ -123.2614319, 49.2691393 ], [ -123.2609866, 49.2694921 ], [ -123.2606135, 49.2703273 ], [ -123.2588339, 49.2710988 ], [ -123.2590804, 49.2712749 ], [ -123.2582894, 49.2716531 ], [ -123.2576831, 49.2718993 ], [ -123.2568231, 49.2720085 ], [ -123.2565419, 49.2720328 ], [ -123.2557333, 49.2717231 ], [ -123.2546561, 49.2709052 ], [ -123.2542018, 49.2714064 ], [ -123.2542817, 49.2723412 ], [ -123.2542567, 49.2733099 ], [ -123.2539305, 49.273879 ], [ -123.2526487, 49.2742601 ], [ -123.2518252, 49.2752889 ], [ -123.2505428, 49.2756183 ], [ -123.2493179, 49.2769214 ], [ -123.2491635, 49.2775629 ], [ -123.2484645, 49.2778847 ], [ -123.2477425, 49.2785067 ], [ -123.2466728, 49.2786756 ], [ -123.2451735, 49.279081 ], [ -123.2446859, 49.2787127 ], [ -123.2444476, 49.2777309 ], [ -123.2444944, 49.277377 ], [ -123.2442944, 49.2769621 ], [ -123.2432994, 49.2765628 ], [ -123.2421538, 49.2757185 ], [ -123.2413246, 49.2746437 ], [ -123.238992, 49.2746013 ], [ -123.2383081, 49.2745895 ], [ -123.2385826, 49.2748485 ], [ -123.2384022, 49.2750578 ], [ -123.2379875, 49.2751957 ], [ -123.2375387, 49.2752576 ], [ -123.2371655, 49.2752286 ], [ -123.2367657, 49.2751191 ], [ -123.2364635, 49.2749117 ], [ -123.2361207, 49.274327 ], [ -123.2369581, 49.2727711 ], [ -123.2411932, 49.2732621 ], [ -123.2407308, 49.2724239 ], [ -123.2406793, 49.2719289 ], [ -123.2404464, 49.271529 ], [ -123.2404831, 49.2712731 ], [ -123.2399572, 49.2699818 ], [ -123.2396639, 49.2693799 ], [ -123.2382676, 49.2677235 ], [ -123.2377385, 49.2669965 ], [ -123.2380143, 49.2668339 ], [ -123.2363906, 49.2663884 ], [ -123.2361399, 49.2666333 ], [ -123.2357322, 49.2670316 ], [ -123.2355315, 49.2670087 ], [ -123.2344014, 49.2661357 ], [ -123.235183, 49.265621 ], [ -123.2347575, 49.2654043 ], [ -123.2334226, 49.2645701 ], [ -123.2324222, 49.264073 ], [ -123.2315075, 49.2638419 ], [ -123.2307346, 49.2637387 ], [ -123.2303113, 49.2637645 ], [ -123.2304671, 49.2638956 ], [ -123.2322386, 49.2650318 ], [ -123.2335978, 49.2662363 ], [ -123.234834, 49.2672524 ], [ -123.235283, 49.2679782 ], [ -123.2353659, 49.2681905 ], [ -123.2352785, 49.268404 ], [ -123.2350906, 49.2686929 ], [ -123.2348612, 49.2688815 ], [ -123.2328046, 49.2681304 ], [ -123.2316969, 49.2678399 ], [ -123.2308927, 49.2675219 ], [ -123.2276499, 49.2662674 ], [ -123.2269879, 49.2666006 ], [ -123.2261358, 49.2668005 ], [ -123.2253199, 49.2671077 ], [ -123.2246648, 49.2674763 ], [ -123.2242402, 49.2678125 ], [ -123.2239776, 49.2680084 ], [ -123.22395, 49.2680286 ], [ -123.2236586, 49.2682466 ], [ -123.2233762, 49.2682546 ], [ -123.2225266, 49.2677392 ], [ -123.2216529, 49.2674288 ], [ -123.2214604, 49.2672832 ], [ -123.2212068, 49.2671232 ], [ -123.2204989, 49.2667515 ], [ -123.2197884, 49.266393 ], [ -123.219713, 49.2664157 ], [ -123.2196887, 49.2668082 ], [ -123.2196711, 49.2672945 ], [ -123.2196706, 49.2673237 ], [ -123.2196151, 49.2688379 ], [ -123.2197677, 49.2691182 ], [ -123.2216902, 49.2689192 ], [ -123.2217545, 49.2690108 ], [ -123.2225605, 49.2711564 ], [ -123.2244792, 49.2724086 ], [ -123.2252076, 49.2744606 ], [ -123.2240591, 49.2773763 ], [ -123.2250186, 49.277389 ], [ -123.2258502, 49.2774351 ], [ -123.2266191, 49.2775323 ], [ -123.2283177, 49.2778983 ], [ -123.2294112, 49.2780749 ], [ -123.2297976, 49.2781064 ], [ -123.2303222, 49.2781491 ], [ -123.2316756, 49.2781433 ], [ -123.2329338, 49.2780535 ], [ -123.2336458, 49.2780372 ], [ -123.2338582, 49.2780323 ], [ -123.2345764, 49.2781252 ], [ -123.235666, 49.2784087 ], [ -123.2357401, 49.278428 ], [ -123.2369819, 49.2787539 ], [ -123.2371931, 49.2788094 ], [ -123.2381755, 49.2789961 ], [ -123.2392253, 49.2791094 ], [ -123.2402819, 49.2791907 ], [ -123.2403069, 49.2792873 ], [ -123.240452, 49.2794978 ], [ -123.2405145, 49.2794987 ], [ -123.240622, 49.2796472 ], [ -123.2420821, 49.2797651 ], [ -123.2423712, 49.2797884 ], [ -123.2445297, 49.2796896 ], [ -123.2449246, 49.279612 ], [ -123.2449126, 49.2795631 ], [ -123.2459436, 49.2794903 ], [ -123.2493935, 49.2783238 ], [ -123.2508116, 49.2773321 ], [ -123.2512911, 49.2769648 ], [ -123.251722, 49.2767122 ], [ -123.2520965, 49.2763674 ], [ -123.2523734, 49.2760718 ], [ -123.2526468, 49.2757604 ], [ -123.2536486, 49.2753514 ], [ -123.2549488, 49.2748209 ], [ -123.2552637, 49.2746764 ], [ -123.2556446, 49.2745354 ], [ -123.256287, 49.2742541 ], [ -123.2567601, 49.2739709 ], [ -123.25712, 49.2736145 ], [ -123.2578167, 49.2729457 ], [ -123.2590351, 49.2723213 ], [ -123.2602376, 49.2716845 ], [ -123.2606327, 49.2716488 ], [ -123.2609581, 49.2714449 ], [ -123.2612895, 49.2714102 ], [ -123.2617137, 49.2711374 ], [ -123.2619338, 49.2710708 ], [ -123.2621937, 49.2709714 ], [ -123.2621279, 49.2707834 ], [ -123.2622764, 49.2705983 ], [ -123.2624706, 49.2703576 ], [ -123.262627, 49.270076 ], [ -123.2627517, 49.2698515 ], [ -123.2628126, 49.2697418 ], [ -123.2629179, 49.2695522 ], [ -123.2654851, 49.2649296 ] ] ] } }
]
}
