{
"type": "FeatureCollection",
"name": "park_boundary_metrovan",
"crs": { "type": "name", "properties": { "name": "urn:ogc:def:crs:OGC:1.3:CRS84" } },
"features": [
{ "type": "Feature", "properties": { "OBJECTID": 24, "globalid": "cde6e2a1-a12e-40ec-949d-ed14e2a84b95", "operatingarea": "WEST", "parkcode": "PAC", "parkname": "Pacific Spirit Regional Park", "parkshortname": "Pacific Spirit", "type": "Regional Park", "Shape__Area": 8609104.7844842821, "Shape__Length": 43933.359252483358 }, "geometry": { "type": "MultiPolygon", "coordinates": [ [ [ [ -123.193766640974999, 49.250280343642999 ], [ -123.19376276445, 49.250097711839999 ], [ -123.193764523265997, 49.249918289973998 ], [ -123.193770610287999, 49.249297148992397 ], [ -123.196534735602, 49.249310902199397 ], [ -123.196506552111998, 49.249930272883503 ], [ -123.196499143419999, 49.250093090209297 ], [ -123.196512022657998, 49.250093068303499 ], [ -123.196651856138999, 49.250091194141497 ], [ -123.196651850177005, 49.250091768947001 ], [ -123.196650442297994, 49.250251396249098 ], [ -123.19678195473, 49.250251599599203 ], [ -123.198460539761996, 49.250254186666197 ], [ -123.198698450174007, 49.250254543238597 ], [ -123.198708944182002, 49.250254559372003 ], [ -123.199928331010994, 49.250261548961603 ], [ -123.200118149326997, 49.250259457262899 ], [ -123.200307628846005, 49.250251744718597 ], [ -123.200496380703996, 49.250238428196397 ], [ -123.200684018827999, 49.250219535356401 ], [ -123.200870158561997, 49.250195102853397 ], [ -123.201054419431998, 49.250165182629701 ], [ -123.203982187451004, 49.249643895025997 ], [ -123.203892994365006, 49.249683821299101 ], [ -123.203804875662996, 49.249724748576298 ], [ -123.203717860240999, 49.249766687603497 ], [ -123.203631965848999, 49.249809611365997 ], [ -123.203547250151999, 49.249853508970602 ], [ -123.203463697942993, 49.249898358857997 ], [ -123.203381366951007, 49.249944165426598 ], [ -123.203300279093995, 49.249990912449199 ], [ -123.203220430128994, 49.250038571150903 ], [ -123.203141877755996, 49.250087138734401 ], [ -123.203064621931006, 49.250136604407999 ], [ -123.202988711984005, 49.250186934805299 ], [ -123.202914147914001, 49.250238129928903 ], [ -123.202840950223006, 49.250290162759697 ], [ -123.202769161495993, 49.250343030526999 ], [ -123.202698789863007, 49.250396704434401 ], [ -123.202629862796996, 49.2504511826371 ], [ -123.202562400809001, 49.250506439915199 ], [ -123.202496418929996, 49.250562455555801 ], [ -123.202431939115996, 49.250619221427201 ], [ -123.202368986010995, 49.2506767150008 ], [ -123.202307582876003, 49.250734911951 ], [ -123.202247733823995, 49.250793808675198 ], [ -123.202189463474994, 49.250853377247203 ], [ -123.202132791018002, 49.2509136041432 ], [ -123.202077732811006, 49.250974456953998 ], [ -123.202024301291999, 49.251035951851499 ], [ -123.201972523704001, 49.251098029421897 ], [ -123.201922419341997, 49.251160702226898 ], [ -123.201873972928993, 49.251223929816803 ], [ -123.201827243539, 49.251287707593001 ], [ -123.201782198079997, 49.251352006830501 ], [ -123.201738885978997, 49.251416815751099 ], [ -123.201697319467002, 49.251482100153702 ], [ -123.201657482078005, 49.251547863666801 ], [ -123.201619405233004, 49.251614060361803 ], [ -123.201583110919003, 49.251680688402899 ], [ -123.201548601781994, 49.251747721701101 ], [ -123.201515872193994, 49.251815126085901 ], [ -123.201484945534006, 49.251882904216501 ], [ -123.201455842293001, 49.251951025475002 ], [ -123.201428556926004, 49.252019475479898 ], [ -123.201403096129994, 49.252088210144301 ], [ -123.201379469573993, 49.252157240246703 ], [ -123.201357694974007, 49.252226527078001 ], [ -123.201337768133001, 49.252296050856899 ], [ -123.201319708187, 49.252365784565399 ], [ -123.201303500023997, 49.252435727331203 ], [ -123.201289155829997, 49.252505832358601 ], [ -123.201276696245998, 49.252576105009403 ], [ -123.201266114204003, 49.252646494923397 ], [ -123.201257397356997, 49.2527170048212 ], [ -123.201250560637007, 49.2527875879018 ], [ -123.201245620616007, 49.252858262127297 ], [ -123.201242561930002, 49.252928964558102 ], [ -123.201241383230993, 49.2529996996942 ], [ -123.201242099501002, 49.253070432428302 ], [ -123.201244698335003, 49.253141151987599 ], [ -123.201249189223006, 49.253211824173697 ], [ -123.201255563884004, 49.253282438206398 ], [ -123.201263801593001, 49.253352964437298 ], [ -123.201273936633996, 49.253423383916399 ], [ -123.201285949726, 49.253493684083303 ], [ -123.201299831138002, 49.253563835270199 ], [ -123.201315580759001, 49.253633808692001 ], [ -123.201333194461995, 49.2537036007569 ], [ -123.201352670779002, 49.253773187179597 ], [ -123.201373998576003, 49.253842531098101 ], [ -123.201397165456001, 49.253911623537697 ], [ -123.201422180917007, 49.253980432997601 ], [ -123.201449029835999, 49.2540489559048 ], [ -123.201477687326999, 49.254117153621898 ], [ -123.201508179491, 49.254185022504103 ], [ -123.201540463604999, 49.254252530241601 ], [ -123.201574539565001, 49.254319649847403 ], [ -123.201617060589001, 49.254398356749 ], [ -123.202565790926002, 49.256098531850697 ], [ -123.202742529488006, 49.256535005628002 ], [ -123.200015029756003, 49.2564940116931 ], [ -123.196730207979996, 49.256444578343199 ], [ -123.196741037345006, 49.2551486809297 ], [ -123.196607234875003, 49.255148148601101 ], [ -123.196462687386003, 49.255147633489798 ], [ -123.196325949748996, 49.2551471463049 ], [ -123.196188525009006, 49.255146661024597 ], [ -123.196051787198002, 49.255146128539501 ], [ -123.196053900459006, 49.254811906456098 ], [ -123.196057305644004, 49.254631097539601 ], [ -123.196059419034, 49.254296920402098 ], [ -123.196059886040004, 49.254242041532002 ], [ -123.196062001184998, 49.2539083141302 ], [ -123.196070215874002, 49.253727486228897 ], [ -123.196073013092004, 49.253392859915699 ], [ -123.196073482854999, 49.253337988228502 ], [ -123.195935376923003, 49.2533373760728 ], [ -123.195797284039998, 49.253336935538798 ], [ -123.195659178259007, 49.253336359933201 ], [ -123.195521069733005, 49.253335784167099 ], [ -123.195382962942006, 49.253335299084803 ], [ -123.195244167332007, 49.253334723250198 ], [ -123.195106060582006, 49.253334246831997 ], [ -123.194967954671995, 49.253333634419398 ], [ -123.194829848064003, 49.253333192752301 ], [ -123.194691728555995, 49.253332615113798 ], [ -123.194553618677006, 49.253332039093003 ], [ -123.194415513273, 49.2533315519524 ], [ -123.194276720469006, 49.253330984845597 ], [ -123.194138613695998, 49.253330497376197 ], [ -123.194000505017996, 49.253329873917103 ], [ -123.193862398432998, 49.2533294328925 ], [ -123.193738033345994, 49.253328920086602 ], [ -123.193741534767994, 49.2529942926326 ], [ -123.193742555143999, 49.252903889776199 ], [ -123.193750359665998, 49.252089797665001 ], [ -123.193751728362997, 49.251908982255003 ], [ -123.193759245026001, 49.251094434426797 ], [ -123.193766640974999, 49.250280343642999 ] ] ], [ [ [ -123.218168049715004, 49.258158198406903 ], [ -123.216175275187993, 49.258163527294698 ], [ -123.215437326965002, 49.258147668117999 ], [ -123.215269784461, 49.258145102832202 ], [ -123.215267424825996, 49.258211475775099 ], [ -123.209597044369005, 49.258125083257902 ], [ -123.209458904822995, 49.258122975226499 ], [ -123.203341409065004, 49.258029435872103 ], [ -123.203339084367002, 49.257931570157297 ], [ -123.203334255860995, 49.257833743928501 ], [ -123.203326955248002, 49.257735976019802 ], [ -123.203317177238006, 49.257638313214997 ], [ -123.203304916370001, 49.257540760920399 ], [ -123.203290167318002, 49.257443356924398 ], [ -123.203272959065998, 49.257346128160698 ], [ -123.203253278001, 49.2572491025375 ], [ -123.203231151683994, 49.257152295296898 ], [ -123.203206552851995, 49.257055756858698 ], [ -123.203179509012003, 49.256959488971901 ], [ -123.203150032669996, 49.256863522196703 ], [ -123.203118113038002, 49.256767903325397 ], [ -123.203083779009006, 49.256672636802797 ], [ -123.202829429022998, 49.256044463185802 ], [ -123.201876386506996, 49.254336500701598 ], [ -123.201842022009998, 49.254273202861299 ], [ -123.201809331175994, 49.254209517990603 ], [ -123.201778342992, 49.254145479322403 ], [ -123.201749054738002, 49.2540810949587 ], [ -123.201721473367002, 49.254016386477097 ], [ -123.201695619560994, 49.253951372732701 ], [ -123.20167148518, 49.253886080726602 ], [ -123.201649093637002, 49.253820524811303 ], [ -123.201628429878994, 49.253754722105 ], [ -123.201609528334004, 49.253688692338002 ], [ -123.201592369864002, 49.253622461630798 ], [ -123.201576981976999, 49.253556038031903 ], [ -123.201563341457003, 49.253489458462802 ], [ -123.201551482691002, 49.253422732758899 ], [ -123.201541385129005, 49.253355878047699 ], [ -123.201533076356, 49.253288921267 ], [ -123.201526522082005, 49.253221879568102 ], [ -123.201521766349998, 49.253154771764201 ], [ -123.201518772162004, 49.253087625805598 ], [ -123.201517578025999, 49.253020450620198 ], [ -123.201518156584996, 49.252953279538303 ], [ -123.201520506470999, 49.2528861152608 ], [ -123.201524645684998, 49.252818993737002 ], [ -123.201530571535002, 49.2527519302634 ], [ -123.201538264826993, 49.252684937466498 ], [ -123.201547724307005, 49.252618046831302 ], [ -123.201558966511996, 49.252551271821602 ], [ -123.201571983294997, 49.2524846376376 ], [ -123.201586759601, 49.252418161395902 ], [ -123.201603294126002, 49.252351861988203 ], [ -123.201621577325994, 49.252285759219703 ], [ -123.201641616166, 49.252219878264299 ], [ -123.201663407916996, 49.252154225422302 ], [ -123.201686926625996, 49.252088840317199 ], [ -123.201712176407, 49.252023722940699 ], [ -123.201739149161, 49.251958910186197 ], [ -123.201767824323994, 49.251894415581397 ], [ -123.201798219797993, 49.251830249887902 ], [ -123.201830306806997, 49.251766434743303 ], [ -123.201864086849, 49.251703001626801 ], [ -123.201899542101003, 49.251639962261898 ], [ -123.201936660265005, 49.251577334659103 ], [ -123.201975434524002, 49.251515133220899 ], [ -123.202015843021002, 49.251453391266402 ], [ -123.202057887097993, 49.2513921015954 ], [ -123.202101555957, 49.2513313136986 ], [ -123.202146822116006, 49.251271028521899 ], [ -123.202193680131998, 49.251211260465297 ], [ -123.202242124627006, 49.251152039220599 ], [ -123.202292121279001, 49.251093373841101 ], [ -123.202343674301005, 49.251035286805497 ], [ -123.202396753521995, 49.250977794355997 ], [ -123.202451348, 49.250920909103002 ], [ -123.202507441367004, 49.250864661656998 ], [ -123.202565024028999, 49.250809059228601 ], [ -123.202624064407999, 49.250754108167897 ], [ -123.202684561289999, 49.250699848953097 ], [ -123.202746481689005, 49.2506462798409 ], [ -123.202809814679, 49.2505934179392 ], [ -123.202874542474007, 49.2505412821668 ], [ -123.202940630832998, 49.250489900466803 ], [ -123.203008083870003, 49.250439271030601 ], [ -123.203076859072993, 49.250389414619598 ], [ -123.203146956506004, 49.2503403474227 ], [ -123.203218332272996, 49.250292087505301 ], [ -123.203290978159004, 49.2502446420757 ], [ -123.203364881876993, 49.250198030942599 ], [ -123.203440004993993, 49.250152264066003 ], [ -123.203516314641007, 49.250107367587702 ], [ -123.203593825894998, 49.250063332483499 ], [ -123.203672479784004, 49.250020185840697 ], [ -123.203752265388999, 49.249977945666799 ], [ -123.203833163484006, 49.2499366137923 ], [ -123.203915139825, 49.249896216361499 ], [ -123.203998176542996, 49.249856751604703 ], [ -123.204082251689996, 49.249818227654103 ], [ -123.204167329667996, 49.249780675154199 ], [ -123.204253400853005, 49.249744092320697 ], [ -123.204340413070994, 49.249708488239001 ], [ -123.204428362282002, 49.249673881804 ], [ -123.204517223775994, 49.249640278454599 ], [ -123.204606953644998, 49.249607691759202 ], [ -123.204697536813001, 49.2495761307378 ], [ -123.204788937575003, 49.249545599049803 ], [ -123.204881139508004, 49.249516112014398 ], [ -123.204974116526003, 49.249487673273897 ], [ -123.205067824755005, 49.249460305392503 ], [ -123.205162238057, 49.249433999419601 ], [ -123.205361921583005, 49.249398454392498 ], [ -123.203334351766003, 49.248382079896103 ], [ -123.199171825267996, 49.246295272857999 ], [ -123.199100231795995, 49.246262625704901 ], [ -123.199024335228998, 49.246234452056598 ], [ -123.198944785039998, 49.246210992758201 ], [ -123.198862262136998, 49.246192448123502 ], [ -123.198777474742002, 49.246178978842003 ], [ -123.198691147378, 49.246170699701203 ], [ -123.198604020874001, 49.2461676804866 ], [ -123.196948853097993, 49.246160453680901 ], [ -123.197019623016999, 49.238534540157403 ], [ -123.197227816185006, 49.238533190939599 ], [ -123.197435814862999, 49.238527165947403 ], [ -123.197643377245001, 49.238516474590803 ], [ -123.197712462029997, 49.238511857854 ], [ -123.197753798899996, 49.238508819568899 ], [ -123.197767532157997, 49.2385077157303 ], [ -123.197781403156995, 49.238506703405797 ], [ -123.197822752674, 49.238503394317299 ], [ -123.197891555908001, 49.238497428667898 ], [ -123.198129164167995, 49.238472772911301 ], [ -123.198365086603005, 49.238441947918503 ], [ -123.198598949662994, 49.238405002916302 ], [ -123.198618375148996, 49.236575318890097 ], [ -123.197039935367997, 49.2365681351842 ], [ -123.197017528814001, 49.235426650339498 ], [ -123.197118880841998, 49.235265208696198 ], [ -123.200014461148996, 49.236042072333497 ], [ -123.207878742746999, 49.238158885645099 ], [ -123.208223827427005, 49.2382496586442 ], [ -123.208571002011993, 49.238336966364898 ], [ -123.208920164689999, 49.238420787384101 ], [ -123.209271254876995, 49.238501103803102 ], [ -123.209624167995003, 49.238577890607402 ], [ -123.209999053732005, 49.238655192300797 ], [ -123.210375804403, 49.238728507182998 ], [ -123.210754296271006, 49.2387978318637 ], [ -123.211134479679998, 49.238863139430698 ], [ -123.211516208857006, 49.238924413942797 ], [ -123.211899394333997, 49.238981635759501 ], [ -123.212283961804005, 49.239034796907099 ], [ -123.212668278570007, 49.239081529229203 ], [ -123.219274923704006, 49.239887921677003 ], [ -123.221167583446004, 49.240199605457299 ], [ -123.221512905102003, 49.240263155545399 ], [ -123.221856697446, 49.2403301311303 ], [ -123.222198897330998, 49.2404005287488 ], [ -123.222539430457999, 49.240474308978897 ], [ -123.222698336023001, 49.240568058005898 ], [ -123.223307070920995, 49.2406546775021 ], [ -123.223673915931997, 49.240747853053698 ], [ -123.224038351475002, 49.2408450260031 ], [ -123.224400263381995, 49.2409461498195 ], [ -123.224759544540007, 49.241051218438002 ], [ -123.225119880690997, 49.241161366198199 ], [ -123.225477322532001, 49.2412754691955 ], [ -123.225831788977999, 49.241393506926002 ], [ -123.226183171309003, 49.241515424758902 ], [ -123.226531369179, 49.241641197732001 ], [ -123.226876279495002, 49.241770801789201 ], [ -123.227217815529002, 49.241904186756898 ], [ -123.227139518992999, 49.241927509783601 ], [ -123.227057971798004, 49.241945433001703 ], [ -123.226974039997003, 49.241957764903198 ], [ -123.226888614659998, 49.241964376000404 ], [ -123.226802603614004, 49.241965195244298 ], [ -123.226716921839994, 49.241960213642002 ], [ -123.226632477734995, 49.241949484282998 ], [ -123.226550168982001, 49.241933121448497 ], [ -123.226525750834995, 49.241999693688498 ], [ -123.226509054268007, 49.242067280739498 ], [ -123.226500170975001, 49.242135498327897 ], [ -123.226499154173993, 49.242203959555397 ], [ -123.226506008998996, 49.242272277616699 ], [ -123.226520695234996, 49.242340063994497 ], [ -123.226684757569004, 49.242931944296799 ], [ -123.228254030735997, 49.248592103546599 ], [ -123.228515848095, 49.249536390845201 ], [ -123.229300803444005, 49.2523673647664 ], [ -123.229364373847005, 49.252598586955202 ], [ -123.229562890086996, 49.2533130500155 ], [ -123.229669120981995, 49.253678584964497 ], [ -123.229784719845, 49.254042904796499 ], [ -123.229909631404993, 49.254405901651097 ], [ -123.230043814216998, 49.254767486528102 ], [ -123.230187255510998, 49.2551275316888 ], [ -123.230339911173999, 49.255485967024299 ], [ -123.230501718967005, 49.255842667588901 ], [ -123.230672653894999, 49.256197538944598 ], [ -123.230852655218001, 49.256550484923899 ], [ -123.231041680063001, 49.256901410221097 ], [ -123.231239673138006, 49.257250210558396 ], [ -123.228901165381004, 49.2578421096608 ], [ -123.227729237342999, 49.258023631058599 ], [ -123.226337834982999, 49.258141082163299 ], [ -123.225739553656993, 49.258171331499398 ], [ -123.225077226763005, 49.258242581310199 ], [ -123.223524323685993, 49.258244891726598 ], [ -123.221052118532995, 49.258206983760402 ], [ -123.218991158999003, 49.258197831236998 ], [ -123.218168049715004, 49.258158198406903 ] ] ], [ [ [ -123.225942474137995, 49.261236544679399 ], [ -123.218872322973994, 49.261403157548401 ], [ -123.215459882147996, 49.262162190439597 ], [ -123.215292419426007, 49.262159605243603 ], [ -123.215326126617995, 49.261228854159498 ], [ -123.215388210624994, 49.259513624621803 ], [ -123.215405255533, 49.259042831592602 ], [ -123.215571778775995, 49.259045442661503 ], [ -123.215652464420003, 49.259046638674597 ], [ -123.216155538161004, 49.258707205731703 ], [ -123.216909776259001, 49.258750265473203 ], [ -123.218146153733002, 49.258760235971003 ], [ -123.218970510161, 49.258763890206602 ], [ -123.221031540330998, 49.258768503085498 ], [ -123.222267579971998, 49.258787413653799 ], [ -123.223090819996997, 49.258822504125099 ], [ -123.223504607934998, 49.258779368398201 ], [ -123.225814130222005, 49.258775805937901 ], [ -123.227083368614004, 49.258717376114802 ], [ -123.227854594419995, 49.258644196406301 ], [ -123.229138621405994, 49.2583814684087 ], [ -123.231585112389993, 49.257821785851903 ], [ -123.231768452994999, 49.258108024935296 ], [ -123.231958062619, 49.258392797500697 ], [ -123.232057558443003, 49.258537156337503 ], [ -123.232159600651997, 49.258680753470401 ], [ -123.232349242829002, 49.258944283984597 ], [ -123.232544166344994, 49.259206159220199 ], [ -123.232684645014004, 49.259388072811497 ], [ -123.232829737968999, 49.259568430649601 ], [ -123.233016969606993, 49.259796632559798 ], [ -123.233237240836004, 49.260064396810598 ], [ -123.233236719421996, 49.260064575968599 ], [ -123.233727386363, 49.2606616280422 ], [ -123.233501739966002, 49.260732041009902 ], [ -123.230064947234993, 49.261804271648998 ], [ -123.228318961392006, 49.262348924219999 ], [ -123.229746743033004, 49.263194882554103 ], [ -123.229521793030997, 49.263358106151003 ], [ -123.226247326318997, 49.2614171882772 ], [ -123.225942474137995, 49.261236544679399 ] ] ], [ [ [ -123.219766352861001, 49.2683468605698 ], [ -123.219766032571002, 49.268258965418099 ], [ -123.219768006498001, 49.268171075796197 ], [ -123.219824517478997, 49.266582640350599 ], [ -123.219827344709003, 49.2665652661222 ], [ -123.219834581192998, 49.266548446604702 ], [ -123.219846022867998, 49.266532659831199 ], [ -123.219861347321, 49.266518351676901 ], [ -123.219880119242006, 49.266505926853398 ], [ -123.219901809617994, 49.266495736279602 ], [ -123.219925801192005, 49.266488069875003 ], [ -123.219951418649998, 49.266483143009602 ], [ -123.219977934113999, 49.266481096493997 ], [ -123.220004598711995, 49.2664819866241 ], [ -123.220030659092998, 49.266485789648101 ], [ -123.220055376656006, 49.266492398130801 ], [ -123.220078050921003, 49.266501623608498 ], [ -123.223702556283001, 49.268264066418404 ], [ -123.223702732619998, 49.268264152431001 ], [ -123.223701518946001, 49.268265084885201 ], [ -123.224051997954007, 49.268435482042698 ], [ -123.223861863047006, 49.268422595240303 ], [ -123.223670995491005, 49.268415770513499 ], [ -123.223479846157005, 49.268415024077697 ], [ -123.223288868596001, 49.268420356853802 ], [ -123.223098510803993, 49.2684317571835 ], [ -123.222909226208003, 49.268449198108797 ], [ -123.219802514045995, 49.268785567144697 ], [ -123.219790687005997, 49.2686980123189 ], [ -123.219781159199997, 49.2686103406771 ], [ -123.219773923817996, 49.2685225693237 ], [ -123.219768982402002, 49.268434738734598 ], [ -123.219766352861001, 49.2683468605698 ] ] ], [ [ [ -123.225733676055, 49.268841834376097 ], [ -123.224029016716003, 49.268013025327903 ], [ -123.224743652162999, 49.267462984699797 ], [ -123.224862895111002, 49.267375642202097 ], [ -123.224989007730002, 49.267292534640198 ], [ -123.225121639180998, 49.267213892952697 ], [ -123.225260422079003, 49.267139935517797 ], [ -123.225404968378996, 49.267070869060603 ], [ -123.225554877600004, 49.267006885039898 ], [ -123.225709731335996, 49.266948160558599 ], [ -123.225869100135, 49.266894860149101 ], [ -123.226032540730003, 49.266847132181702 ], [ -123.226199598790004, 49.266805107959101 ], [ -123.226369810302003, 49.266768905312603 ], [ -123.227254792580993, 49.266596984114898 ], [ -123.227328537410003, 49.266586002517897 ], [ -123.227403851356001, 49.266581474547102 ], [ -123.227479419372003, 49.266583479247998 ], [ -123.227553925880002, 49.266591980531601 ], [ -123.227626071282998, 49.266606830740201 ], [ -123.227694599456996, 49.266627771492502 ], [ -123.227815451143002, 49.266483591923603 ], [ -123.233280270395994, 49.268446392227197 ], [ -123.235652983907002, 49.269370091482799 ], [ -123.235649347950996, 49.269129079536597 ], [ -123.235635029370002, 49.268888236887598 ], [ -123.235610043042001, 49.268647768592302 ], [ -123.235574406571004, 49.268407875201298 ], [ -123.235528154066003, 49.268168759027503 ], [ -123.235471322373996, 49.267930621475898 ], [ -123.235403957960997, 49.267693663029497 ], [ -123.235326121024002, 49.267458082341697 ], [ -123.235237875885005, 49.2672240789543 ], [ -123.233879620907999, 49.266344636436202 ], [ -123.233798350339001, 49.266220803729901 ], [ -123.233713782978995, 49.266097908637001 ], [ -123.233625959006005, 49.265976014035502 ], [ -123.233534882556995, 49.265855119010297 ], [ -123.233440614499003, 49.265735301688899 ], [ -123.233343149397001, 49.265616571969503 ], [ -123.233242532855996, 49.2654989783261 ], [ -123.233138796635004, 49.265382548571601 ], [ -123.233031976622001, 49.26526731141 ], [ -123.232922108867001, 49.265153330626198 ], [ -123.232809196171004, 49.265040614301498 ], [ -123.232693299206005, 49.264929200984398 ], [ -123.232574460763004, 49.2648191274601 ], [ -123.232452685200997, 49.264710441385702 ], [ -123.232328039954993, 49.264603158807603 ], [ -123.232200560907003, 49.264497309328704 ], [ -123.232070262020002, 49.264392937887798 ], [ -123.231937202474995, 49.264290059648502 ], [ -123.231801423771003, 49.264188730288403 ], [ -123.231662963041003, 49.264088953321597 ], [ -123.231521875550996, 49.263990789795201 ], [ -123.231378173661994, 49.263894236976498 ], [ -123.231171422111998, 49.263761073686197 ], [ -123.231375589232997, 49.2637897861227 ], [ -123.231577548651998, 49.263824551005499 ], [ -123.231776879513006, 49.2638652963293 ], [ -123.231973170524, 49.2639119383782 ], [ -123.23216601307, 49.263964379940802 ], [ -123.232355009475, 49.264022512092303 ], [ -123.232539766125996, 49.264086215108001 ], [ -123.232719900337997, 49.2641553557498 ], [ -123.232895037619002, 49.2642297908709 ], [ -123.233064817167005, 49.264309367403399 ], [ -123.233228884981003, 49.264393918774203 ], [ -123.233386902137994, 49.264483271185 ], [ -123.233538540642996, 49.264577238222799 ], [ -123.235172324573995, 49.2656354746549 ], [ -123.235299896810005, 49.265716473174997 ], [ -123.234562301257, 49.266204607565101 ], [ -123.235238347581003, 49.266642391041003 ], [ -123.235399401362997, 49.266742231898299 ], [ -123.235566965302993, 49.266837373652002 ], [ -123.235740718260999, 49.2669276361257 ], [ -123.23643663467, 49.2663024070985 ], [ -123.236656796494003, 49.266392781015902 ], [ -123.236881511351996, 49.266478219400902 ], [ -123.237110523067003, 49.266558624705098 ], [ -123.237343568604004, 49.2666339038933 ], [ -123.237580378090996, 49.266703972041498 ], [ -123.237775344360998, 49.266941422342001 ], [ -123.237642235132995, 49.2671655329979 ], [ -123.237823876830006, 49.267210175794197 ], [ -123.238037268132999, 49.2672604450688 ], [ -123.238195911500995, 49.267453612286801 ], [ -123.238354551911996, 49.267646763995401 ], [ -123.238513193654001, 49.267839934367501 ], [ -123.238671835241007, 49.268033100018798 ], [ -123.238830479442996, 49.268226265440902 ], [ -123.238989122145, 49.268419432441497 ], [ -123.239147763339005, 49.268612599221697 ], [ -123.239306405782003, 49.268805767574598 ], [ -123.239465065873006, 49.268998917676903 ], [ -123.239623708034998, 49.269192082884601 ], [ -123.239782469437003, 49.269385202645097 ], [ -123.239872126069997, 49.269494265134902 ], [ -123.239918033145997, 49.269550116408503 ], [ -123.239934532549, 49.269597682981001 ], [ -123.239939474878994, 49.269611966100797 ], [ -123.240038420046005, 49.2698977029006 ], [ -123.240112477381999, 49.270111570158001 ], [ -123.240186535366007, 49.270325438258503 ], [ -123.240260589875007, 49.270539307210697 ], [ -123.240334662891996, 49.270753175169702 ], [ -123.240408720062007, 49.270967044006198 ], [ -123.240482777875002, 49.271180912786299 ], [ -123.240556850074, 49.271394780581801 ], [ -123.240630906432997, 49.271608651053803 ], [ -123.240704963422999, 49.271822518770897 ], [ -123.240779034808, 49.2720363873024 ], [ -123.240871107295007, 49.272302225815601 ], [ -123.240909119003007, 49.272411986982597 ], [ -123.241039277531996, 49.272787763543299 ], [ -123.241127257339997, 49.273041718700902 ], [ -123.241197362196999, 49.273238111226497 ], [ -123.240731681669999, 49.273204505714702 ], [ -123.240264931933993, 49.273165459352498 ], [ -123.239799272138995, 49.273121110669699 ], [ -123.239334875816994, 49.273071494401201 ], [ -123.238871846223006, 49.273016612147899 ], [ -123.238410363667001, 49.272956479745297 ], [ -123.237950531536001, 49.272891126683298 ], [ -123.237492502582, 49.272820557164899 ], [ -123.237036404985005, 49.272744811427103 ], [ -123.236582401131997, 49.272663897255804 ], [ -123.236130599874002, 49.272577838739998 ], [ -123.235681155479995, 49.272486672470997 ], [ -123.235234190472994, 49.272390408121602 ], [ -123.234789844076005, 49.272289099408603 ], [ -123.234348252534005, 49.272182752382299 ], [ -123.233909556423001, 49.272071418062097 ], [ -123.233473868684001, 49.271955117841202 ], [ -123.233041328463997, 49.271833892850402 ], [ -123.232612077650998, 49.271707783317801 ], [ -123.232186230577, 49.271576816935102 ], [ -123.231763907154004, 49.271441040274098 ], [ -123.231345261629002, 49.271300493542803 ], [ -123.230930393207004, 49.271155206266698 ], [ -123.230519445225994, 49.271005240267201 ], [ -123.230112538914, 49.270850633124198 ], [ -123.229709779070006, 49.270691438642899 ], [ -123.229311315762999, 49.270527690750299 ], [ -123.228917248290998, 49.270359445064102 ], [ -123.228527699292002, 49.270186751759297 ], [ -123.228142780434993, 49.270009668230202 ], [ -123.227762626693007, 49.269828239232602 ], [ -123.225733676055, 49.268841834376097 ] ] ], [ [ [ -123.233395018191004, 49.277454502980099 ], [ -123.233337375207, 49.277455145615498 ], [ -123.233301882651006, 49.2774555492052 ], [ -123.233208793420005, 49.277457670187403 ], [ -123.233115776540998, 49.277460850582401 ], [ -123.233022848507005, 49.277465090357197 ], [ -123.232930058801998, 49.277470388512597 ], [ -123.232837412943994, 49.277476750435 ], [ -123.232744965886994, 49.2774841688179 ], [ -123.230123393528004, 49.277709553510299 ], [ -123.227982563297005, 49.277469062336998 ], [ -123.226623005209007, 49.277132265387699 ], [ -123.225326151478001, 49.277047574289099 ], [ -123.225145534033004, 49.277359369627497 ], [ -123.224853881352004, 49.277337029478602 ], [ -123.224561843453998, 49.2773169966094 ], [ -123.223932648914001, 49.277275141506202 ], [ -123.224173509999005, 49.276571556182297 ], [ -123.224467329676997, 49.275712485297902 ], [ -123.224758997972003, 49.274860521224802 ], [ -123.224805349053, 49.274726013130902 ], [ -123.224800105824002, 49.274682786118603 ], [ -123.224710041494006, 49.273985420616498 ], [ -123.224656883826, 49.273574902170701 ], [ -123.224564112888004, 49.272856393070697 ], [ -123.224540022865995, 49.272670248242697 ], [ -123.224020696623001, 49.272226998615302 ], [ -123.223574080968007, 49.271845667449597 ], [ -123.223573853272001, 49.271845474493297 ], [ -123.223531611018998, 49.271809416200803 ], [ -123.223190394238003, 49.2715182930515 ], [ -123.222871297986003, 49.271245641940901 ], [ -123.222871015090007, 49.271245400515603 ], [ -123.222615561170002, 49.271027418390702 ], [ -123.222429943522002, 49.270869001538799 ], [ -123.221770728818996, 49.270306360286703 ], [ -123.221753755856994, 49.270291908785502 ], [ -123.221771442328006, 49.2699316178252 ], [ -123.221788896272002, 49.269578080885701 ], [ -123.221805397986998, 49.269245227525502 ], [ -123.221822366119994, 49.268900252208397 ], [ -123.222990258999005, 49.268774693406399 ], [ -123.223172405347995, 49.268757915591401 ], [ -123.223355667985999, 49.268747583994497 ], [ -123.223539515146996, 49.268743728424099 ], [ -123.223723412227002, 49.268746358907599 ], [ -123.223906827291998, 49.2687554683801 ], [ -123.224089224205997, 49.2687710317973 ], [ -123.224270076346997, 49.268793001612302 ], [ -123.224448857029003, 49.2688213158889 ], [ -123.224625046333998, 49.2688558910925 ], [ -123.224798133891994, 49.268896627481503 ], [ -123.224967617489, 49.2689434073108 ], [ -123.225133003070994, 49.268996093932202 ], [ -123.225293811616993, 49.269054533579599 ], [ -123.225449575032002, 49.269118558075398 ], [ -123.225599841624003, 49.269187981221499 ], [ -123.227461810860007, 49.270093146901701 ], [ -123.227738267147004, 49.2702237227357 ], [ -123.227845026007998, 49.2702746850834 ], [ -123.227890188268006, 49.270295478385201 ], [ -123.228071123147004, 49.270380935632701 ], [ -123.228468659377, 49.270559997674603 ], [ -123.228870928107, 49.270734474010197 ], [ -123.229277779309996, 49.2709043379025 ], [ -123.229689109541994, 49.271069529241203 ], [ -123.230104794737997, 49.271229989757202 ], [ -123.230524695775003, 49.271385675604897 ], [ -123.230948681757994, 49.271536540225199 ], [ -123.231376639662997, 49.271682537924299 ], [ -123.231808433031006, 49.271823610463301 ], [ -123.232243909100006, 49.271959741915197 ], [ -123.232682971266996, 49.272090873964501 ], [ -123.233125465236, 49.272216959207199 ], [ -123.233571257438001, 49.272337973587298 ], [ -123.234020214194004, 49.272453870562401 ], [ -123.234472182705005, 49.272564631515998 ], [ -123.234927051295003, 49.2726702134633 ], [ -123.235384678025, 49.272770570783699 ], [ -123.235844904538993, 49.272865674983201 ], [ -123.236307594604995, 49.272955525410097 ], [ -123.236772505483998, 49.273039985805397 ], [ -123.236304079576001, 49.274169204536499 ], [ -123.236278518909003, 49.274243504077702 ], [ -123.236263215476995, 49.274319000589401 ], [ -123.236258290169999, 49.2743950902506 ], [ -123.236263782744999, 49.274471164006499 ], [ -123.236279650463999, 49.274546611169001 ], [ -123.236305764010993, 49.274620827520998 ], [ -123.236341917122999, 49.274693218895102 ], [ -123.236387818368001, 49.274763205687698 ], [ -123.236443099403999, 49.274830225541699 ], [ -123.236507319145005, 49.274893743232901 ], [ -123.236579962381995, 49.274953248873999 ], [ -123.236660446689001, 49.2750082659973 ], [ -123.236748127935996, 49.275058353342502 ], [ -123.236842303062005, 49.275103110249098 ], [ -123.23694221833, 49.275142178438998 ], [ -123.237047072088998, 49.2751752438108 ], [ -123.237156024423996, 49.275202041816897 ], [ -123.237268204032006, 49.275222358350398 ], [ -123.237382709607999, 49.275236030641302 ], [ -123.237498624967998, 49.275242948125999 ], [ -123.237615021817007, 49.275243055140002 ], [ -123.237730966631005, 49.275236352702798 ], [ -123.237845531633994, 49.2752228930987 ], [ -123.237957797570999, 49.275202785267503 ], [ -123.238066866056997, 49.275176188483002 ], [ -123.238171862353994, 49.275143317743101 ], [ -123.238271946319998, 49.275104434752599 ], [ -123.238366313819, 49.275059852416703 ], [ -123.238454211798, 49.275009927613802 ], [ -123.238493170509003, 49.2749820205647 ], [ -123.238525783834007, 49.274950824464099 ], [ -123.238551411336005, 49.274916951413502 ], [ -123.238569551686993, 49.2748810662982 ], [ -123.238579846739995, 49.2748438750845 ], [ -123.238582095192001, 49.274806107700996 ], [ -123.238791439115005, 49.274801569852698 ], [ -123.240141966359005, 49.274772289999703 ], [ -123.241419196764994, 49.274744575963297 ], [ -123.241611885173, 49.2747403961272 ], [ -123.241704508840996, 49.275007069257498 ], [ -123.241709325654995, 49.275020770561902 ], [ -123.241713968956006, 49.275034130411598 ], [ -123.241824640624003, 49.275352557326002 ], [ -123.242475941956997, 49.275664445670202 ], [ -123.242377748229998, 49.275788159338802 ], [ -123.242414563837002, 49.275871994701099 ], [ -123.242968926551995, 49.276187497251698 ], [ -123.243349268716997, 49.276563939199697 ], [ -123.243844326667002, 49.276885859937899 ], [ -123.244312508487994, 49.276689429670903 ], [ -123.244528653263998, 49.277418328970697 ], [ -123.244485122564001, 49.277535374802802 ], [ -123.244451262235998, 49.277653781820199 ], [ -123.244427171020007, 49.277773208005001 ], [ -123.244412918769996, 49.277893307799999 ], [ -123.244408546472002, 49.278013735706899 ], [ -123.244414066220003, 49.278134142687598 ], [ -123.244429462629, 49.278254182458397 ], [ -123.244454692806002, 49.2783735078918 ], [ -123.244489680876995, 49.278491774625799 ], [ -123.244534328979, 49.278608641041799 ], [ -123.244588506265998, 49.278723769186101 ], [ -123.244426689801003, 49.278793141600303 ], [ -123.244259518592003, 49.2788568491398 ], [ -123.244087457896995, 49.278914716292 ], [ -123.243910984053002, 49.278966581915498 ], [ -123.243730583114996, 49.279012302840997 ], [ -123.243546756355002, 49.279051752960399 ], [ -123.243360012004999, 49.279084822345503 ], [ -123.243170868017998, 49.2791114199403 ], [ -123.242979846560999, 49.2791314717742 ], [ -123.242787478148003, 49.279144922751897 ], [ -123.242594294753005, 49.279151734869899 ], [ -123.242400831197003, 49.279151889911098 ], [ -123.241297188122999, 49.279133167290802 ], [ -123.239348254320007, 49.278891228282603 ], [ -123.239089820402, 49.278855902175003 ], [ -123.238833662540998, 49.278814078955001 ], [ -123.238580161965999, 49.278765819017899 ], [ -123.238329697213004, 49.278711195360799 ], [ -123.238082639976, 49.278650289093697 ], [ -123.237839360619006, 49.278583191227 ], [ -123.237600219914, 49.278510001788703 ], [ -123.237365573171004, 49.2784308289162 ], [ -123.237135772987997, 49.2783457915491 ], [ -123.236911158246997, 49.278255015853603 ], [ -123.236329213068998, 49.278010233099202 ], [ -123.236229931675993, 49.2779694126354 ], [ -123.236150096008004, 49.2779379946004 ], [ -123.236069452324998, 49.2779075037664 ], [ -123.235987989684006, 49.277877952747097 ], [ -123.235905765688003, 49.2778493126388 ], [ -123.235822781915004, 49.277821626613303 ], [ -123.235739078237003, 49.277794895487403 ], [ -123.235654675278994, 49.277769121016398 ], [ -123.235569585473002, 49.277744315766803 ], [ -123.235483866634993, 49.277720495810499 ], [ -123.235397509064001, 49.277697645873999 ], [ -123.235310552767004, 49.2776757955588 ], [ -123.235223029292996, 49.277654930406797 ], [ -123.235134970334997, 49.277635066543603 ], [ -123.235046386948, 49.277616216538803 ], [ -123.234957325875001, 49.277598381195702 ], [ -123.234867788562994, 49.2775815767016 ], [ -123.234777818924996, 49.277565786774801 ], [ -123.234687447274993, 49.277551026644602 ], [ -123.234596698421996, 49.277537310651901 ], [ -123.234505595673994, 49.277524626155298 ], [ -123.234414159636003, 49.277512970413703 ], [ -123.234322427566994, 49.277502373934297 ], [ -123.234230442085007, 49.2774928375296 ], [ -123.234138203035997, 49.277484329716003 ], [ -123.234045751889994, 49.277476898983103 ], [ -123.233953111854007, 49.277470512001102 ], [ -123.233860320117003, 49.277465183986202 ], [ -123.233767409756993, 49.2774609337608 ], [ -123.233674379218996, 49.2774577244478 ], [ -123.233581304278999, 49.277455590974697 ], [ -123.233488168362001, 49.277454518083097 ], [ -123.233395018191004, 49.277454502980099 ] ] ], [ [ [ -123.240453121672999, 49.279389860433398 ], [ -123.240455168061004, 49.279338216581699 ], [ -123.242981248790997, 49.279381079094797 ], [ -123.243135478363996, 49.279380227558697 ], [ -123.243289235828996, 49.279372284102301 ], [ -123.243441758247002, 49.279357289014101 ], [ -123.243592292471007, 49.279335315848201 ], [ -123.243740093784993, 49.279306474125399 ], [ -123.243884428634004, 49.279270905729298 ], [ -123.244024585638002, 49.279228786681799 ], [ -123.244159870084999, 49.279180325355199 ], [ -123.244289612176004, 49.279125762454697 ], [ -123.247113896998002, 49.277846749190601 ], [ -123.247276201627997, 49.277775741124699 ], [ -123.247442048905995, 49.277708327818701 ], [ -123.247611252257997, 49.277644586116601 ], [ -123.248888148478002, 49.277183787684301 ], [ -123.249048747168004, 49.277121681538198 ], [ -123.249203486932998, 49.277053504353198 ], [ -123.249351831363001, 49.276979491185301 ], [ -123.249493266171996, 49.276899899532303 ], [ -123.249627301914998, 49.2768150039308 ], [ -123.249753476753, 49.276725097748297 ], [ -123.249871352322003, 49.276630493192101 ], [ -123.249980521968993, 49.276531517692803 ], [ -123.250080605245998, 49.276428513016199 ], [ -123.250171258910996, 49.276321836138699 ], [ -123.250252168662001, 49.276211855666503 ], [ -123.250598151367001, 49.275703524826604 ], [ -123.250635018910998, 49.275657577449898 ], [ -123.250680982695997, 49.275615284865502 ], [ -123.250735209344995, 49.275577414362502 ], [ -123.250796719353005, 49.275544651690502 ], [ -123.250864395275997, 49.275517590248299 ], [ -123.250937011923995, 49.275496720225902 ], [ -123.251013255556003, 49.275482419567602 ], [ -123.251423540107993, 49.275424136387102 ], [ -123.251522382063001, 49.275406541650199 ], [ -123.251617862979998, 49.275382268016699 ], [ -123.251708932477996, 49.275351584040799 ], [ -123.251794585892995, 49.275314825643903 ], [ -123.251873883543993, 49.275272398770902 ], [ -123.251945952054001, 49.275224769491103 ], [ -123.252009996717007, 49.275172462172399 ], [ -123.252065315213997, 49.275116053153198 ], [ -123.252111296194002, 49.275056162649598 ], [ -123.252147434370002, 49.274993449324199 ], [ -123.252352354647996, 49.274571090231902 ], [ -123.252383754891, 49.2745162246921 ], [ -123.252423481693995, 49.274463720183803 ], [ -123.252471129488995, 49.274414117296701 ], [ -123.252526205951995, 49.274367926225402 ], [ -123.252588147083998, 49.274325619540697 ], [ -123.252656314473001, 49.274287633995201 ], [ -123.252730010359997, 49.274254358797499 ], [ -123.252808474885001, 49.274226135618001 ], [ -123.253226386462998, 49.274093464206302 ], [ -123.253358437288, 49.274047580763103 ], [ -123.253485365949999, 49.273995875017697 ], [ -123.253606571537006, 49.273938592075801 ], [ -123.253721482141998, 49.273876002167398 ], [ -123.253829557613003, 49.273808399741199 ], [ -123.253930288177003, 49.2737361034673 ], [ -123.254023198555998, 49.273659455327603 ], [ -123.254107852068003, 49.273578815209703 ], [ -123.254183846521002, 49.2734945645133 ], [ -123.254250825173997, 49.273407099829299 ], [ -123.254308473989994, 49.273316832945198 ], [ -123.254356518888997, 49.273224191750103 ], [ -123.254394733946995, 49.2731296103223 ], [ -123.254422940051001, 49.273033536127301 ], [ -123.254441003493, 49.272936422824898 ], [ -123.254448838697996, 49.272838726665299 ], [ -123.254446409606004, 49.272740909183803 ], [ -123.254433726895996, 49.272643430910698 ], [ -123.254352244798994, 49.271760533165299 ], [ -123.254349417352003, 49.271680106069901 ], [ -123.254355582146999, 49.271599759025598 ], [ -123.254370706979998, 49.271519921172903 ], [ -123.254394707404998, 49.271441020866 ], [ -123.254427459076993, 49.271363479348899 ], [ -123.254468784010001, 49.271287711684998 ], [ -123.254624319627993, 49.271032995427198 ], [ -123.254660475010994, 49.270989499487598 ], [ -123.254705423703996, 49.270949668589203 ], [ -123.254708989974006, 49.270949742584101 ], [ -123.254712526800006, 49.270949437945703 ], [ -123.254715942123994, 49.270948762972502 ], [ -123.254719145302005, 49.270947734055802 ], [ -123.254722051252003, 49.2709463801678 ], [ -123.254724584545997, 49.270944735656599 ], [ -123.254726676676995, 49.270942844749797 ], [ -123.254732136499996, 49.270940105366797 ], [ -123.254737951333993, 49.270937700722101 ], [ -123.255211318790003, 49.271189398030799 ], [ -123.255636247317, 49.271471428955898 ], [ -123.256348397584006, 49.271943967735602 ], [ -123.256593306637001, 49.272059296749099 ], [ -123.256934844759002, 49.2724205515728 ], [ -123.257077068010005, 49.272365790860597 ], [ -123.257120395445995, 49.271981088313197 ], [ -123.257539813278001, 49.272009998527103 ], [ -123.258850276187005, 49.271306312261501 ], [ -123.258814739586001, 49.270940564039797 ], [ -123.258982903252999, 49.270926229379903 ], [ -123.259150216809999, 49.270908130988602 ], [ -123.259667723234998, 49.270740907739501 ], [ -123.259894182821, 49.270667729014001 ], [ -123.260013073945998, 49.270625786740297 ], [ -123.260127075385995, 49.270578387165699 ], [ -123.260235604168997, 49.270525773588801 ], [ -123.260338104965001, 49.2704682162327 ], [ -123.260434052820997, 49.270406009540302 ], [ -123.260522954541003, 49.270339472170598 ], [ -123.260604358280005, 49.270268943378603 ], [ -123.260677843951001, 49.270194786634697 ], [ -123.260743035540997, 49.270117380601 ], [ -123.260799601127005, 49.270037121829802 ], [ -123.260847250110999, 49.269954421171199 ], [ -123.260885738702001, 49.269869701961497 ], [ -123.260914868539004, 49.269783399125998 ], [ -123.261173713549994, 49.268861759807002 ], [ -123.261173673369001, 49.268861699629902 ], [ -123.26092602976, 49.268586821309803 ], [ -123.260338793651997, 49.268223589853598 ], [ -123.260265978703003, 49.268049277390702 ], [ -123.259899927315999, 49.267810063249001 ], [ -123.260014607187003, 49.267653634874101 ], [ -123.260046208109998, 49.267843928512903 ], [ -123.260331801372999, 49.268033445954202 ], [ -123.260410599365002, 49.268205784835402 ], [ -123.260918565276995, 49.268524186527799 ], [ -123.260957550539999, 49.268526573068002 ], [ -123.261261110155004, 49.268622572991603 ], [ -123.261260988177995, 49.268622641630998 ], [ -123.261261443237004, 49.268622654094898 ], [ -123.261295610351993, 49.268562782073602 ], [ -123.261344666164007, 49.268492332180898 ], [ -123.261401147849995, 49.268424306766804 ], [ -123.261464778109001, 49.268359039270898 ], [ -123.261780760853, 49.268059261827801 ], [ -123.261865999394004, 49.267972580621603 ], [ -123.261942986698003, 49.267882652795599 ], [ -123.262011434548, 49.267789816340198 ], [ -123.262071089141998, 49.267694417262099 ], [ -123.262121728351005, 49.267596811389801 ], [ -123.262163160339, 49.267497363476302 ], [ -123.262195231795999, 49.267396444482102 ], [ -123.262217823819, 49.267294432483702 ], [ -123.262230851884993, 49.267191708176 ], [ -123.262234265849997, 49.267088654871998 ], [ -123.262228054066, 49.266985656694601 ], [ -123.262212239259995, 49.266883100384902 ], [ -123.262186882617002, 49.266781367197197 ], [ -123.262152075553999, 49.2666808374154 ], [ -123.262107950699999, 49.266581886730201 ], [ -123.261977967785995, 49.266321690933502 ], [ -123.261955640276, 49.266280481763403 ], [ -123.261930284098, 49.266240029982598 ], [ -123.261901958970995, 49.266200430855001 ], [ -123.261870731608994, 49.266161777636299 ], [ -123.261836675558996, 49.266124161354199 ], [ -123.261799871026994, 49.266087670594601 ], [ -123.261760404694002, 49.266052391292298 ], [ -123.261718369506994, 49.266018406529 ], [ -123.261659605605999, 49.265976045330397 ], [ -123.261596844313999, 49.265936215410299 ], [ -123.261530339394994, 49.265899078101597 ], [ -123.260759873056998, 49.265495898102202 ], [ -123.260721137974002, 49.265471928711797 ], [ -123.260688830855997, 49.265444177609602 ], [ -123.260663800868997, 49.2654133741961 ], [ -123.260646707912002, 49.265380328355903 ], [ -123.260637999145999, 49.265345909820503 ], [ -123.260637904731993, 49.265311022091602 ], [ -123.260646426741005, 49.265276583576203 ], [ -123.260916470219996, 49.264564970636798 ], [ -123.260935119555995, 49.264502196781699 ], [ -123.260944106929003, 49.264438518237 ], [ -123.260943346383002, 49.264374570261403 ], [ -123.260932842697997, 49.264310991504203 ], [ -123.260912702333997, 49.264248414985701 ], [ -123.260883125172001, 49.264187465417301 ], [ -123.260844405834007, 49.264128750203099 ], [ -123.260796932286993, 49.264072854946697 ], [ -123.260741176191999, 49.264020338075298 ], [ -123.260677694226999, 49.2639717218429 ], [ -123.260607121212004, 49.263927491446097 ], [ -123.260530157706, 49.263888088756602 ], [ -123.258988599885996, 49.263179295152099 ], [ -123.258920676786005, 49.263144011621101 ], [ -123.258859294390007, 49.263103921643399 ], [ -123.258805240216006, 49.2630595424896 ], [ -123.258759211332006, 49.263011443804899 ], [ -123.258721796472003, 49.2629602440513 ], [ -123.258693478739005, 49.262906601504703 ], [ -123.258674621818997, 49.262851206190398 ], [ -123.258665468550006, 49.262794769091201 ], [ -123.258666135406003, 49.262738017661697 ], [ -123.258676615162003, 49.2626816796311 ], [ -123.258696771383001, 49.262626480316897 ], [ -123.258726346605002, 49.262573129113903 ], [ -123.258769928424002, 49.262506860881999 ], [ -123.258807984021999, 49.262440422408801 ], [ -123.258836535819995, 49.262371974092602 ], [ -123.258855343617995, 49.262302096670403 ], [ -123.258864245623002, 49.262231382394901 ], [ -123.258863168052997, 49.262160432314197 ], [ -123.258852119599993, 49.262089849088397 ], [ -123.258831192768, 49.262020229790203 ], [ -123.258800567988004, 49.261952165895401 ], [ -123.258760502591997, 49.261886236112403 ], [ -123.258711337633997, 49.261822998270901 ], [ -123.258653489644999, 49.261762989341101 ], [ -123.258587450605006, 49.261706720037097 ], [ -123.25851378102, 49.261654665837497 ], [ -123.258433104435994, 49.261607268797498 ], [ -123.258346106036001, 49.261564932155501 ], [ -123.258258421091995, 49.261526380372203 ], [ -123.258180245850994, 49.261488366775303 ], [ -123.258107849368997, 49.261445732863898 ], [ -123.258041867188993, 49.261398850531101 ], [ -123.257982877339003, 49.261348133176902 ], [ -123.257931400274003, 49.261294024913397 ], [ -123.257887885138999, 49.261237001494699 ], [ -123.257852715227997, 49.261177563108198 ], [ -123.257826198345001, 49.261116230797398 ], [ -123.257808568170006, 49.261053543760099 ], [ -123.257784419317005, 49.260936766804598 ], [ -123.257766338946993, 49.260869159477501 ], [ -123.257740448205993, 49.260802648996801 ], [ -123.257706897567999, 49.260737621816197 ], [ -123.257665881435003, 49.2606744543953 ], [ -123.257617638132004, 49.2606135131999 ], [ -123.257562447148999, 49.260555152909397 ], [ -123.257496088367006, 49.260496314648698 ], [ -123.257422724433994, 49.260441153912197 ], [ -123.257342831364994, 49.260390025837197 ], [ -123.257256923526, 49.260343262088398 ], [ -123.257165557719006, 49.2603011636524 ], [ -123.257069320826005, 49.260264001765997 ], [ -123.256968836671007, 49.260232017900599 ], [ -123.256176834799007, 49.259988180100301 ], [ -123.256033607991995, 49.259940305672004 ], [ -123.255895376877007, 49.259886508340799 ], [ -123.255762712983, 49.259827008141997 ], [ -123.255636163237, 49.2597620530521 ], [ -123.255516251288995, 49.2596919099907 ], [ -123.255403473418994, 49.259616870225798 ], [ -123.255298294376004, 49.259537242187001 ], [ -123.255201150147997, 49.259453355956197 ], [ -123.255112441069002, 49.259365558784403 ], [ -123.255032533176006, 49.259274211491103 ], [ -123.254961758236007, 49.259179693860197 ], [ -123.254900406824007, 49.259082394760398 ], [ -123.254848733844, 49.2589827166303 ], [ -123.254806951641001, 49.258881071895402 ], [ -123.254342262595003, 49.2575845326989 ], [ -123.254304704926994, 49.257494749459703 ], [ -123.254257247813001, 49.257406997526203 ], [ -123.254200146562994, 49.257321743177101 ], [ -123.254133701762996, 49.257239439096303 ], [ -123.254058270266995, 49.257160524349899 ], [ -123.253974251417006, 49.257085417220097 ], [ -123.253882092555997, 49.257014518791998 ], [ -123.253782283494999, 49.256948205770101 ], [ -123.253675356515998, 49.256886830478301 ], [ -123.253561879488004, 49.256830719976698 ], [ -123.253442455856998, 49.256780172463301 ], [ -123.253317721889005, 49.256735456381797 ], [ -123.253043529280006, 49.256645589526698 ], [ -123.253048960410993, 49.256638871689198 ], [ -123.252389050456998, 49.256370066108097 ], [ -123.252336815926995, 49.256321776878899 ], [ -123.252292377672006, 49.256270251209401 ], [ -123.252256202922993, 49.256216027801997 ], [ -123.252228665589996, 49.256159672547497 ], [ -123.252210054477999, 49.256101771310497 ], [ -123.252200563670002, 49.256042930849503 ], [ -123.252200292447, 49.255983762625597 ], [ -123.252209242554997, 49.255924885506701 ], [ -123.252316349059996, 49.255465775318598 ], [ -123.252355433006997, 49.255298226663903 ], [ -123.252381486681003, 49.255163645189398 ], [ -123.252397322137, 49.255028385300299 ], [ -123.252402899909995, 49.254892776312502 ], [ -123.252398208057002, 49.254757154675303 ], [ -123.252383256591003, 49.254621850490501 ], [ -123.252358083025996, 49.254487197395399 ], [ -123.252322749596999, 49.254353526271899 ], [ -123.252277343255997, 49.254221165246904 ], [ -123.252274253204007, 49.254213179730797 ], [ -123.252221020451998, 49.254089330866499 ], [ -123.252158610888003, 49.2539673316343 ], [ -123.252087173088995, 49.253847472241397 ], [ -123.252006878979003, 49.253730041043099 ], [ -123.251917918290005, 49.253615316459602 ], [ -123.251820504083, 49.253503572361403 ], [ -123.251714869995993, 49.253395076276099 ], [ -123.251601266102, 49.253290086699501 ], [ -123.250801116657996, 49.252588304717399 ], [ -123.249622992534, 49.2515549640489 ], [ -123.249445880096005, 49.251403961266298 ], [ -123.249262577948002, 49.251256158575302 ], [ -123.249073221320003, 49.2511116644976 ], [ -123.248877948170005, 49.250970584850101 ], [ -123.248676903312003, 49.250833023636403 ], [ -123.248460030703995, 49.2506920671253 ], [ -123.248237109133001, 49.250555215134703 ], [ -123.248232034493, 49.250552183849003 ], [ -123.247987486851997, 49.250410860429398 ], [ -123.247736480976002, 49.250274476130002 ], [ -123.247479251070004, 49.250143157240103 ], [ -123.247216032680001, 49.250017025549802 ], [ -123.247210418939005, 49.250014428942997 ], [ -123.247029148831004, 49.249932232294398 ], [ -123.246845326206, 49.249852501011901 ], [ -123.246087603329997, 49.249531149741003 ], [ -123.243812112957002, 49.2485660562714 ], [ -123.243571474814004, 49.248468280962399 ], [ -123.243325662049003, 49.248376186648898 ], [ -123.243074988464997, 49.248289891374903 ], [ -123.242819773311993, 49.248209504179997 ], [ -123.242560341300006, 49.2481351286972 ], [ -123.242297021205999, 49.248066858659101 ], [ -123.241153390316001, 49.247785766463998 ], [ -123.240960860773995, 49.247736384019298 ], [ -123.240770836261007, 49.247683004844802 ], [ -123.240526346883996, 49.247610855951997 ], [ -123.240390394857002, 49.2475707376881 ], [ -123.240203195779998, 49.247515495082297 ], [ -123.239998803944005, 49.247451439270897 ], [ -123.239799171336003, 49.247381242962497 ], [ -123.239604728819998, 49.247305060006099 ], [ -123.239415896295, 49.2472230514717 ], [ -123.239233078623002, 49.247135396453302 ], [ -123.239056669706997, 49.247042283064097 ], [ -123.239051433060993, 49.2470393713457 ], [ -123.238949046992005, 49.246981403729599 ], [ -123.238842017096005, 49.246927150762801 ], [ -123.238730657396999, 49.246876770099902 ], [ -123.238615295618999, 49.246830412171697 ], [ -123.238496267642006, 49.246788210302 ], [ -123.238369017680995, 49.246749963390599 ], [ -123.238238445633002, 49.246716863970299 ], [ -123.237585892254003, 49.246566953676698 ], [ -123.237487534108993, 49.246541528461002 ], [ -123.237392437992, 49.246511247123699 ], [ -123.237301163986004, 49.246476286628102 ], [ -123.237214247572993, 49.246436851874797 ], [ -123.237132199627993, 49.2463931757013 ], [ -123.237055502280995, 49.246345514392402 ], [ -123.236984604789001, 49.246294146789303 ], [ -123.236690930533001, 49.246064369863802 ], [ -123.236598082453995, 49.245997030960197 ], [ -123.236497915724001, 49.2459343476092 ], [ -123.236390976064001, 49.245876660494503 ], [ -123.236277842020002, 49.245824281448698 ], [ -123.236159126348994, 49.245777495249797 ], [ -123.236035474624003, 49.245736555127401 ], [ -123.235907556997006, 49.245701683678703 ], [ -123.235541868135996, 49.2456116831071 ], [ -123.235409959503002, 49.245575589593997 ], [ -123.235282616310997, 49.245533044239103 ], [ -123.235160573455005, 49.2454842920312 ], [ -123.235044537145995, 49.245429614900303 ], [ -123.234935176644001, 49.245369328136 ], [ -123.234833121513006, 49.245303780392398 ], [ -123.234738961599007, 49.245233349190002 ], [ -123.234653241532001, 49.245158440926197 ], [ -123.234543238620006, 49.245054830399503 ], [ -123.234458764980005, 49.244979268203203 ], [ -123.234367859149998, 49.244906975271597 ], [ -123.234270816285004, 49.244838188465401 ], [ -123.234167950686, 49.244773127515799 ], [ -123.234059595860003, 49.244712006718103 ], [ -123.233946104452997, 49.2446550214392 ], [ -123.233227801810997, 49.244315186071901 ], [ -123.232618265132004, 49.243974646928102 ], [ -123.232536992806999, 49.2439027658193 ], [ -123.232464199196002, 49.243827090488502 ], [ -123.232400292964002, 49.243748049202701 ], [ -123.232312549713996, 49.243640038051403 ], [ -123.232216027757005, 49.2435352863641 ], [ -123.232111007463999, 49.2434340993942 ], [ -123.231997795256007, 49.2433367733464 ], [ -123.231876723590005, 49.243243590879899 ], [ -123.231748142724001, 49.243154824723199 ], [ -123.231612428944999, 49.243070733160003 ], [ -123.231469979085006, 49.242991562739697 ], [ -123.231321207744998, 49.2429175428856 ], [ -123.231166550067996, 49.242848890387897 ], [ -123.231006454848995, 49.242785805819302 ], [ -123.230841392779993, 49.242728472619397 ], [ -123.230671842712994, 49.242677058921501 ], [ -123.230424300874006, 49.242599146739202 ], [ -123.230179554960003, 49.242517537705098 ], [ -123.229937734350003, 49.242432272957501 ], [ -123.229698964318999, 49.242343399040799 ], [ -123.229333635233004, 49.242166935532701 ], [ -123.228950521013005, 49.241988320267403 ], [ -123.228562225090997, 49.241814570513903 ], [ -123.228168889211005, 49.241645750706297 ], [ -123.227601290693997, 49.2414504509685 ], [ -123.227245649734002, 49.241328060079503 ], [ -123.224908725133005, 49.2403547254359 ], [ -123.224782542963993, 49.240305747208502 ], [ -123.224651842219004, 49.2402621441965 ], [ -123.224517156709993, 49.240224093453101 ], [ -123.224379036634005, 49.2401917513128 ], [ -123.224238044432994, 49.240165248901903 ], [ -123.224094754801996, 49.240144693937602 ], [ -123.222206908645006, 49.2399143893022 ], [ -123.222200357809001, 49.239913046317703 ], [ -123.222193805661007, 49.239911716828303 ], [ -123.222187238344006, 49.239910374774297 ], [ -123.222180686200005, 49.239909046183598 ], [ -123.222174135358003, 49.2399077013986 ], [ -123.222167566733006, 49.2399063737383 ], [ -123.222161014598001, 49.239905046945601 ], [ -123.222154462451002, 49.239903717453899 ], [ -123.222147893823006, 49.239902388893 ], [ -123.222141341677997, 49.239901059400601 ], [ -123.222134775797997, 49.239899730833699 ], [ -123.222128207175004, 49.239898403171203 ], [ -123.222121655039004, 49.239897075476698 ], [ -123.222115087850995, 49.2398957613036 ], [ -123.222108521977006, 49.239894433634703 ], [ -123.222101969901999, 49.239893119431898 ], [ -123.222095401280995, 49.239891791767498 ], [ -123.222088834098003, 49.239890478492498 ], [ -123.222082269664, 49.2398891652117 ], [ -123.222075701104998, 49.2398878510391 ], [ -123.222069133923, 49.239886537762899 ], [ -123.222062566743006, 49.239885224486301 ], [ -123.222055998187997, 49.239883911211997 ], [ -123.222049431, 49.239882596135701 ], [ -123.222042865198006, 49.239881283754897 ], [ -123.222036296709007, 49.239879984871699 ], [ -123.222029730903998, 49.239878671590603 ], [ -123.222023162420001, 49.239877373606298 ], [ -123.222016582872996, 49.239876059451397 ], [ -123.222010014389994, 49.239874761466197 ], [ -123.222003447277004, 49.239873462578601 ], [ -123.221996866425997, 49.239872163717003 ], [ -123.221990297947997, 49.239870866630199 ], [ -123.221983730836001, 49.239869567741501 ], [ -123.221977148611998, 49.239868268881303 ], [ -123.221970581500003, 49.239866969991802 ], [ -123.221964000659, 49.239865672927401 ], [ -123.221957415689005, 49.239864374071402 ], [ -123.221950850016995, 49.239863089570399 ], [ -123.221944266421005, 49.239861790710997 ], [ -123.221937687020002, 49.239860508034702 ], [ -123.221931118601006, 49.239859223537898 ], [ -123.221924537754006, 49.239857924672101 ], [ -123.221917954231998, 49.2398566420026 ], [ -123.221911372077003, 49.239855357530999 ], [ -123.221904789925006, 49.239854073958497 ], [ -123.221898207779006, 49.239852791285202 ], [ -123.221891628370997, 49.239851506807199 ], [ -123.221885043477997, 49.2398502241385 ], [ -123.221878461388002, 49.239848954057301 ], [ -123.221871877864999, 49.239847670485602 ], [ -123.221865298531995, 49.239846402197401 ], [ -123.221858716387004, 49.239845119521803 ], [ -123.221852132932995, 49.239843851240799 ], [ -123.221845550780998, 49.239842566765503 ], [ -123.221838953585006, 49.239841297610504 ], [ -123.221832372880002, 49.239840029323098 ], [ -123.221825790801006, 49.239838761038001 ], [ -123.221819207349, 49.2398374927551 ], [ -123.221812610154998, 49.239836223598601 ], [ -123.221806029516003, 49.239834969702002 ], [ -123.221799432322996, 49.2398337005448 ], [ -123.221792848871999, 49.2398324322604 ], [ -123.221786254495996, 49.239831178388997 ], [ -123.221779671044999, 49.239829910103801 ], [ -123.221773073926002, 49.239828657136499 ], [ -123.221766476734999, 49.2398273879774 ], [ -123.221759894724002, 49.239826134080801 ], [ -123.221753297600998, 49.239824880212801 ], [ -123.221746700482996, 49.239823627243901 ], [ -123.221740101983997, 49.239822372478201 ], [ -123.221733507609997, 49.2398211186038 ], [ -123.221726925601004, 49.239819864705296 ], [ -123.221720327175007, 49.239818626129797 ], [ -123.221713732802002, 49.239817372254301 ], [ -123.221707134303998, 49.239816117486697 ], [ -123.221700538630998, 49.239814879804399 ], [ -123.221693940205995, 49.2398136412274 ], [ -123.221687345831, 49.239812386450801 ], [ -123.221680732294999, 49.239811147902103 ], [ -123.221674133875993, 49.239809910223499 ], [ -123.221667538191994, 49.239808669840698 ], [ -123.221660939773002, 49.2398074321613 ], [ -123.221654344097999, 49.239806193576797 ], [ -123.221647731928996, 49.2398049532245 ], [ -123.221641136258995, 49.239803715538798 ], [ -123.221634539275001, 49.239802491348001 ], [ -123.221627927116003, 49.239801252793598 ], [ -123.221621328686993, 49.239800012413497 ], [ -123.221614717975001, 49.239798790046997 ], [ -123.221608120995995, 49.239797566754198 ], [ -123.221601508838006, 49.239796328198302 ], [ -123.221594911856997, 49.239795104005303 ], [ -123.221588298390003, 49.239793879843504 ], [ -123.221581684924004, 49.239792655681399 ], [ -123.221575090686997, 49.2397914305825 ], [ -123.221568478595003, 49.239790206416998 ], [ -123.221561863828001, 49.239788998447601 ], [ -123.221555253109997, 49.239787774278703 ], [ -123.221548656139007, 49.239786551882098 ], [ -123.221542045486999, 49.239785342104703 ], [ -123.221535434770004, 49.239784117934597 ], [ -123.221528820005005, 49.239782909963402 ], [ -123.221522209354006, 49.239781700184899 ], [ -123.221515597329002, 49.239780490408599 ], [ -123.221508985247993, 49.239779268038703 ], [ -123.221502373223004, 49.239778058261599 ], [ -123.221495762572999, 49.239776848481597 ], [ -123.221489132762002, 49.239775654929304 ], [ -123.221482522120994, 49.2397744469475 ], [ -123.221475910097993, 49.239773237168997 ], [ -123.221469299448998, 49.239772027387403 ], [ -123.221462673757003, 49.239770832926197 ], [ -123.221456061747006, 49.239769625845099 ], [ -123.221449449790001, 49.239768430457197 ], [ -123.221442821351005, 49.239767236000198 ], [ -123.221436208027995, 49.239766042413301 ], [ -123.221429597389005, 49.239764834428499 ], [ -123.221422971695006, 49.239763639065501 ], [ -123.221416358382001, 49.239762447276497 ], [ -123.221409731383005, 49.2397612672072 ], [ -123.221403102942006, 49.239760071848302 ], [ -123.221396493743001, 49.239758878251202 ], [ -123.221389868059006, 49.239757684685401 ], [ -123.221383241061005, 49.239756504614498 ], [ -123.221376629114999, 49.239755311021597 ], [ -123.221370002122001, 49.239754131849502 ], [ -123.221363375126003, 49.239752951777497 ], [ -123.221356745329004, 49.239751760016702 ], [ -123.221350119711005, 49.239750580840898 ], [ -123.221343492716002, 49.2397494007677 ], [ -123.221336865723998, 49.2397482215937 ], [ -123.221330238728996, 49.239747041519799 ], [ -123.221323613185007, 49.239745878533803 ], [ -123.221316983446997, 49.239744699363897 ], [ -123.221310356453003, 49.239743519288901 ], [ -123.221303732283005, 49.239742356298997 ], [ -123.221297105288997, 49.239741176223298 ], [ -123.221290476999002, 49.2397400132405 ], [ -123.221283850009996, 49.239738834063502 ], [ -123.221277209343995, 49.239737668405198 ], [ -123.221270583801001, 49.239736505416097 ], [ -123.221263955500007, 49.239735339733301 ], [ -123.221257328576996, 49.239734174947003 ], [ -123.221250686554001, 49.239733012887797 ], [ -123.221244059626997, 49.239731847201298 ], [ -123.221237417601003, 49.239730684241799 ], [ -123.221230792121005, 49.239729534743198 ], [ -123.221224150083998, 49.239728369084403 ], [ -123.221217524609003, 49.239727220484497 ], [ -123.221210879832, 49.239726056629301 ], [ -123.221204254358, 49.239724908028599 ], [ -123.221197611020003, 49.239723758562299 ], [ -123.221190970365996, 49.239722594698002 ], [ -123.221184327028993, 49.239721445230899 ], [ -123.221177701547006, 49.239720294829702 ], [ -123.221171059585004, 49.239719145359203 ], [ -123.221164419071997, 49.239718012976503 ], [ -123.221157779850003, 49.239716861700899 ], [ -123.221151136521996, 49.239715714030901 ], [ -123.221144494561003, 49.239714564558902 ], [ -123.221137867780001, 49.239713430349298 ], [ -123.221131227257004, 49.239712295266202 ], [ -123.221124585295996, 49.239711145793002 ], [ -123.221117942034994, 49.239710012513299 ], [ -123.221111285027007, 49.2397088774606 ], [ -123.221104644505999, 49.239707742375899 ], [ -123.221098002622995, 49.239706609991998 ], [ -123.221091360727996, 49.239705474909201 ], [ -123.221084720207003, 49.239704339823398 ], [ -123.221078075573999, 49.2397032065441 ], [ -123.221071418568002, 49.239702071488999 ], [ -123.221064778121004, 49.239700952593402 ], [ -123.221058137601005, 49.239699817506001 ], [ -123.221051479286999, 49.239698696844698 ], [ -123.221044836028994, 49.239697563560902 ], [ -123.221038180470998, 49.239696444692598 ], [ -123.221031540016995, 49.239695323996003 ], [ -123.221024881711998, 49.239694205132203 ], [ -123.221018239892999, 49.2396930862365 ], [ -123.221011585702001, 49.239691965565001 ], [ -123.221004943883003, 49.239690846668502 ], [ -123.220998282831999, 49.239689727808397 ], [ -123.220991627276007, 49.239688608937399 ], [ -123.220984988270004, 49.239687504426797 ], [ -123.220978329958996, 49.239686383761303 ], [ -123.220971674468998, 49.239685279281503 ], [ -123.220965016161998, 49.239684159514702 ], [ -123.220958374413996, 49.2396830559073 ], [ -123.220951717549994, 49.239681951428999 ], [ -123.220945062056998, 49.239680846048103 ], [ -123.220938406567996, 49.239679741566299 ], [ -123.220931746964993, 49.2396786388911 ], [ -123.220925091468999, 49.239677532609498 ], [ -123.220918434601998, 49.239676427229703 ], [ -123.220911779122005, 49.239675324545402 ], [ -123.220905122324993, 49.2396742344567 ], [ -123.220898462715994, 49.239673129980503 ], [ -123.220891805918995, 49.239672039890898 ], [ -123.220885136698996, 49.239670936331898 ], [ -123.220878479909999, 49.239669848040599 ], [ -123.220871823113995, 49.2396687579499 ], [ -123.220865166314994, 49.239667666959299 ], [ -123.220858494416007, 49.239666578695697 ], [ -123.220851837620998, 49.239665488603897 ], [ -123.220845178082996, 49.239664399416398 ], [ -123.220838507558, 49.239663311149101 ], [ -123.220831853511996, 49.239662221050899 ], [ -123.220825180228005, 49.239661130089502 ], [ -123.220818522133001, 49.239660056189599 ], [ -123.220811851598, 49.239658965222198 ], [ -123.220805193502997, 49.239657891321599 ], [ -123.220798521667007, 49.239656816547402 ], [ -123.220791867621998, 49.239655726446799 ], [ -123.220785197164005, 49.239654652568703 ], [ -123.220778525328996, 49.239653577793199 ], [ -123.220771867227995, 49.239652502091701 ], [ -123.220765195393, 49.239651427315501 ], [ -123.220758523626998, 49.239650367830698 ], [ -123.220751851800998, 49.239649294852804 ], [ -123.220745196447993, 49.239648219144499 ], [ -123.220738524679007, 49.239647158758999 ], [ -123.220731852849994, 49.239646084880398 ], [ -123.220725179707003, 49.239645024496902 ], [ -123.220718509248002, 49.239643949715401 ], [ -123.220711838865, 49.2396428920243 ], [ -123.220705165723999, 49.239641831639503 ], [ -123.220698493955993, 49.2396407712518 ], [ -123.220691822191995, 49.239639711763203 ], [ -123.220685151799003, 49.239638651371997 ], [ -123.220678480036, 49.239637591882598 ], [ -123.220671790409995, 49.239636531527402 ], [ -123.220665122837005, 49.239635487321202 ], [ -123.220658446957998, 49.239634428738 ], [ -123.220651779381996, 49.239633383631499 ], [ -123.220645091131004, 49.239632323272097 ], [ -123.220638416689994, 49.2396312790775 ], [ -123.220631749115, 49.239630233969798 ], [ -123.220625060873004, 49.239629175408297 ], [ -123.220618390545994, 49.239628129405503 ], [ -123.220611702368998, 49.239627085235597 ], [ -123.220605032042997, 49.2396260392321 ], [ -123.220598360419999, 49.239625010321603 ], [ -123.220591673608993, 49.239623964348802 ], [ -123.220584986798002, 49.239622918375701 ], [ -123.220578317928002, 49.239621890358301 ], [ -123.220571631118005, 49.239620844384397 ], [ -123.220564959496002, 49.239619815471997 ], [ -123.220558272694007, 49.2396187712963 ], [ -123.220551584584001, 49.239617741515097 ], [ -123.220544899212996, 49.239616709929201 ], [ -123.220538227595995, 49.239615681914898 ], [ -123.220531539486004, 49.239614652132502 ], [ -123.220524851375998, 49.2396136223498 ], [ -123.220518166006997, 49.239612590762398 ], [ -123.220511479270996, 49.239611560976201 ], [ -123.220504795356007, 49.239610547375797 ], [ -123.220498107246996, 49.239609517591497 ], [ -123.220491419138995, 49.239608487806798 ], [ -123.220484736589995, 49.239607472403499 ], [ -123.220478047173003, 49.239606457012997 ], [ -123.220471361812997, 49.239605427221903 ], [ -123.220464673769996, 49.239604411827997 ], [ -123.220457989856001, 49.239603398224801 ], [ -123.220451300440004, 49.2396023828327 ], [ -123.220444615144999, 49.2396013674324 ], [ -123.220437928476997, 49.239600352034302 ], [ -123.220431228139006, 49.2395993519537 ], [ -123.220424538724004, 49.2395983365601 ], [ -123.220417853430007, 49.2395973211582 ], [ -123.220411151731994, 49.239596323777697 ], [ -123.220404466437998, 49.239595308375002 ], [ -123.220397779836006, 49.2395943073669 ], [ -123.220391078130007, 49.239593308186201 ], [ -123.220384391528, 49.239592307177297 ], [ -123.220377688381006, 49.239591292706599 ], [ -123.220371001779, 49.239590291696899 ], [ -123.22036430144, 49.239589290712999 ], [ -123.220357616293001, 49.239588307690198 ], [ -123.220350911837002, 49.239587307612901 ], [ -123.220344211498997, 49.239586306627899 ], [ -123.220337523596996, 49.239585321810097 ], [ -123.220330823259005, 49.239584320824299 ], [ -123.220324121624003, 49.239583336931503 ], [ -123.220317437771996, 49.239582335913497 ], [ -123.220310736133996, 49.2395813511204 ], [ -123.220304034498994, 49.239580367226402 ], [ -123.220297332860994, 49.239579382432602 ], [ -123.220290631222994, 49.239578397638397 ], [ -123.220283943316005, 49.239577411018502 ], [ -123.220277241681998, 49.239576427122998 ], [ -123.220270540037006, 49.239575440528498 ], [ -123.220263838403994, 49.239574456632297 ], [ -123.220257138205, 49.239573486225702 ], [ -123.220250433822002, 49.239572501434402 ], [ -123.220243734993005, 49.239571530124898 ], [ -123.220237033356995, 49.239570545327602 ], [ -123.220230333163997, 49.239569575818997 ], [ -123.220223613729004, 49.239568604547699 ], [ -123.220216910792004, 49.239567635943096 ], [ -123.220210211969004, 49.2395666655312 ], [ -123.220203509021005, 49.239565694227302 ], [ -123.220196806084999, 49.239564725621598 ], [ -123.220190093520998, 49.239563754335201 ], [ -123.220183390585007, 49.239562785728602 ], [ -123.220176690450003, 49.239561828810203 ], [ -123.220169971017, 49.2395608575358 ], [ -123.220163273642001, 49.239559903309797 ], [ -123.220156570699004, 49.239558932902703 ], [ -123.220149854086998, 49.239557977813199 ], [ -123.220143149839998, 49.239557022699699 ], [ -123.220136435971995, 49.239556066704601 ], [ -123.220129733098005, 49.239555111587698 ], [ -123.220123017865006, 49.239554157393499 ], [ -123.220116317739993, 49.239553202270599 ], [ -123.220109599748, 49.239552245382299 ], [ -123.220102884587007, 49.2395513073782 ], [ -123.220096184453993, 49.239550350455097 ], [ -123.220089467845, 49.239549395361998 ], [ -123.220082748555996, 49.239548455565597 ], [ -123.220076049870002, 49.2395475148301 ], [ -123.220069330512999, 49.2395465597411 ], [ -123.220062618094005, 49.239545619930396 ], [ -123.220032154443004, 49.239541350340097 ], [ -123.221103002034994, 49.237955861589199 ], [ -123.221321013593993, 49.237633027232803 ], [ -123.221625423031995, 49.237160611043699 ], [ -123.221802085061, 49.237306429602697 ], [ -123.221853260258996, 49.2373256423515 ], [ -123.221863345220001, 49.2373306342406 ], [ -123.221956509010994, 49.237314974450101 ], [ -123.222232980037006, 49.237334626493798 ], [ -123.222300315024, 49.2373503352771 ], [ -123.222366148502005, 49.237368569878498 ], [ -123.222430259709995, 49.237389269152303 ], [ -123.222492433664002, 49.237412363688001 ], [ -123.222552461874002, 49.237437776042803 ], [ -123.222610143043994, 49.2374654210019 ], [ -123.222665283748995, 49.237495205863198 ], [ -123.222717699078999, 49.237527030749298 ], [ -123.222870776072, 49.237681173265401 ], [ -123.222899469241995, 49.237779117607602 ], [ -123.222957362543994, 49.237786941504901 ], [ -123.222977229194001, 49.237790497665401 ], [ -123.222980788658006, 49.237790516881397 ], [ -123.223088561443006, 49.237794696699197 ], [ -123.223213432475006, 49.237801442110303 ], [ -123.223320527083004, 49.2378136350952 ], [ -123.223434177900003, 49.237831449928301 ], [ -123.223532232794994, 49.237854780133603 ], [ -123.223633861154994, 49.237890640923801 ], [ -123.223726460736998, 49.237935789618902 ], [ -123.223808051751007, 49.2379892603877 ], [ -123.223889286469003, 49.238060818546401 ], [ -123.223974085294003, 49.238180758806799 ], [ -123.224034830796995, 49.2383418836449 ], [ -123.224015988407999, 49.238464323996801 ], [ -123.224005738101994, 49.2385067088181 ], [ -123.224004026730995, 49.238514378791002 ], [ -123.224015830606007, 49.2385235949275 ], [ -123.224041539720005, 49.238541306200098 ], [ -123.224043953928998, 49.238542935056202 ], [ -123.224059442018998, 49.2385502748295 ], [ -123.224122879554997, 49.238573277673602 ], [ -123.224265806285004, 49.238618450620599 ], [ -123.224442929733996, 49.238722862662897 ], [ -123.224519505369997, 49.238768662519597 ], [ -123.224589047208994, 49.238813810350699 ], [ -123.224649509163001, 49.2388448658428 ], [ -123.224728535845003, 49.238886090305797 ], [ -123.224843912132002, 49.238938356709802 ], [ -123.224958736046005, 49.238986309950597 ], [ -123.225068242096995, 49.239034526204001 ], [ -123.225174779384005, 49.239077856521398 ], [ -123.225344831846996, 49.239150057263203 ], [ -123.225416329108, 49.239183566320101 ], [ -123.225494363281996, 49.239212925656901 ], [ -123.225601848286004, 49.239263586659497 ], [ -123.225653266736998, 49.239286574351503 ], [ -123.225712328297007, 49.239313025552001 ], [ -123.225818792509997, 49.239362069201 ], [ -123.225907849516005, 49.2393987414397 ], [ -123.225991287159999, 49.239430446629797 ], [ -123.226148154404996, 49.239489584785503 ], [ -123.226254125527007, 49.239545389828898 ], [ -123.226314007715999, 49.239569401400402 ], [ -123.226420160873005, 49.2396078495957 ], [ -123.226571262248996, 49.2396610391216 ], [ -123.226636218297003, 49.239689280936503 ], [ -123.226726693209002, 49.239722722264602 ], [ -123.226881588417001, 49.239778629499497 ], [ -123.227013373139997, 49.2398355804144 ], [ -123.227138113725005, 49.239886035164702 ], [ -123.227293058458997, 49.2399456360993 ], [ -123.227420775707998, 49.239995885892199 ], [ -123.227506493177003, 49.240025214349302 ], [ -123.227609589081993, 49.240056258081601 ], [ -123.227695652362002, 49.240083661632603 ], [ -123.227847366423006, 49.240139514471302 ], [ -123.227925573475005, 49.240161914894202 ], [ -123.228053955011006, 49.240201322498102 ], [ -123.228226532595997, 49.240255982258802 ], [ -123.228352189397995, 49.2403026351911 ], [ -123.228477426441998, 49.240345501816101 ], [ -123.228587061255993, 49.240376762920697 ], [ -123.228714343131998, 49.240417589617202 ], [ -123.228861189037005, 49.240471926964503 ], [ -123.228993872385999, 49.240516725749004 ], [ -123.229080607933994, 49.240549238035697 ], [ -123.229237722207003, 49.240597850653302 ], [ -123.229427129046002, 49.240671477689901 ], [ -123.229558539435999, 49.240723289251001 ], [ -123.229648390893999, 49.240751805525598 ], [ -123.229743414341002, 49.240780788193298 ], [ -123.229924624383003, 49.2408391945578 ], [ -123.230064072751006, 49.240905516874498 ], [ -123.230101082207995, 49.240922615999203 ], [ -123.230105273730004, 49.240924084670702 ], [ -123.230189393543, 49.2409521576798 ], [ -123.230233160189997, 49.240965541752701 ], [ -123.230376918768997, 49.241008470149097 ], [ -123.230407242083004, 49.241021168539199 ], [ -123.230498709968003, 49.2410478629876 ], [ -123.230608772113996, 49.241090037054498 ], [ -123.230662101863004, 49.241106574499703 ], [ -123.230782210621996, 49.241141554629799 ], [ -123.230905691391001, 49.2411839948522 ], [ -123.231025526755005, 49.2412262605284 ], [ -123.231052493495, 49.241236185029301 ], [ -123.231153385835995, 49.241270349554597 ], [ -123.231274147180997, 49.241314880822102 ], [ -123.231427944974996, 49.241366624744401 ], [ -123.231486653836996, 49.241385498792901 ], [ -123.231629634769007, 49.241437029343899 ], [ -123.231739467737995, 49.241476224464002 ], [ -123.231891421908003, 49.241531296110701 ], [ -123.232080308055998, 49.241595694306604 ], [ -123.232223587590994, 49.241659663951097 ], [ -123.232250124222006, 49.241670638782097 ], [ -123.232414186650004, 49.2417284883172 ], [ -123.232579126176006, 49.241800713859298 ], [ -123.232666525097997, 49.241839221044899 ], [ -123.232741804306002, 49.241867569959403 ], [ -123.232830565631005, 49.241900957778299 ], [ -123.232949722393002, 49.241949240643997 ], [ -123.233087744833995, 49.2420216564581 ], [ -123.233154830009994, 49.242060628831901 ], [ -123.233234881266, 49.242100645425197 ], [ -123.233280444342, 49.242127805436098 ], [ -123.233318851649003, 49.2421448989057 ], [ -123.233454606763999, 49.242201543891198 ], [ -123.233554797739004, 49.242250232360497 ], [ -123.233647834593995, 49.242290938435602 ], [ -123.233731896183997, 49.242331082400902 ], [ -123.233777636076994, 49.242349611815897 ], [ -123.23385898251, 49.242376539067102 ], [ -123.233926949438995, 49.242397480029702 ], [ -123.234029885615001, 49.242423350577603 ], [ -123.234187279458993, 49.242481149030802 ], [ -123.234332646873, 49.2425378148749 ], [ -123.234454585517994, 49.2425883186649 ], [ -123.234549483015996, 49.242631430962703 ], [ -123.234656295495, 49.2426798693552 ], [ -123.234747539533004, 49.242731249246503 ], [ -123.234826982116999, 49.242774812796199 ], [ -123.234938842670005, 49.242840302851299 ], [ -123.235036110888004, 49.242900175269398 ], [ -123.235098041789996, 49.242946794860899 ], [ -123.235200008763002, 49.243016716963297 ], [ -123.235319225864004, 49.243112209710603 ], [ -123.235376727933001, 49.243170407859303 ], [ -123.235404543656003, 49.2431955153885 ], [ -123.235469758361006, 49.2432452017635 ], [ -123.235547171676998, 49.243312140401599 ], [ -123.235610219915998, 49.243368154772199 ], [ -123.235664703552999, 49.2434143880565 ], [ -123.235708948961005, 49.243449076115603 ], [ -123.235751582483999, 49.243481957603201 ], [ -123.235804886151996, 49.243526739596597 ], [ -123.235824908926006, 49.243545092207 ], [ -123.235850940174004, 49.243560059330299 ], [ -123.235960643612998, 49.243638716436301 ], [ -123.236045686322001, 49.243720388659199 ], [ -123.236074016695, 49.243751869904798 ], [ -123.236091204283994, 49.243768573136499 ], [ -123.236134665137996, 49.243810901397097 ], [ -123.236158171509999, 49.243829932266401 ], [ -123.236195874295007, 49.243855532120698 ], [ -123.236288170164997, 49.243918380273698 ], [ -123.236335939732001, 49.243952318774298 ], [ -123.236385768703002, 49.2439856467618 ], [ -123.236431780773003, 49.244012885561197 ], [ -123.236442094680996, 49.244020344899802 ], [ -123.236479983310005, 49.244038766973503 ], [ -123.236520313407993, 49.244062363499097 ], [ -123.236517927495001, 49.244061623577302 ], [ -123.236575856749994, 49.244087350107201 ], [ -123.236687962161994, 49.244128799959803 ], [ -123.236734985498003, 49.2441539766548 ], [ -123.236814129460996, 49.2441836669732 ], [ -123.236853776594003, 49.244200285370702 ], [ -123.236919145843004, 49.244223969845798 ], [ -123.236957741797994, 49.244239112444298 ], [ -123.236994537908004, 49.244252814085598 ], [ -123.237144446092003, 49.244310577076803 ], [ -123.237203527611001, 49.244336651740603 ], [ -123.237300001318005, 49.244381782462902 ], [ -123.237368608360995, 49.244415861234899 ], [ -123.237452593572996, 49.244457317743297 ], [ -123.237559037790007, 49.244507768232502 ], [ -123.237638862005994, 49.244564469307399 ], [ -123.237667023675002, 49.244582816547897 ], [ -123.237761172299997, 49.2446417017985 ], [ -123.237819355211997, 49.2446890724393 ], [ -123.237891370832997, 49.244735251482602 ], [ -123.237979743075996, 49.244797668287298 ], [ -123.237985906988001, 49.244802899817898 ], [ -123.237991396455996, 49.2448055915808 ], [ -123.238067097545994, 49.244842957476401 ], [ -123.238154489867, 49.244888084606799 ], [ -123.238231711476004, 49.244943871319997 ], [ -123.238302462600998, 49.244983801017902 ], [ -123.238367014521998, 49.245014297556502 ], [ -123.238455650941006, 49.245059730427997 ], [ -123.238509833107003, 49.245088074138799 ], [ -123.238533436856002, 49.245097911180501 ], [ -123.238630024512005, 49.245137901569102 ], [ -123.238689498240007, 49.245158608996697 ], [ -123.238820065675995, 49.245209205473103 ], [ -123.239014953419996, 49.245287075460098 ], [ -123.239099519129994, 49.2453289361505 ], [ -123.239099565930999, 49.245328954044197 ], [ -123.239187467454002, 49.245358521162103 ], [ -123.239305545410005, 49.245401754252001 ], [ -123.239464326622993, 49.245471023250303 ], [ -123.239510074587997, 49.245496710585599 ], [ -123.239577645831005, 49.245521385660702 ], [ -123.239701884412995, 49.245572936963903 ], [ -123.239784235689996, 49.245608983622297 ], [ -123.239992621219997, 49.245691022920496 ], [ -123.240157830480001, 49.245761730341698 ], [ -123.240290176936, 49.245821260028301 ], [ -123.240429547779001, 49.245878026897699 ], [ -123.240584578965994, 49.245951371604399 ], [ -123.240691113146994, 49.246003181790101 ], [ -123.240764707167997, 49.246038180954997 ], [ -123.240840220273995, 49.246070824715801 ], [ -123.240955803236005, 49.246109489034403 ], [ -123.241022928438994, 49.246136487663897 ], [ -123.241102797497007, 49.246164922285999 ], [ -123.241212221834999, 49.2462019980468 ], [ -123.241324256664001, 49.246242408184699 ], [ -123.241462871268993, 49.246296885195399 ], [ -123.241606709498996, 49.246342234436902 ], [ -123.241752848467002, 49.246394987166802 ], [ -123.241908806439994, 49.246450307982698 ], [ -123.242039167632996, 49.246500908441199 ], [ -123.242148397812002, 49.246547997224603 ], [ -123.242254392915996, 49.246586755897397 ], [ -123.242407800627007, 49.246641530877298 ], [ -123.242489628331995, 49.246667255559998 ], [ -123.242667580675004, 49.246725486819102 ], [ -123.242829574542995, 49.246795221180797 ], [ -123.242957606231997, 49.2468422462902 ], [ -123.243111606043996, 49.246914872845302 ], [ -123.243207468915003, 49.246954925689103 ], [ -123.243307718327003, 49.246997331365698 ], [ -123.243388240651996, 49.2470312114474 ], [ -123.243515414171995, 49.247076446792498 ], [ -123.243614211166999, 49.247119009082702 ], [ -123.243744381357004, 49.247168056336498 ], [ -123.243867666214996, 49.247212830845299 ], [ -123.244018932938005, 49.247265676922702 ], [ -123.244161750174001, 49.247308564936098 ], [ -123.244273923400002, 49.247350129603397 ], [ -123.244416294331998, 49.247397984518301 ], [ -123.244559247545993, 49.247437655053801 ], [ -123.244774167665, 49.247509258085799 ], [ -123.244959083973995, 49.247569754946902 ], [ -123.245124171821004, 49.247617675059402 ], [ -123.245272532276005, 49.247669957159999 ], [ -123.245397352321007, 49.2477145585637 ], [ -123.245542273552005, 49.247767823606203 ], [ -123.245673599808995, 49.247815136440899 ], [ -123.245750924668997, 49.247840094794697 ], [ -123.245869606813997, 49.247876197446402 ], [ -123.246017344193007, 49.247928588757503 ], [ -123.246136714732998, 49.247960464603999 ], [ -123.246234765701999, 49.2479942198974 ], [ -123.246305632339997, 49.248009618009199 ], [ -123.246406944065996, 49.248035911848604 ], [ -123.246504486741998, 49.248059684179402 ], [ -123.246637239929001, 49.248096587178303 ], [ -123.246741962968002, 49.248125760013899 ], [ -123.246819771657997, 49.248143931508302 ], [ -123.246918773996995, 49.248169086537203 ], [ -123.246920769835995, 49.248169510445003 ], [ -123.246982458809001, 49.248174251305102 ], [ -123.247196548095005, 49.248204419523901 ], [ -123.247353002625005, 49.248203849885101 ], [ -123.247599224400005, 49.248253308114201 ], [ -123.247704349081999, 49.248283759239001 ], [ -123.247845782810998, 49.248325725447202 ], [ -123.248013729090005, 49.2484055863885 ], [ -123.248113074759999, 49.248460642533402 ], [ -123.248206345537, 49.2485156063996 ], [ -123.248270141633, 49.248555180609998 ], [ -123.248332272659994, 49.248594515492499 ], [ -123.248359696348999, 49.248610495055701 ], [ -123.248457232012996, 49.248663672989998 ], [ -123.248536856897005, 49.248705853113499 ], [ -123.248661751930001, 49.2487678359239 ], [ -123.248758045802006, 49.2488239658149 ], [ -123.248895815485, 49.248901638931102 ], [ -123.248986118885, 49.248953921679103 ], [ -123.249085195430993, 49.249017595003401 ], [ -123.249172783709994, 49.249062428203999 ], [ -123.249261154856001, 49.249109617301102 ], [ -123.249336373122006, 49.249145788563297 ], [ -123.249454544664999, 49.249206495105902 ], [ -123.249527587296001, 49.249252872441403 ], [ -123.249641138659001, 49.249319092058101 ], [ -123.249752033350006, 49.2493965739476 ], [ -123.249820448907997, 49.249443270535401 ], [ -123.249863732359998, 49.249466731866001 ], [ -123.249965363157997, 49.249515795136801 ], [ -123.250103604995999, 49.249595326898799 ], [ -123.250199204991006, 49.249662240576299 ], [ -123.250228422145995, 49.249683479823297 ], [ -123.250246196750993, 49.249692904315303 ], [ -123.250829518059007, 49.250077369562199 ], [ -123.250601034903994, 49.250224555229302 ], [ -123.250759329201003, 49.250312505420702 ], [ -123.250936060639006, 49.250409193802703 ], [ -123.251075562077006, 49.250474287898001 ], [ -123.251304312518997, 49.2505752694222 ], [ -123.251549434861005, 49.250677579424497 ], [ -123.251564792821, 49.250683989273 ], [ -123.251579610681006, 49.250690923818297 ], [ -123.251728056678999, 49.250760387321499 ], [ -123.251883162281004, 49.250821797970602 ], [ -123.252056779575994, 49.250882799221301 ], [ -123.252057042504006, 49.250882892198099 ], [ -123.252057319192005, 49.250882988743001 ], [ -123.252232422915995, 49.250944644038199 ], [ -123.252243474116, 49.250948535537198 ], [ -123.252254294411003, 49.2509526857026 ], [ -123.252377773117999, 49.251000046712001 ], [ -123.252425589748995, 49.251015990650302 ], [ -123.252557556046, 49.251059992991301 ], [ -123.252650112436001, 49.251135676238903 ], [ -123.252720651765003, 49.251193357733001 ], [ -123.252751304404001, 49.251218421569902 ], [ -123.252758626597995, 49.251224516015 ], [ -123.252784936435006, 49.2512483821831 ], [ -123.252808805849995, 49.251273323218797 ], [ -123.252830131240998, 49.251299233206602 ], [ -123.252848824088005, 49.251325999901098 ], [ -123.252858056267002, 49.251341227520697 ], [ -123.252923495597997, 49.251455168161399 ], [ -123.252930240724993, 49.251467450782002 ], [ -123.252943435926994, 49.251495585977601 ], [ -123.252953114530996, 49.251522064752301 ], [ -123.252980631173003, 49.251608870596002 ], [ -123.253015470559006, 49.251662852072599 ], [ -123.253083165236006, 49.251745263874803 ], [ -123.253164168769999, 49.2518252798276 ], [ -123.253228252647006, 49.251886192746802 ], [ -123.253286515171993, 49.251931400118202 ], [ -123.253305052247001, 49.251946426496701 ], [ -123.253324563251994, 49.251963802091197 ], [ -123.253379048075999, 49.252014844811796 ], [ -123.253460908327, 49.2520786987346 ], [ -123.253478293507001, 49.2520928280885 ], [ -123.253504604154003, 49.252116694087803 ], [ -123.253510501625996, 49.252122528050201 ], [ -123.253581995786007, 49.252194454467201 ], [ -123.253599968564998, 49.252213561375399 ], [ -123.253612735752995, 49.252228579679802 ], [ -123.253669199735, 49.252298086933003 ], [ -123.253677758783994, 49.252308978460498 ], [ -123.253684770308993, 49.252318483621501 ], [ -123.253740548115005, 49.252396437971299 ], [ -123.253752230315996, 49.252413699355699 ], [ -123.253759562254999, 49.252425657708301 ], [ -123.253810513527, 49.252512312919897 ], [ -123.253857845539997, 49.252592287204102 ], [ -123.253933385685002, 49.252718991781201 ], [ -123.253934945159997, 49.252721632052904 ], [ -123.253974912648999, 49.252789935864797 ], [ -123.254043099735, 49.2528828029672 ], [ -123.254122699788994, 49.252988031362101 ], [ -123.254185886011996, 49.253065754207299 ], [ -123.254210143867994, 49.253089495926801 ], [ -123.254232901731001, 49.253113350683698 ], [ -123.254252643211004, 49.2531371868874 ], [ -123.254334049858002, 49.253242963464203 ], [ -123.254335635315996, 49.253245036973397 ], [ -123.254354329714999, 49.253271803412801 ], [ -123.254366752463, 49.253292700774601 ], [ -123.254428011572998, 49.253403863007897 ], [ -123.254491978244005, 49.253505964641398 ], [ -123.254506146367007, 49.253530612753003 ], [ -123.254519343018003, 49.253558747756202 ], [ -123.254529700467003, 49.2535873882481 ], [ -123.254531063578995, 49.253591916143797 ], [ -123.254567352476002, 49.253715794995699 ], [ -123.254622461704002, 49.253862229281403 ], [ -123.254628750969999, 49.253880582785499 ], [ -123.254636223329996, 49.253909604725997 ], [ -123.254639427559994, 49.253927962330202 ], [ -123.254655227089998, 49.254038637226998 ], [ -123.254677386745001, 49.254118909507703 ], [ -123.254682152487007, 49.254138678617899 ], [ -123.254685483697997, 49.2541579390615 ], [ -123.254703081388996, 49.254283939657498 ], [ -123.254703618953002, 49.254287994422398 ], [ -123.254718979025995, 49.254410158982203 ], [ -123.254719659293997, 49.254416041263397 ], [ -123.254734663068007, 49.254558145433798 ], [ -123.254734671733999, 49.254558227271303 ], [ -123.254736294869005, 49.254587639897998 ], [ -123.254736078286001, 49.254600563824297 ], [ -123.254731619780998, 49.254715556995897 ], [ -123.254728810871001, 49.254840538430599 ], [ -123.254726812309002, 49.254957157008903 ], [ -123.254725871210994, 49.254976166006301 ], [ -123.254721449445995, 49.255030208306302 ], [ -123.254726080245007, 49.2551118621966 ], [ -123.254740188754994, 49.255240443994303 ], [ -123.254752486944994, 49.255336345610701 ], [ -123.254764754215003, 49.255374161494203 ], [ -123.254815500659006, 49.255451058647203 ], [ -123.25481568072, 49.255451332604601 ], [ -123.254871328402004, 49.255535808197699 ], [ -123.254882594893004, 49.255543906935401 ], [ -123.254927007019006, 49.255576619949998 ], [ -123.255050800448004, 49.255643917103598 ], [ -123.255093038157995, 49.255664787237102 ], [ -123.255146529458997, 49.255686432179402 ], [ -123.255189562976, 49.255702512359399 ], [ -123.255284761311998, 49.255737212537497 ], [ -123.255353532786003, 49.2557569481149 ], [ -123.255354635911004, 49.255757138174801 ], [ -123.255397707141, 49.255765586640898 ], [ -123.255439842323, 49.2557758604936 ], [ -123.255479431015999, 49.255787460461598 ], [ -123.255583294057004, 49.255820506800099 ], [ -123.255584722883, 49.255820963295598 ], [ -123.255624449362998, 49.255834748749699 ], [ -123.255660890477998, 49.255849417595499 ], [ -123.255830384573002, 49.255922499253302 ], [ -123.255982754092997, 49.255987774764499 ], [ -123.255986275910004, 49.255989293451897 ], [ -123.256017391674007, 49.256003630366102 ], [ -123.256146722394007, 49.256066796955302 ], [ -123.256152244508002, 49.256069521960796 ], [ -123.256183776694996, 49.2560862344463 ], [ -123.256312343245, 49.256158591170298 ], [ -123.256315664948005, 49.256160472799301 ], [ -123.256348586024998, 49.256180519388401 ], [ -123.256373853531997, 49.2561978448038 ], [ -123.256445721697006, 49.256249828849803 ], [ -123.256451303123995, 49.256253915586903 ], [ -123.256457649444002, 49.256258687861298 ], [ -123.256580650949999, 49.256352494066803 ], [ -123.256602947778006, 49.2563704089197 ], [ -123.256629262209998, 49.2563942741834 ], [ -123.256653136050005, 49.256419214395201 ], [ -123.256674465678003, 49.256445123643203 ], [ -123.256685691380994, 49.256460630764998 ], [ -123.256761660072002, 49.256570973740601 ], [ -123.256769131279995, 49.256582232655603 ], [ -123.256785112439005, 49.256609742326198 ], [ -123.256798311211995, 49.256637877050402 ], [ -123.256806790376004, 49.256660641318 ], [ -123.256822553302996, 49.256708325966002 ], [ -123.256859244866007, 49.256797814383702 ], [ -123.256885332197996, 49.2568580891772 ], [ -123.256916054344998, 49.256917701503902 ], [ -123.256928078914996, 49.2569435783222 ], [ -123.256931005523995, 49.2569508750395 ], [ -123.256978141187005, 49.257072500827398 ], [ -123.256985574175005, 49.257093844362103 ], [ -123.256993048408006, 49.2571228661308 ], [ -123.256994648741994, 49.2571312002475 ], [ -123.257018983438996, 49.2572683467221 ], [ -123.257032110265996, 49.257322000136902 ], [ -123.257050744352995, 49.257380238757698 ], [ -123.257063199748004, 49.257405680132003 ], [ -123.257078071180004, 49.257426362151499 ], [ -123.257125464601003, 49.257463318822801 ], [ -123.257142881698002, 49.2574774700307 ], [ -123.257155055461993, 49.257488103179298 ], [ -123.257202324302, 49.257530683911902 ], [ -123.257216465845005, 49.2575439158921 ], [ -123.257218116505001, 49.257545527760001 ], [ -123.257276597037006, 49.257602928323799 ], [ -123.257403329488, 49.257725336443798 ], [ -123.257404528424999, 49.257726498654499 ], [ -123.257410551367997, 49.2577324580664 ], [ -123.257524268335004, 49.257846919880599 ], [ -123.257542120352994, 49.257865900494799 ], [ -123.257544597727005, 49.257868710478299 ], [ -123.257586170503004, 49.257916257419602 ], [ -123.257619147854996, 49.257945472350201 ], [ -123.257636515011001, 49.257961586352501 ], [ -123.257660390116996, 49.257986526347302 ], [ -123.257663450943994, 49.2579900051715 ], [ -123.257772467039999, 49.258115184237901 ], [ -123.257790737140994, 49.258137614448898 ], [ -123.257791780546995, 49.258138991988503 ], [ -123.257827259075995, 49.2581860819882 ], [ -123.257838271644999, 49.258201421258597 ], [ -123.257906256650998, 49.258300942920101 ], [ -123.257907468471998, 49.258302726666898 ], [ -123.257970770257998, 49.258396482008898 ], [ -123.258032483346994, 49.258483867745603 ], [ -123.258073980754006, 49.258540756216803 ], [ -123.258074347567003, 49.258541258230501 ], [ -123.258145064836, 49.258638510444499 ], [ -123.258158545533007, 49.2586582599248 ], [ -123.258166041701998, 49.258670493772399 ], [ -123.258232239064995, 49.258783268296199 ], [ -123.258273717117007, 49.258847680342399 ], [ -123.258345763425993, 49.2589489970985 ], [ -123.258355201971995, 49.258962878113302 ], [ -123.258375684822994, 49.258994425338201 ], [ -123.258406475105005, 49.259039901100401 ], [ -123.258468554526999, 49.259119235049901 ], [ -123.258532398116998, 49.259188702653603 ], [ -123.258590901057005, 49.259243940035603 ], [ -123.258672954011999, 49.259317942674301 ], [ -123.258734173251995, 49.259370604865303 ], [ -123.258798977051995, 49.2594235549372 ], [ -123.258803969659994, 49.259427684255598 ], [ -123.258853626442999, 49.259469246088898 ], [ -123.258873185742999, 49.259482563772202 ], [ -123.258942274497002, 49.259529363122503 ], [ -123.259002423650998, 49.259568890943001 ], [ -123.259030626647004, 49.259588571334 ], [ -123.259059272822995, 49.259611257827601 ], [ -123.259069646919002, 49.259620276565499 ], [ -123.259121795751994, 49.259666812450398 ], [ -123.259137739029995, 49.259681658391102 ], [ -123.259141702457001, 49.259685555227698 ], [ -123.259203986900005, 49.259747496949103 ], [ -123.259223900218004, 49.259768539775898 ], [ -123.259232419308006, 49.259778405513302 ], [ -123.259293777506002, 49.2598515977907 ], [ -123.259306590877998, 49.259867640799897 ], [ -123.259325290476994, 49.259894406395397 ], [ -123.259328112174998, 49.259898891377098 ], [ -123.259336902691999, 49.259913075104201 ], [ -123.259345802514005, 49.259922413757899 ], [ -123.259425329210003, 49.260011683720798 ], [ -123.259476990766998, 49.260089916105201 ], [ -123.259500464073994, 49.260122516046501 ], [ -123.259536781373995, 49.260167004003499 ], [ -123.259631188609006, 49.260270061554003 ], [ -123.259744073182006, 49.260404255829698 ], [ -123.259849182639002, 49.260528075298403 ], [ -123.259935617306994, 49.260620713368098 ], [ -123.260000230578001, 49.2606854990985 ], [ -123.260193115269004, 49.260532764974897 ], [ -123.261118607051003, 49.261094987836103 ], [ -123.262066530257997, 49.260421059545799 ], [ -123.263911721620005, 49.259109150935998 ], [ -123.264665054530994, 49.258573511603103 ], [ -123.264766745752993, 49.2584989353862 ], [ -123.264865258502994, 49.258422553406803 ], [ -123.264960517975993, 49.258344423676597 ], [ -123.265052451838997, 49.258264605534499 ], [ -123.265140990286, 49.2581831596016 ], [ -123.265226066088999, 49.258100147734702 ], [ -123.265307614654006, 49.258015632979898 ], [ -123.265385574063004, 49.257929679524302 ], [ -123.265459885127001, 49.257842352647103 ], [ -123.265530491429004, 49.257753718670401 ], [ -123.265597339367005, 49.257663844908798 ], [ -123.265660378191001, 49.257572799617897 ], [ -123.265719560047998, 49.257480651942601 ], [ -123.265774840014004, 49.257387471864803 ], [ -123.265826176128996, 49.257293330149999 ], [ -123.265873529426997, 49.257198298293702 ], [ -123.266631949154998, 49.2556053969424 ], [ -123.266711362486006, 49.255438082253001 ], [ -123.266731259078995, 49.2554373886639 ], [ -123.266807269309993, 49.2557323457875 ], [ -123.266605846375995, 49.256323327835702 ], [ -123.266577117143001, 49.2568632383203 ], [ -123.266656857648996, 49.257564162201398 ], [ -123.266977829675, 49.257987816697401 ], [ -123.267173388797005, 49.258380527124999 ], [ -123.267161655433995, 49.2589041223005 ], [ -123.267183193977999, 49.259120270044903 ], [ -123.267171773854002, 49.259517059645503 ], [ -123.267055907672002, 49.259971430737998 ], [ -123.267103115401, 49.260390050181897 ], [ -123.266895056224001, 49.260789774971798 ], [ -123.266599953859995, 49.261476922172498 ], [ -123.266497721685994, 49.262186516667398 ], [ -123.266442042047998, 49.262663846014 ], [ -123.266426185311005, 49.263107588874398 ], [ -123.266159344190996, 49.2634993825585 ], [ -123.266200233307998, 49.263853577624801 ], [ -123.266153716632999, 49.264545288378699 ], [ -123.266152157091994, 49.264978296511003 ], [ -123.266008819274006, 49.267725048066602 ], [ -123.265160211538003, 49.269535789745397 ], [ -123.263920661973998, 49.271709174799 ], [ -123.262416489876003, 49.273388111282998 ], [ -123.260246088244003, 49.275668285908701 ], [ -123.257610217331006, 49.278016096519103 ], [ -123.252381068942, 49.279798343552201 ], [ -123.247496778132998, 49.280779940954098 ], [ -123.243467650529993, 49.281112178056603 ], [ -123.239599331167, 49.2809875245445 ], [ -123.240452406649993, 49.279412187086102 ], [ -123.240453121672999, 49.279389860433398 ] ] ] ] } }
]
}
