{
"type": "FeatureCollection",
"name": "study_area",
"crs": { "type": "name", "properties": { "name": "urn:ogc:def:crs:OGC:1.3:CRS84" } },
"features": [
{ "type": "Feature", "properties": { }, "geometry": { "type": "Polygon", "coordinates": [ [ [ -123.272586196648845, 49.260140666632537 ], [ -123.27168363142242, 49.264147958281008 ], [ -123.271386665134187, 49.268474121919098 ], [ -123.269072431110786, 49.272967133627752 ], [ -123.264678312560918, 49.27779820696464 ], [ -123.261726930462842, 49.280401875108488 ], [ -123.260585873427942, 49.281041984373331 ], [ -123.253996280816054, 49.283237732981377 ], [ -123.248652505795675, 49.284297660190845 ], [ -123.243197203683394, 49.284705881061271 ], [ -123.238792390539516, 49.284546643980946 ], [ -123.2367750569842, 49.284074955847238 ], [ -123.235186278825324, 49.283134840664601 ], [ -123.234424498552315, 49.282206047963591 ], [ -123.234136123414899, 49.281362705577514 ], [ -123.233402340679532, 49.281056644874369 ], [ -123.229739798841862, 49.281298849708691 ], [ -123.226256318036633, 49.280880977465522 ], [ -123.225065159444995, 49.280957045246701 ], [ -123.222836085685174, 49.280800952180357 ], [ -123.221301108200279, 49.280434546975805 ], [ -123.219636536505618, 49.279521404430227 ], [ -123.218817462245937, 49.278596444109247 ], [ -123.218519400013975, 49.277909463488996 ], [ -123.218473520147469, 49.276840906065864 ], [ -123.219254918286481, 49.274477075366647 ], [ -123.219196230533598, 49.274022966117528 ], [ -123.216750413053973, 49.271774892577746 ], [ -123.215490201562744, 49.271017894494484 ], [ -123.214521002548395, 49.269786296626165 ], [ -123.214268010404609, 49.268355309681098 ], [ -123.21448956678104, 49.26571578507172 ], [ -123.21258687743159, 49.265291845386663 ], [ -123.21096118773329, 49.264375710584403 ], [ -123.209995066900504, 49.263122142385939 ], [ -123.209808901968586, 49.261727367129176 ], [ -123.20216916037937, 49.261544756533169 ], [ -123.20024706130863, 49.261003390838567 ], [ -123.198823121913634, 49.260075111382456 ], [ -123.196071619622742, 49.260016739449355 ], [ -123.194054179369061, 49.259587551480159 ], [ -123.192788062485505, 49.258952250133682 ], [ -123.192122945928986, 49.258407285370701 ], [ -123.190910728006656, 49.256409569014593 ], [ -123.189465884271158, 49.25559300654411 ], [ -123.188645608049086, 49.254683390387854 ], [ -123.188241472270832, 49.253304145104416 ], [ -123.188304484317015, 49.24892111300921 ], [ -123.188707125491632, 49.247897817247093 ], [ -123.189221909856343, 49.247277576700107 ], [ -123.190314244262311, 49.246499623274815 ], [ -123.191453993707739, 49.246039097697192 ], [ -123.191524676564811, 49.238512548760518 ], [ -123.191748763843094, 49.237524332682376 ], [ -123.191544057094902, 49.235110764046027 ], [ -123.192266096734897, 49.233577665571602 ], [ -123.193222291057197, 49.232728433956296 ], [ -123.194052238057409, 49.232279673380631 ], [ -123.195506538274842, 49.231825521958136 ], [ -123.197099460288527, 49.231667139922891 ], [ -123.199202032466872, 49.231935744416731 ], [ -123.21104382156264, 49.23509525864538 ], [ -123.216482141665907, 49.235887026790849 ], [ -123.217773215618777, 49.234594843088644 ], [ -123.219083438714705, 49.233970708666213 ], [ -123.220087635620331, 49.233706307614845 ], [ -123.222233729569851, 49.233584640939299 ], [ -123.22486015102352, 49.234162123365735 ], [ -123.227008039415722, 49.235049827305509 ], [ -123.228811588978829, 49.236341860873672 ], [ -123.234618192729386, 49.238404319055824 ], [ -123.237785198856812, 49.23972196264971 ], [ -123.240098432542382, 49.241278443690206 ], [ -123.241714732162819, 49.242150606664829 ], [ -123.24648587540787, 49.244049093461179 ], [ -123.248351812876336, 49.244667888089573 ], [ -123.250114545746783, 49.245048529119209 ], [ -123.25166399481914, 49.245714378279416 ], [ -123.256460065048941, 49.248526316989086 ], [ -123.257241827643554, 49.249142765242652 ], [ -123.259353187501688, 49.251775650286739 ], [ -123.260106241814754, 49.253554928058641 ], [ -123.261366705690676, 49.254571210271237 ], [ -123.261897983820887, 49.253700513704231 ], [ -123.262913661936921, 49.252836844238104 ], [ -123.264277769358984, 49.252211861436976 ], [ -123.265319921580868, 49.251957201691418 ], [ -123.26643894773477, 49.251844408920803 ], [ -123.26802804143162, 49.251940881712507 ], [ -123.269034724480605, 49.252170490891146 ], [ -123.270371341065854, 49.252741328814949 ], [ -123.271401136808535, 49.253539444863456 ], [ -123.272151536868137, 49.254838796837539 ], [ -123.272302340810285, 49.255826450958118 ], [ -123.272104986420274, 49.256713557311556 ], [ -123.272645674020495, 49.258038203171303 ], [ -123.272586196648845, 49.260140666632537 ] ], [ [ -123.236501056269589, 49.2562210058625 ], [ -123.238808276866351, 49.259287764485364 ], [ -123.239126509329949, 49.259984116462824 ], [ -123.239098033898514, 49.261430231588285 ], [ -123.238331620733732, 49.262619476192612 ], [ -123.239236170228224, 49.263209694019459 ], [ -123.240735459524913, 49.263757320406498 ], [ -123.24185658234326, 49.26444240238812 ], [ -123.244760331552911, 49.267845640304849 ], [ -123.245280038396885, 49.268753554725933 ], [ -123.246693986885191, 49.27313714221242 ], [ -123.247767477237545, 49.272549415430589 ], [ -123.248853642803724, 49.271690744337725 ], [ -123.249248833218587, 49.270153953411437 ], [ -123.250282260815808, 49.268812237212927 ], [ -123.25204316086905, 49.267801388292661 ], [ -123.253044319116398, 49.267514576096197 ], [ -123.254452793126433, 49.26734866976652 ], [ -123.255183995358436, 49.265776487046168 ], [ -123.253799330925219, 49.264563729734746 ], [ -123.253075721250482, 49.262975009944839 ], [ -123.251852696061533, 49.262374611994048 ], [ -123.250819841939062, 49.261626675734512 ], [ -123.249880028633854, 49.260552204813976 ], [ -123.249330931060271, 49.259356841496299 ], [ -123.248226863468204, 49.258720459403328 ], [ -123.247505275991813, 49.258038942706797 ], [ -123.246743404113104, 49.25647941865742 ], [ -123.246835093673539, 49.255125522947615 ], [ -123.245042117125834, 49.25356177839766 ], [ -123.24402660150686, 49.252947757651896 ], [ -123.240756251125234, 49.251559209796149 ], [ -123.237625529949639, 49.250696791865124 ], [ -123.23405916617908, 49.249382139767867 ], [ -123.235261882798994, 49.253585740585841 ], [ -123.236501056269589, 49.2562210058625 ] ] ] } }
]
}
